{
  "type": "FeatureCollection",
  "features": [
    {
      "type": "Feature",
      "id": "node/-275242",
      "properties": {
        "addr:city": "Riverside",
        "addr:housenumber": "9225",
        "addr:postcode": "92503",
        "addr:state": "CA",
        "addr:street": "Magnolia Avenue",
        "brand": "Stater Bros.",
        "brand:wikidata": "Q7604016",
        "name": "Stater Bros. Markets",
        "opening_hours": "Mo-Su 06:00-23:00",
        "phone": "+1 951-343-2568",
        "ref": "1",
        "shop": "supermarket",
        "website": "https://www.staterbros.com/stores/1"
      },
      "geometry": { "type": "Point", "coordinates": [-117.4419652, 33.9238906] }
    },
    {
      "type": "Feature",
      "id": "node/-275243",
      "properties": {
        "addr:city": "Barstow",
        "addr:housenumber": "957",
        "addr:postcode": "92311",
        "addr:state": "CA",
        "addr:street": "Armory Road",
        "brand": "Stater Bros.",
        "brand:wikidata": "Q7604016",
        "name": "Stater Bros. Markets",
        "opening_hours": "Mo-Su 06:00-23:00",
        "phone": "+1 760-252-5422",
        "ref": "101",
        "shop": "supermarket",
        "website": "https://www.staterbros.com/stores/101",
        "branch": "Barstow"
      },
      "geometry": { "type": "Point", "coordinates": [-117.0133465, 34.885142] }
    },
    {
      "type": "Feature",
      "id": "node/-275244",
      "properties": {
        "addr:city": "Mojave",
        "addr:housenumber": "16920",
        "addr:postcode": "93501",
        "addr:state": "CA",
        "addr:street": "California 14",
        "brand": "Stater Bros.",
        "brand:wikidata": "Q7604016",
        "name": "Stater Bros. Markets",
        "opening_hours": "Mo-Su 06:00-23:00",
        "phone": "+1 661-824-2719",
        "ref": "102",
        "shop": "supermarket",
        "website": "https://www.staterbros.com/stores/102",
        "branch": "Mojave"
      },
      "geometry": { "type": "Point", "coordinates": [-118.1735421, 35.0681961] }
    },
    {
      "type": "Feature",
      "id": "node/-275245",
      "properties": {
        "addr:city": "Corona",
        "addr:housenumber": "1193",
        "addr:postcode": "92879",
        "addr:state": "CA",
        "addr:street": "Magnolia Avenue",
        "brand": "Stater Bros.",
        "brand:wikidata": "Q7604016",
        "name": "Stater Bros. Markets",
        "opening_hours": "Mo-Su 06:00-23:00",
        "phone": "+1 951-736-1399",
        "ref": "103",
        "shop": "supermarket",
        "website": "https://www.staterbros.com/stores/103",
        "branch": "Rimpau"
      },
      "geometry": { "type": "Point", "coordinates": [-117.5464238, 33.86553] }
    },
    {
      "type": "Feature",
      "id": "node/-275246",
      "properties": {
        "addr:city": "Twentynine Palms",
        "addr:housenumber": "71727",
        "addr:postcode": "92277",
        "addr:state": "CA",
        "addr:street": "Twentynine Palms Highway",
        "brand": "Stater Bros.",
        "brand:wikidata": "Q7604016",
        "name": "Stater Bros. Markets",
        "opening_hours": "Mo-Su 06:00-23:00",
        "phone": "+1 760-367-6535",
        "ref": "105",
        "shop": "supermarket",
        "website": "https://www.staterbros.com/stores/105"
      },
      "geometry": { "type": "Point", "coordinates": [-116.0969879, 34.1352286] }
    },
    {
      "type": "Feature",
      "id": "node/-275247",
      "properties": {
        "addr:city": "West Covina",
        "addr:housenumber": "375",
        "addr:postcode": "91791",
        "addr:state": "CA",
        "addr:street": "North Azusa Avenue",
        "brand": "Stater Bros.",
        "brand:wikidata": "Q7604016",
        "name": "Stater Bros. Markets",
        "opening_hours": "Mo-Su 06:00-23:00",
        "phone": "+1 626-915-4951",
        "ref": "106",
        "shop": "supermarket",
        "website": "https://www.staterbros.com/stores/106",
        "branch": "West Covina"
      },
      "geometry": { "type": "Point", "coordinates": [-117.9094355, 34.0771874] }
    },
    {
      "type": "Feature",
      "id": "node/-275248",
      "properties": {
        "addr:city": "San Bernardino",
        "addr:housenumber": "977",
        "addr:postcode": "92407",
        "addr:state": "CA",
        "addr:street": "Kendall Drive",
        "brand": "Stater Bros.",
        "brand:wikidata": "Q7604016",
        "name": "Stater Bros. Markets",
        "opening_hours": "Mo-Su 06:00-23:00",
        "phone": "+1 909-882-0461",
        "ref": "107",
        "shop": "supermarket",
        "website": "https://www.staterbros.com/stores/107",
        "branch": "Shandin Hills"
      },
      "geometry": { "type": "Point", "coordinates": [-117.3035727, 34.1632945] }
    },
    {
      "type": "Feature",
      "id": "node/-275249",
      "properties": {
        "addr:city": "Ontario",
        "addr:housenumber": "646",
        "addr:postcode": "91762",
        "addr:state": "CA",
        "addr:street": "West Holt Boulevard",
        "brand": "Stater Bros.",
        "brand:wikidata": "Q7604016",
        "name": "Stater Bros. Markets",
        "opening_hours": "Mo-Su 06:00-23:00",
        "phone": "+1 909-988-7343",
        "ref": "108",
        "shop": "supermarket",
        "website": "https://www.staterbros.com/stores/108",
        "branch": "Ontario Village"
      },
      "geometry": { "type": "Point", "coordinates": [-117.6595345, 34.0643352] }
    },
    {
      "type": "Feature",
      "id": "node/-275250",
      "properties": {
        "addr:city": "Ridgecrest",
        "addr:housenumber": "800",
        "addr:postcode": "93555",
        "addr:state": "CA",
        "addr:street": "North China Lake Boulevard",
        "brand": "Stater Bros.",
        "brand:wikidata": "Q7604016",
        "name": "Stater Bros. Markets",
        "opening_hours": "Mo-Su 06:00-23:00",
        "phone": "+1 760-375-5557",
        "ref": "109",
        "shop": "supermarket",
        "website": "https://www.staterbros.com/stores/109",
        "branch": "Ridgecrest"
      },
      "geometry": { "type": "Point", "coordinates": [-117.6679603, 35.6351491] }
    },
    {
      "type": "Feature",
      "id": "node/-275251",
      "properties": {
        "addr:city": "Apple Valley",
        "addr:housenumber": "21602",
        "addr:postcode": "92308",
        "addr:state": "CA",
        "addr:street": "Bear Valley Road",
        "brand": "Stater Bros.",
        "brand:wikidata": "Q7604016",
        "name": "Stater Bros. Markets",
        "opening_hours": "Mo-Su 06:00-23:00",
        "phone": "+1 760-240-3124",
        "ref": "110",
        "shop": "supermarket",
        "website": "https://www.staterbros.com/stores/110"
      },
      "geometry": { "type": "Point", "coordinates": [-117.1922987, 34.4729265] }
    },
    {
      "type": "Feature",
      "id": "node/-275252",
      "properties": {
        "addr:city": "Menifee",
        "addr:housenumber": "25904",
        "addr:postcode": "92584",
        "addr:state": "CA",
        "addr:street": "Newport Road",
        "brand": "Stater Bros.",
        "brand:wikidata": "Q7604016",
        "name": "Stater Bros. Markets",
        "opening_hours": "Mo-Su 06:00-23:00",
        "phone": "+1 951-672-6780",
        "ref": "111",
        "shop": "supermarket",
        "website": "https://www.staterbros.com/stores/111",
        "branch": "South Sun City"
      },
      "geometry": { "type": "Point", "coordinates": [-117.2068872, 33.6864465] }
    },
    {
      "type": "Feature",
      "id": "node/-275253",
      "properties": {
        "addr:city": "Redlands",
        "addr:housenumber": "1536",
        "addr:postcode": "92373",
        "addr:state": "CA",
        "addr:street": "Barton Road",
        "brand": "Stater Bros.",
        "brand:wikidata": "Q7604016",
        "name": "Stater Bros. Markets",
        "opening_hours": "Mo-Su 06:00-23:00",
        "phone": "+1 909-798-0072",
        "ref": "112",
        "shop": "supermarket",
        "website": "https://www.staterbros.com/stores/112",
        "branch": "West Redlands"
      },
      "geometry": { "type": "Point", "coordinates": [-117.207071, 34.04829] }
    },
    {
      "type": "Feature",
      "id": "node/-275254",
      "properties": {
        "addr:city": "Perris",
        "addr:housenumber": "47",
        "addr:postcode": "92571",
        "addr:state": "CA",
        "addr:street": "West Nuevo Road",
        "brand": "Stater Bros.",
        "brand:wikidata": "Q7604016",
        "name": "Stater Bros. Markets",
        "opening_hours": "Mo-Su 06:00-23:00",
        "phone": "+1 951-657-1823",
        "ref": "113",
        "shop": "supermarket",
        "website": "https://www.staterbros.com/stores/113",
        "branch": "North Perris"
      },
      "geometry": { "type": "Point", "coordinates": [-117.2272629, 33.7997009] }
    },
    {
      "type": "Feature",
      "id": "node/-275255",
      "properties": {
        "addr:city": "Riverside",
        "addr:housenumber": "2995",
        "addr:postcode": "92507",
        "addr:state": "CA",
        "addr:street": "Iowa Avenue",
        "brand": "Stater Bros.",
        "brand:wikidata": "Q7604016",
        "name": "Stater Bros. Markets",
        "opening_hours": "Mo-Su 06:00-23:00",
        "phone": "+1 951-686-1032",
        "ref": "114",
        "shop": "supermarket",
        "website": "https://www.staterbros.com/stores/114",
        "branch": "Blaine"
      },
      "geometry": { "type": "Point", "coordinates": [-117.3415367, 33.9857597] }
    },
    {
      "type": "Feature",
      "id": "node/-275256",
      "properties": {
        "addr:city": "Riverside",
        "addr:housenumber": "3420",
        "addr:postcode": "92503",
        "addr:state": "CA",
        "addr:street": "La Sierra Avenue",
        "brand": "Stater Bros.",
        "brand:wikidata": "Q7604016",
        "name": "Stater Bros. Markets",
        "opening_hours": "Mo-Su 06:00-23:00",
        "phone": "+1 951-343-2588",
        "ref": "115",
        "shop": "supermarket",
        "website": "https://www.staterbros.com/stores/115"
      },
      "geometry": { "type": "Point", "coordinates": [-117.4728643, 33.8972695] }
    },
    {
      "type": "Feature",
      "id": "node/-275257",
      "properties": {
        "addr:city": "Phelan",
        "addr:housenumber": "4059",
        "addr:postcode": "92371",
        "addr:state": "CA",
        "addr:street": "Phelan Road",
        "brand": "Stater Bros.",
        "brand:wikidata": "Q7604016",
        "name": "Stater Bros. Markets",
        "opening_hours": "Mo-Su 06:00-23:00",
        "phone": "+1 760-868-2315",
        "ref": "116",
        "shop": "supermarket",
        "website": "https://www.staterbros.com/stores/116",
        "branch": "Phelan"
      },
      "geometry": { "type": "Point", "coordinates": [-117.5736566, 34.4250313] }
    },
    {
      "type": "Feature",
      "id": "node/-275258",
      "properties": {
        "addr:city": "Colton",
        "addr:housenumber": "2053",
        "addr:postcode": "92324",
        "addr:state": "CA",
        "addr:street": "East Washington Street",
        "brand": "Stater Bros.",
        "brand:wikidata": "Q7604016",
        "name": "Stater Bros. Markets",
        "opening_hours": "Mo-Su 06:00-23:00",
        "phone": "+1 909-423-0720",
        "ref": "117",
        "shop": "supermarket",
        "website": "https://www.staterbros.com/stores/117",
        "branch": "Colton"
      },
      "geometry": { "type": "Point", "coordinates": [-117.2913264, 34.0500112] }
    },
    {
      "type": "Feature",
      "id": "node/-275259",
      "properties": {
        "addr:city": "Victorville",
        "addr:housenumber": "13760",
        "addr:postcode": "92392",
        "addr:state": "CA",
        "addr:street": "Bear Valley Road",
        "brand": "Stater Bros.",
        "brand:wikidata": "Q7604016",
        "name": "Stater Bros. Markets",
        "opening_hours": "Mo-Su 06:00-23:00",
        "phone": "+1 760-241-8924",
        "ref": "118",
        "shop": "supermarket",
        "website": "https://www.staterbros.com/stores/118",
        "branch": "Victorville"
      },
      "geometry": { "type": "Point", "coordinates": [-117.3630247, 34.471833] }
    },
    {
      "type": "Feature",
      "id": "node/-275260",
      "properties": {
        "addr:city": "Hemet",
        "addr:housenumber": "43396",
        "addr:postcode": "92544",
        "addr:state": "CA",
        "addr:street": "Florida Avenue",
        "brand": "Stater Bros.",
        "brand:wikidata": "Q7604016",
        "name": "Stater Bros. Markets",
        "opening_hours": "Mo-Su 06:00-23:00",
        "phone": "+1 951-927-8555",
        "ref": "119",
        "shop": "supermarket",
        "website": "https://www.staterbros.com/stores/119",
        "branch": "East Hemet"
      },
      "geometry": { "type": "Point", "coordinates": [-116.9037808, 33.7490846] }
    },
    {
      "type": "Feature",
      "id": "node/-275261",
      "properties": {
        "addr:city": "Rialto",
        "addr:housenumber": "571",
        "addr:postcode": "92376",
        "addr:state": "CA",
        "addr:street": "East Foothill Boulevard",
        "brand": "Stater Bros.",
        "brand:wikidata": "Q7604016",
        "name": "Stater Bros. Markets",
        "opening_hours": "Mo-Su 06:00-23:00",
        "phone": "+1 909-874-5195",
        "ref": "12",
        "shop": "supermarket",
        "website": "https://www.staterbros.com/stores/12",
        "branch": "South Rialto"
      },
      "geometry": { "type": "Point", "coordinates": [-117.3606339, 34.1067714] }
    },
    {
      "type": "Feature",
      "id": "node/-275262",
      "properties": {
        "addr:city": "Yucca Valley",
        "addr:housenumber": "58060",
        "addr:postcode": "92284",
        "addr:state": "CA",
        "addr:street": "Twentynine Palms Highway",
        "brand": "Stater Bros.",
        "brand:wikidata": "Q7604016",
        "name": "Stater Bros. Markets",
        "opening_hours": "Mo-Su 06:00-23:00",
        "phone": "+1 760-365-2415",
        "ref": "120",
        "shop": "supermarket",
        "website": "https://www.staterbros.com/stores/120",
        "branch": "East Yucca Valley"
      },
      "geometry": { "type": "Point", "coordinates": [-116.3975517, 34.1297192] }
    },
    {
      "type": "Feature",
      "id": "node/-275263",
      "properties": {
        "addr:city": "San Jacinto",
        "addr:housenumber": "1537",
        "addr:postcode": "92583",
        "addr:state": "CA",
        "addr:street": "South San Jacinto Avenue",
        "brand": "Stater Bros.",
        "brand:wikidata": "Q7604016",
        "name": "Stater Bros. Markets",
        "opening_hours": "Mo-Su 06:00-23:00",
        "phone": "+1 951-487-0319",
        "ref": "121",
        "shop": "supermarket",
        "website": "https://www.staterbros.com/stores/121"
      },
      "geometry": { "type": "Point", "coordinates": [-116.9566414, 33.7722333] }
    },
    {
      "type": "Feature",
      "id": "node/-275264",
      "properties": {
        "addr:city": "Hesperia",
        "addr:housenumber": "14466",
        "addr:postcode": "92345",
        "addr:state": "CA",
        "addr:street": "Main Street",
        "brand": "Stater Bros.",
        "brand:wikidata": "Q7604016",
        "name": "Stater Bros. Markets",
        "opening_hours": "Mo-Su 06:00-23:00",
        "phone": "+1 760-244-2299",
        "ref": "122",
        "shop": "supermarket",
        "website": "https://www.staterbros.com/stores/122",
        "branch": "Main"
      },
      "geometry": { "type": "Point", "coordinates": [-117.3468426, 34.4272334] }
    },
    {
      "type": "Feature",
      "id": "node/-275265",
      "properties": {
        "addr:city": "Victorville",
        "addr:housenumber": "15235",
        "addr:postcode": "92394",
        "addr:state": "CA",
        "addr:street": "Hook Boulevard",
        "brand": "Stater Bros.",
        "brand:wikidata": "Q7604016",
        "name": "Stater Bros. Markets",
        "opening_hours": "Mo-Su 06:00-23:00",
        "phone": "+1 760-243-5533",
        "ref": "123",
        "shop": "supermarket",
        "website": "https://www.staterbros.com/stores/123",
        "branch": "North Victorville"
      },
      "geometry": { "type": "Point", "coordinates": [-117.3317152, 34.5201637] }
    },
    {
      "type": "Feature",
      "id": "node/-275266",
      "properties": {
        "addr:city": "Laguna Woods",
        "addr:housenumber": "24336",
        "addr:postcode": "92637",
        "addr:state": "CA",
        "addr:street": "El Toro Road",
        "brand": "Stater Bros.",
        "brand:wikidata": "Q7604016",
        "name": "Stater Bros. Markets",
        "opening_hours": "Mo-Su 06:00-23:00",
        "phone": "+1 949-598-3235",
        "ref": "124",
        "shop": "supermarket",
        "website": "https://www.staterbros.com/stores/124",
        "branch": "Laguna Woods"
      },
      "geometry": { "type": "Point", "coordinates": [-117.731424, 33.6083455] }
    },
    {
      "type": "Feature",
      "id": "node/-275267",
      "properties": {
        "addr:city": "Yucaipa",
        "addr:housenumber": "11365",
        "addr:postcode": "92399",
        "addr:state": "CA",
        "addr:street": "Bryant Street",
        "brand": "Stater Bros.",
        "brand:wikidata": "Q7604016",
        "name": "Stater Bros. Markets",
        "opening_hours": "Mo-Su 06:00-23:00",
        "phone": "+1 909-790-3636",
        "ref": "125",
        "shop": "supermarket",
        "website": "https://www.staterbros.com/stores/125",
        "branch": "Oak Glen"
      },
      "geometry": { "type": "Point", "coordinates": [-117.0325144, 34.0474508] }
    },
    {
      "type": "Feature",
      "id": "node/-275268",
      "properties": {
        "addr:city": "Palm Springs",
        "addr:housenumber": "1717",
        "addr:postcode": "92262",
        "addr:state": "CA",
        "addr:street": "East Vista Chino",
        "brand": "Stater Bros.",
        "brand:wikidata": "Q7604016",
        "name": "Stater Bros. Markets",
        "opening_hours": "Mo-Su 06:00-23:00",
        "phone": "+1 760-416-2551",
        "ref": "126",
        "shop": "supermarket",
        "website": "https://www.staterbros.com/stores/126",
        "branch": "Palm Springs"
      },
      "geometry": { "type": "Point", "coordinates": [-116.5259633, 33.8439683] }
    },
    {
      "type": "Feature",
      "id": "node/-275269",
      "properties": {
        "addr:city": "Cathedral City",
        "addr:housenumber": "69255",
        "addr:postcode": "92234",
        "addr:state": "CA",
        "addr:street": "Ramon Road",
        "brand": "Stater Bros.",
        "brand:wikidata": "Q7604016",
        "name": "Stater Bros. Markets",
        "opening_hours": "Mo-Su 06:00-23:00",
        "phone": "+1 760-770-9950",
        "ref": "127",
        "shop": "supermarket",
        "website": "https://www.staterbros.com/stores/127",
        "branch": "Cathedral City"
      },
      "geometry": { "type": "Point", "coordinates": [-116.4561129, 33.814937] }
    },
    {
      "type": "Feature",
      "id": "node/-275270",
      "properties": {
        "addr:city": "La Quinta",
        "addr:housenumber": "78630",
        "addr:postcode": "92253",
        "addr:state": "CA",
        "addr:street": "California 111",
        "brand": "Stater Bros.",
        "brand:wikidata": "Q7604016",
        "name": "Stater Bros. Markets",
        "opening_hours": "Mo-Su 06:00-23:00",
        "phone": "+1 760-564-5388",
        "ref": "128",
        "shop": "supermarket",
        "website": "https://www.staterbros.com/stores/128",
        "branch": "La Quinta"
      },
      "geometry": { "type": "Point", "coordinates": [-116.2923775, 33.7150647] }
    },
    {
      "type": "Feature",
      "id": "node/-275271",
      "properties": {
        "addr:city": "Fullerton",
        "addr:housenumber": "1040",
        "addr:postcode": "92835",
        "addr:state": "CA",
        "addr:street": "East Bastanchury Road",
        "brand": "Stater Bros.",
        "brand:wikidata": "Q7604016",
        "name": "Stater Bros. Markets",
        "opening_hours": "Mo-Su 06:00-23:00",
        "phone": "+1 714-257-0460",
        "ref": "129",
        "shop": "supermarket",
        "website": "https://www.staterbros.com/stores/129",
        "branch": "Bastanchury"
      },
      "geometry": { "type": "Point", "coordinates": [-117.9110777, 33.8982987] }
    },
    {
      "type": "Feature",
      "id": "node/-275272",
      "properties": {
        "addr:city": "Palmdale",
        "addr:housenumber": "2535",
        "addr:postcode": "93550",
        "addr:state": "CA",
        "addr:street": "East Avenue South",
        "brand": "Stater Bros.",
        "brand:wikidata": "Q7604016",
        "name": "Stater Bros. Markets",
        "opening_hours": "Mo-Su 06:00-23:00",
        "phone": "+1 661-266-1076",
        "ref": "130",
        "shop": "supermarket",
        "website": "https://www.staterbros.com/stores/130",
        "branch": "Palmdale"
      },
      "geometry": { "type": "Point", "coordinates": [-118.083462, 34.5595517] }
    },
    {
      "type": "Feature",
      "id": "node/-275273",
      "properties": {
        "addr:city": "Anaheim",
        "addr:housenumber": "1131",
        "addr:postcode": "92806",
        "addr:state": "CA",
        "addr:street": "North State College Boulevard",
        "brand": "Stater Bros.",
        "brand:wikidata": "Q7604016",
        "name": "Stater Bros. Markets",
        "opening_hours": "Mo-Su 06:00-23:00",
        "phone": "+1 714-991-5310",
        "ref": "131",
        "shop": "supermarket",
        "website": "https://www.staterbros.com/stores/131",
        "branch": "State College"
      },
      "geometry": { "type": "Point", "coordinates": [-117.8903877, 33.849521] }
    },
    {
      "type": "Feature",
      "id": "node/-275274",
      "properties": {
        "addr:city": "Buena Park",
        "addr:housenumber": "7511",
        "addr:postcode": "90621",
        "addr:state": "CA",
        "addr:street": "Orangethorpe Avenue",
        "brand": "Stater Bros.",
        "brand:wikidata": "Q7604016",
        "name": "Stater Bros. Markets",
        "opening_hours": "Mo-Su 06:00-23:00",
        "phone": "+1 714-522-1222",
        "ref": "132",
        "shop": "supermarket",
        "website": "https://www.staterbros.com/stores/132",
        "branch": "Buena Park"
      },
      "geometry": { "type": "Point", "coordinates": [-118.0016826, 33.8602979] }
    },
    {
      "type": "Feature",
      "id": "node/-275275",
      "properties": {
        "addr:city": "La Habra",
        "addr:housenumber": "851",
        "addr:postcode": "90631",
        "addr:state": "CA",
        "addr:street": "North Harbor Boulevard",
        "brand": "Stater Bros.",
        "brand:wikidata": "Q7604016",
        "name": "Stater Bros. Markets",
        "opening_hours": "Mo-Su 06:00-23:00",
        "phone": "+1 562-694-3896",
        "ref": "133",
        "shop": "supermarket",
        "website": "https://www.staterbros.com/stores/133",
        "branch": "La Habra"
      },
      "geometry": { "type": "Point", "coordinates": [-117.9343282, 33.939982] }
    },
    {
      "type": "Feature",
      "id": "node/-275276",
      "properties": {
        "addr:city": "La Mirada",
        "addr:housenumber": "12800",
        "addr:postcode": "90638",
        "addr:state": "CA",
        "addr:street": "La Mirada Boulevard",
        "brand": "Stater Bros.",
        "brand:wikidata": "Q7604016",
        "name": "Stater Bros. Markets",
        "opening_hours": "Mo-Su 06:00-23:00",
        "phone": "+1 562-943-3783",
        "ref": "134",
        "shop": "supermarket",
        "website": "https://www.staterbros.com/stores/134",
        "branch": "La Mirada"
      },
      "geometry": { "type": "Point", "coordinates": [-118.0106491, 33.9155899] }
    },
    {
      "type": "Feature",
      "id": "node/-275277",
      "properties": {
        "addr:city": "Placentia",
        "addr:housenumber": "1111",
        "addr:postcode": "92870",
        "addr:state": "CA",
        "addr:street": "East Imperial Highway",
        "brand": "Stater Bros.",
        "brand:wikidata": "Q7604016",
        "name": "Stater Bros. Markets",
        "opening_hours": "Mo-Su 06:00-23:00",
        "phone": "+1 714-528-6997",
        "ref": "135",
        "shop": "supermarket",
        "website": "https://www.staterbros.com/stores/135",
        "branch": "Placentia"
      },
      "geometry": { "type": "Point", "coordinates": [-117.8432403, 33.9058116] }
    },
    {
      "type": "Feature",
      "id": "node/-275278",
      "properties": {
        "addr:city": "Fullerton",
        "addr:housenumber": "333",
        "addr:postcode": "92832",
        "addr:state": "CA",
        "addr:street": "North Euclid Street",
        "brand": "Stater Bros.",
        "brand:wikidata": "Q7604016",
        "name": "Stater Bros. Markets",
        "opening_hours": "Mo-Su 06:00-23:00",
        "phone": "+1 714-871-8725",
        "ref": "136",
        "shop": "supermarket",
        "website": "https://www.staterbros.com/stores/136",
        "branch": "Fullerton"
      },
      "geometry": { "type": "Point", "coordinates": [-117.9426379, 33.8732266] }
    },
    {
      "type": "Feature",
      "id": "node/-275279",
      "properties": {
        "addr:city": "Temecula",
        "addr:housenumber": "31813",
        "addr:postcode": "92592",
        "addr:state": "CA",
        "addr:street": "Temecula Parkway",
        "brand": "Stater Bros.",
        "brand:wikidata": "Q7604016",
        "name": "Stater Bros. Markets",
        "opening_hours": "Mo-Su 06:00-23:00",
        "phone": "+1 951-303-1244",
        "ref": "138",
        "shop": "supermarket",
        "website": "https://www.staterbros.com/stores/138",
        "branch": "Red Hawk"
      },
      "geometry": { "type": "Point", "coordinates": [-117.1014872, 33.4783228] }
    },
    {
      "type": "Feature",
      "id": "node/-275280",
      "properties": {
        "addr:city": "Murrieta",
        "addr:housenumber": "25050",
        "addr:postcode": "92562",
        "addr:state": "CA",
        "addr:street": "Hancock Avenue",
        "brand": "Stater Bros.",
        "brand:wikidata": "Q7604016",
        "name": "Stater Bros. Markets",
        "opening_hours": "Mo-Su 06:00-23:00",
        "phone": "+1 951-677-4117",
        "ref": "139",
        "shop": "supermarket",
        "website": "https://www.staterbros.com/stores/139",
        "branch": "Murrieta"
      },
      "geometry": { "type": "Point", "coordinates": [-117.1822121, 33.571041] }
    },
    {
      "type": "Feature",
      "id": "node/-275281",
      "properties": {
        "addr:city": "Riverside",
        "addr:housenumber": "5571",
        "addr:postcode": "92509",
        "addr:state": "CA",
        "addr:street": "Mission Boulevard",
        "brand": "Stater Bros.",
        "brand:wikidata": "Q7604016",
        "name": "Stater Bros. Markets",
        "opening_hours": "Mo-Su 06:00-23:00",
        "phone": "+1 951-686-1506",
        "ref": "14",
        "shop": "supermarket",
        "website": "https://www.staterbros.com/stores/14",
        "branch": "Rubidoux"
      },
      "geometry": { "type": "Point", "coordinates": [-117.4055226, 33.9976104] }
    },
    {
      "type": "Feature",
      "id": "node/-275282",
      "properties": {
        "addr:city": "Santa Clarita",
        "addr:housenumber": "26900",
        "addr:postcode": "91321",
        "addr:state": "CA",
        "addr:street": "Sierra Highway",
        "brand": "Stater Bros.",
        "brand:wikidata": "Q7604016",
        "name": "Stater Bros. Markets",
        "opening_hours": "Mo-Su 06:00-23:00",
        "phone": "+1 661-298-7988",
        "ref": "141",
        "shop": "supermarket",
        "website": "https://www.staterbros.com/stores/141",
        "branch": "Santa Clarita"
      },
      "geometry": { "type": "Point", "coordinates": [-118.4647928, 34.4039223] }
    },
    {
      "type": "Feature",
      "id": "node/-275283",
      "properties": {
        "addr:city": "Lake Forest",
        "addr:housenumber": "22351",
        "addr:postcode": "92630",
        "addr:state": "CA",
        "addr:street": "El Toro Road",
        "brand": "Stater Bros.",
        "brand:wikidata": "Q7604016",
        "name": "Stater Bros. Markets",
        "opening_hours": "Mo-Su 06:00-23:00",
        "phone": "+1 949-581-3440",
        "ref": "142",
        "shop": "supermarket",
        "website": "https://www.staterbros.com/stores/142",
        "branch": "El Toro"
      },
      "geometry": { "type": "Point", "coordinates": [-117.6799945, 33.6386736] }
    },
    {
      "type": "Feature",
      "id": "node/-275284",
      "properties": {
        "addr:city": "Aliso Viejo",
        "addr:housenumber": "26892",
        "addr:postcode": "92656",
        "addr:state": "CA",
        "addr:street": "La Paz Road",
        "brand": "Stater Bros.",
        "brand:wikidata": "Q7604016",
        "name": "Stater Bros. Markets",
        "opening_hours": "Mo-Su 06:00-23:00",
        "phone": "+1 949-643-0511",
        "ref": "143",
        "shop": "supermarket",
        "website": "https://www.staterbros.com/stores/143",
        "branch": "La Paz"
      },
      "geometry": { "type": "Point", "coordinates": [-117.706126, 33.57205] }
    },
    {
      "type": "Feature",
      "id": "node/-275285",
      "properties": {
        "addr:city": "Lancaster",
        "addr:housenumber": "1850",
        "addr:postcode": "93535",
        "addr:state": "CA",
        "addr:street": "East Avenue J",
        "brand": "Stater Bros.",
        "brand:wikidata": "Q7604016",
        "name": "Stater Bros. Markets",
        "opening_hours": "Mo-Su 06:00-23:00",
        "phone": "+1 661-948-1885",
        "ref": "144",
        "shop": "supermarket",
        "website": "https://www.staterbros.com/stores/144",
        "branch": "East Lancaster"
      },
      "geometry": { "type": "Point", "coordinates": [-118.0957717, 34.6883211] }
    },
    {
      "type": "Feature",
      "id": "node/-275286",
      "properties": {
        "addr:city": "Palmdale",
        "addr:housenumber": "37218",
        "addr:postcode": "93552",
        "addr:state": "CA",
        "addr:street": "47th Street East",
        "brand": "Stater Bros.",
        "brand:wikidata": "Q7604016",
        "name": "Stater Bros. Markets",
        "opening_hours": "Mo-Su 06:00-23:00",
        "phone": "+1 661-285-9184",
        "ref": "145",
        "shop": "supermarket",
        "website": "https://www.staterbros.com/stores/145",
        "branch": "Palmdale"
      },
      "geometry": { "type": "Point", "coordinates": [-118.043557, 34.5593251] }
    },
    {
      "type": "Feature",
      "id": "node/-275287",
      "properties": {
        "addr:city": "Lancaster",
        "addr:housenumber": "2845",
        "addr:postcode": "93536",
        "addr:state": "CA",
        "addr:street": "West Avenue L",
        "brand": "Stater Bros.",
        "brand:wikidata": "Q7604016",
        "name": "Stater Bros. Markets",
        "opening_hours": "Mo-Su 06:00-23:00",
        "phone": "+1 661-943-2545",
        "ref": "146",
        "shop": "supermarket",
        "website": "https://www.staterbros.com/stores/146",
        "branch": "West Lancaster"
      },
      "geometry": { "type": "Point", "coordinates": [-118.1823879, 34.6615931] }
    },
    {
      "type": "Feature",
      "id": "node/-275288",
      "properties": {
        "addr:city": "Huntington Beach",
        "addr:housenumber": "10114",
        "addr:postcode": "92646",
        "addr:state": "CA",
        "addr:street": "Adams Avenue",
        "brand": "Stater Bros.",
        "brand:wikidata": "Q7604016",
        "name": "Stater Bros. Markets",
        "opening_hours": "Mo-Su 06:00-23:00",
        "phone": "+1 714-963-0949",
        "ref": "147",
        "shop": "supermarket",
        "website": "https://www.staterbros.com/stores/147",
        "branch": "Huntington Beach"
      },
      "geometry": { "type": "Point", "coordinates": [-117.9524334, 33.672322] }
    },
    {
      "type": "Feature",
      "id": "node/-275289",
      "properties": {
        "addr:city": "Huntington Beach",
        "addr:housenumber": "7101",
        "addr:postcode": "92647",
        "addr:state": "CA",
        "addr:street": "Warner Avenue",
        "brand": "Stater Bros.",
        "brand:wikidata": "Q7604016",
        "name": "Stater Bros. Markets",
        "opening_hours": "Mo-Su 06:00-23:00",
        "phone": "+1 714-841-3612",
        "ref": "148",
        "shop": "supermarket",
        "website": "https://www.staterbros.com/stores/148",
        "branch": "Warner"
      },
      "geometry": { "type": "Point", "coordinates": [-118.0047935, 33.7169217] }
    },
    {
      "type": "Feature",
      "id": "node/-275290",
      "properties": {
        "addr:city": "San Clemente",
        "addr:housenumber": "616",
        "addr:postcode": "92673",
        "addr:state": "CA",
        "addr:street": "Camino De Los Mares",
        "brand": "Stater Bros.",
        "brand:wikidata": "Q7604016",
        "name": "Stater Bros. Markets",
        "opening_hours": "Mo-Su 06:00-23:00",
        "phone": "+1 949-496-8283",
        "ref": "149",
        "shop": "supermarket",
        "website": "https://www.staterbros.com/stores/149",
        "branch": "San Clemente"
      },
      "geometry": { "type": "Point", "coordinates": [-117.6536601, 33.4589886] }
    },
    {
      "type": "Feature",
      "id": "node/-275291",
      "properties": {
        "addr:city": "Whittier",
        "addr:housenumber": "14212",
        "addr:postcode": "90605",
        "addr:state": "CA",
        "addr:street": "Mulberry Drive",
        "brand": "Stater Bros.",
        "brand:wikidata": "Q7604016",
        "name": "Stater Bros. Markets",
        "opening_hours": "Mo-Su 06:00-23:00",
        "phone": "+1 562-941-7711",
        "ref": "15",
        "shop": "supermarket",
        "website": "https://www.staterbros.com/stores/15",
        "branch": "Whittier"
      },
      "geometry": { "type": "Point", "coordinates": [-118.0278488, 33.9413707] }
    },
    {
      "type": "Feature",
      "id": "node/-275292",
      "properties": {
        "addr:city": "Oceanside",
        "addr:housenumber": "3770",
        "addr:postcode": "92054",
        "addr:state": "CA",
        "addr:street": "Mission Avenue",
        "brand": "Stater Bros.",
        "brand:wikidata": "Q7604016",
        "name": "Stater Bros. Markets",
        "opening_hours": "Mo-Su 06:00-23:00",
        "phone": "+1 760-754-3770",
        "ref": "150",
        "shop": "supermarket",
        "website": "https://www.staterbros.com/stores/150",
        "branch": "Mission"
      },
      "geometry": { "type": "Point", "coordinates": [-117.3332416, 33.2265052] }
    },
    {
      "type": "Feature",
      "id": "node/-275293",
      "properties": {
        "addr:city": "San Marcos",
        "addr:housenumber": "1330",
        "addr:postcode": "92069",
        "addr:state": "CA",
        "addr:street": "East Mission Road",
        "brand": "Stater Bros.",
        "brand:wikidata": "Q7604016",
        "name": "Stater Bros. Markets",
        "opening_hours": "Mo-Su 06:00-23:00",
        "phone": "+1 760-741-5052",
        "ref": "152",
        "shop": "supermarket",
        "website": "https://www.staterbros.com/stores/152",
        "branch": "San Marcos"
      },
      "geometry": { "type": "Point", "coordinates": [-117.1295085, 33.1368528] }
    },
    {
      "type": "Feature",
      "id": "node/-275294",
      "properties": {
        "addr:city": "Paramount",
        "addr:housenumber": "8640",
        "addr:postcode": "90723",
        "addr:state": "CA",
        "addr:street": "Alondra Boulevard",
        "brand": "Stater Bros.",
        "brand:wikidata": "Q7604016",
        "name": "Stater Bros. Markets",
        "opening_hours": "Mo-Su 06:00-23:00",
        "phone": "+1 562-633-5721",
        "ref": "153",
        "shop": "supermarket",
        "website": "https://www.staterbros.com/stores/153",
        "branch": "Paramount"
      },
      "geometry": { "type": "Point", "coordinates": [-118.1484188, 33.8887993] }
    },
    {
      "type": "Feature",
      "id": "node/-275295",
      "properties": {
        "addr:city": "Norwalk",
        "addr:housenumber": "11300",
        "addr:postcode": "90650",
        "addr:state": "CA",
        "addr:street": "Firestone Boulevard",
        "brand": "Stater Bros.",
        "brand:wikidata": "Q7604016",
        "name": "Stater Bros. Markets",
        "opening_hours": "Mo-Su 06:00-23:00",
        "phone": "+1 562-929-1878",
        "ref": "154",
        "shop": "supermarket",
        "website": "https://www.staterbros.com/stores/154",
        "branch": "Firestone"
      },
      "geometry": { "type": "Point", "coordinates": [-118.0930645, 33.9179681] }
    },
    {
      "type": "Feature",
      "id": "node/-275296",
      "properties": {
        "addr:city": "Downey",
        "addr:housenumber": "7814",
        "addr:postcode": "90241",
        "addr:state": "CA",
        "addr:street": "Firestone Boulevard",
        "brand": "Stater Bros.",
        "brand:wikidata": "Q7604016",
        "name": "Stater Bros. Markets",
        "opening_hours": "Mo-Su 06:00-23:00",
        "phone": "+1 562-923-0394",
        "ref": "155",
        "shop": "supermarket",
        "website": "https://www.staterbros.com/stores/155",
        "branch": "Downey"
      },
      "geometry": { "type": "Point", "coordinates": [-118.1419832, 33.9439647] }
    },
    {
      "type": "Feature",
      "id": "node/-275297",
      "properties": {
        "addr:city": "Vista",
        "addr:housenumber": "780",
        "addr:postcode": "92083",
        "addr:state": "CA",
        "addr:street": "Sycamore Avenue",
        "brand": "Stater Bros.",
        "brand:wikidata": "Q7604016",
        "name": "Stater Bros. Markets",
        "opening_hours": "Mo-Su 06:00-23:00",
        "phone": "+1 760-727-7080",
        "ref": "156",
        "shop": "supermarket",
        "website": "https://www.staterbros.com/stores/156",
        "branch": "Vista"
      },
      "geometry": { "type": "Point", "coordinates": [-117.2190152, 33.1629724] }
    },
    {
      "type": "Feature",
      "id": "node/-275298",
      "properties": {
        "addr:city": "Vista",
        "addr:housenumber": "1451",
        "addr:postcode": "92084",
        "addr:state": "CA",
        "addr:street": "North Santa Fe Avenue",
        "brand": "Stater Bros.",
        "brand:wikidata": "Q7604016",
        "name": "Stater Bros. Markets",
        "opening_hours": "Mo-Su 06:00-23:00",
        "phone": "+1 760-726-8485",
        "ref": "157",
        "shop": "supermarket",
        "website": "https://www.staterbros.com/stores/157",
        "branch": "Santa Fe"
      },
      "geometry": { "type": "Point", "coordinates": [-117.2435255, 33.220409] }
    },
    {
      "type": "Feature",
      "id": "node/-275299",
      "properties": {
        "addr:city": "Encinitas",
        "addr:housenumber": "1048",
        "addr:postcode": "92024",
        "addr:state": "CA",
        "addr:street": "North El Camino Real",
        "brand": "Stater Bros.",
        "brand:wikidata": "Q7604016",
        "name": "Stater Bros. Markets",
        "opening_hours": "Mo-Su 06:00-23:00",
        "phone": "+1 760-943-7738",
        "ref": "158",
        "shop": "supermarket",
        "website": "https://www.staterbros.com/stores/158",
        "branch": "Encinitas"
      },
      "geometry": { "type": "Point", "coordinates": [-117.2666012, 33.0667222] }
    },
    {
      "type": "Feature",
      "id": "node/-275300",
      "properties": {
        "addr:city": "Cypress",
        "addr:housenumber": "10051",
        "addr:postcode": "90630",
        "addr:state": "CA",
        "addr:street": "Valley View Street",
        "brand": "Stater Bros.",
        "brand:wikidata": "Q7604016",
        "name": "Stater Bros. Markets",
        "opening_hours": "Mo-Su 06:00-23:00",
        "phone": "+1 714-761-1662",
        "ref": "159",
        "shop": "supermarket",
        "website": "https://www.staterbros.com/stores/159",
        "branch": "Cypress"
      },
      "geometry": { "type": "Point", "coordinates": [-118.0292934, 33.8160383] }
    },
    {
      "type": "Feature",
      "id": "node/-275301",
      "properties": {
        "addr:city": "Long Beach",
        "addr:housenumber": "6501",
        "addr:postcode": "90808",
        "addr:state": "CA",
        "addr:street": "East Spring Street",
        "brand": "Stater Bros.",
        "brand:wikidata": "Q7604016",
        "name": "Stater Bros. Markets",
        "opening_hours": "Mo-Su 06:00-23:00",
        "phone": "+1 562-429-5611",
        "ref": "160",
        "shop": "supermarket",
        "website": "https://www.staterbros.com/stores/160",
        "branch": "Long Beach"
      },
      "geometry": { "type": "Point", "coordinates": [-118.1055926, 33.8113918] }
    },
    {
      "type": "Feature",
      "id": "node/-275302",
      "properties": {
        "addr:city": "Artesia",
        "addr:housenumber": "11815",
        "addr:postcode": "90701",
        "addr:state": "CA",
        "addr:street": "Artesia Boulevard",
        "brand": "Stater Bros.",
        "brand:wikidata": "Q7604016",
        "name": "Stater Bros. Markets",
        "opening_hours": "Mo-Su 06:00-23:00",
        "phone": "+1 562-924-9429",
        "ref": "161",
        "shop": "supermarket",
        "website": "https://www.staterbros.com/stores/161"
      },
      "geometry": { "type": "Point", "coordinates": [-118.0813538, 33.8731925] }
    },
    {
      "type": "Feature",
      "id": "node/-275303",
      "properties": {
        "addr:city": "Poway",
        "addr:housenumber": "13589",
        "addr:postcode": "92064",
        "addr:state": "CA",
        "addr:street": "Poway Road",
        "brand": "Stater Bros.",
        "brand:wikidata": "Q7604016",
        "name": "Stater Bros. Markets",
        "opening_hours": "Mo-Su 06:00-23:00",
        "phone": "+1 858-486-3771",
        "ref": "162",
        "shop": "supermarket",
        "website": "https://www.staterbros.com/stores/162",
        "branch": "Poway"
      },
      "geometry": { "type": "Point", "coordinates": [-117.0372962, 32.9558928] }
    },
    {
      "type": "Feature",
      "id": "node/-275304",
      "properties": {
        "addr:city": "Ramona",
        "addr:housenumber": "1674",
        "addr:postcode": "92065",
        "addr:state": "CA",
        "addr:street": "Main Street",
        "brand": "Stater Bros.",
        "brand:wikidata": "Q7604016",
        "name": "Stater Bros. Markets",
        "opening_hours": "Mo-Su 06:00-23:00",
        "phone": "+1 760-789-9915",
        "ref": "163",
        "shop": "supermarket",
        "website": "https://www.staterbros.com/stores/163",
        "branch": "Ramona"
      },
      "geometry": { "type": "Point", "coordinates": [-116.8787491, 33.0349958] }
    },
    {
      "type": "Feature",
      "id": "node/-275305",
      "properties": {
        "addr:city": "Orange",
        "addr:housenumber": "3325",
        "addr:postcode": "92869",
        "addr:state": "CA",
        "addr:street": "East Chapman Avenue",
        "brand": "Stater Bros.",
        "brand:wikidata": "Q7604016",
        "name": "Stater Bros. Markets",
        "opening_hours": "Mo-Su 06:00-23:00",
        "phone": "+1 714-997-7445",
        "ref": "165",
        "shop": "supermarket",
        "website": "https://www.staterbros.com/stores/165",
        "branch": "Orange"
      },
      "geometry": { "type": "Point", "coordinates": [-117.8179046, 33.7891893] }
    },
    {
      "type": "Feature",
      "id": "node/-275306",
      "properties": {
        "addr:city": "Anaheim",
        "addr:housenumber": "610",
        "addr:postcode": "92804",
        "addr:state": "CA",
        "addr:street": "South Brookhurst Street",
        "brand": "Stater Bros.",
        "brand:wikidata": "Q7604016",
        "name": "Stater Bros. Markets",
        "opening_hours": "Mo-Su 06:00-23:00",
        "phone": "+1 714-774-3933",
        "ref": "166",
        "shop": "supermarket",
        "website": "https://www.staterbros.com/stores/166",
        "branch": "West Anaheim"
      },
      "geometry": { "type": "Point", "coordinates": [-117.9579417, 33.8242788] }
    },
    {
      "type": "Feature",
      "id": "node/-275307",
      "properties": {
        "addr:city": "San Diego",
        "addr:housenumber": "9909",
        "addr:postcode": "92129",
        "addr:state": "CA",
        "addr:street": "Carmel Mountain Road",
        "brand": "Stater Bros.",
        "brand:wikidata": "Q7604016",
        "name": "Stater Bros. Markets",
        "opening_hours": "Mo-Su 06:00-23:00",
        "phone": "+1 858-484-1281",
        "ref": "167",
        "shop": "supermarket",
        "website": "https://www.staterbros.com/stores/167",
        "branch": "San Diego"
      },
      "geometry": { "type": "Point", "coordinates": [-117.1138232, 32.959563] }
    },
    {
      "type": "Feature",
      "id": "node/-275308",
      "properties": {
        "addr:city": "Walnut",
        "addr:housenumber": "20677",
        "addr:postcode": "91789",
        "addr:state": "CA",
        "addr:street": "Amar Road",
        "brand": "Stater Bros.",
        "brand:wikidata": "Q7604016",
        "name": "Stater Bros. Markets",
        "opening_hours": "Mo-Su 06:00-23:00",
        "phone": "+1 909-598-6534",
        "ref": "168",
        "shop": "supermarket",
        "website": "https://www.staterbros.com/stores/168",
        "branch": "Grand"
      },
      "geometry": { "type": "Point", "coordinates": [-117.8521681, 34.042833] }
    },
    {
      "type": "Feature",
      "id": "node/-275309",
      "properties": {
        "addr:city": "Chino Hills",
        "addr:housenumber": "14250",
        "addr:postcode": "91709",
        "addr:state": "CA",
        "addr:street": "Chino Hills Parkway",
        "brand": "Stater Bros.",
        "brand:wikidata": "Q7604016",
        "name": "Stater Bros. Markets",
        "opening_hours": "Mo-Su 06:00-23:00",
        "phone": "+1 909-591-5405",
        "ref": "169",
        "shop": "supermarket",
        "website": "https://www.staterbros.com/stores/169",
        "branch": "Chino Hills"
      },
      "geometry": { "type": "Point", "coordinates": [-117.7588692, 33.9938562] }
    },
    {
      "type": "Feature",
      "id": "node/-275310",
      "properties": {
        "addr:city": "Corona",
        "addr:housenumber": "2243",
        "addr:postcode": "92883",
        "addr:state": "CA",
        "addr:street": "Eagle Glen Parkway",
        "brand": "Stater Bros.",
        "brand:wikidata": "Q7604016",
        "name": "Stater Bros. Markets",
        "opening_hours": "Mo-Su 06:00-23:00",
        "phone": "+1 951-372-2692",
        "ref": "170",
        "shop": "supermarket",
        "website": "https://www.staterbros.com/stores/170",
        "branch": "Eagle Glen"
      },
      "geometry": { "type": "Point", "coordinates": [-117.5232587, 33.8229453] }
    },
    {
      "type": "Feature",
      "id": "node/-275311",
      "properties": {
        "addr:city": "Corona",
        "addr:housenumber": "550",
        "addr:postcode": "92879",
        "addr:state": "CA",
        "addr:street": "Hidden Valley Parkway",
        "brand": "Stater Bros.",
        "brand:wikidata": "Q7604016",
        "name": "Stater Bros. Markets",
        "opening_hours": "Mo-Su 06:00-23:00",
        "phone": "+1 951-372-1100",
        "ref": "171",
        "shop": "supermarket",
        "website": "https://www.staterbros.com/stores/171",
        "branch": "Hidden Valley"
      },
      "geometry": { "type": "Point", "coordinates": [-117.5554079, 33.8982862] }
    },
    {
      "type": "Feature",
      "id": "node/-275312",
      "properties": {
        "addr:city": "Moreno Valley",
        "addr:housenumber": "25900",
        "addr:postcode": "92551",
        "addr:state": "CA",
        "addr:street": "Iris Avenue",
        "brand": "Stater Bros.",
        "brand:wikidata": "Q7604016",
        "name": "Stater Bros. Markets",
        "opening_hours": "Mo-Su 06:00-23:00",
        "phone": "+1 951-924-1717",
        "ref": "172",
        "shop": "supermarket",
        "website": "https://www.staterbros.com/stores/172",
        "branch": "Moreno Valley"
      },
      "geometry": { "type": "Point", "coordinates": [-117.2087778, 33.8920361] }
    },
    {
      "type": "Feature",
      "id": "node/-275313",
      "properties": {
        "addr:city": "Beaumont",
        "addr:housenumber": "1430",
        "addr:postcode": "92223",
        "addr:state": "CA",
        "addr:street": "Beaumont Avenue",
        "brand": "Stater Bros.",
        "brand:wikidata": "Q7604016",
        "name": "Stater Bros. Markets",
        "opening_hours": "Mo-Su 06:00-23:00",
        "phone": "+1 951-845-8770",
        "ref": "173",
        "shop": "supermarket",
        "website": "https://www.staterbros.com/stores/173"
      },
      "geometry": { "type": "Point", "coordinates": [-116.9756636, 33.9482109] }
    },
    {
      "type": "Feature",
      "id": "node/-275314",
      "properties": {
        "addr:city": "Wildomar",
        "addr:housenumber": "36010",
        "addr:postcode": "92595",
        "addr:state": "CA",
        "addr:street": "Hidden Springs Road",
        "brand": "Stater Bros.",
        "brand:wikidata": "Q7604016",
        "name": "Stater Bros. Markets",
        "opening_hours": "Mo-Su 06:00-23:00",
        "phone": "+1 951-678-3191",
        "ref": "174",
        "shop": "supermarket",
        "website": "https://www.staterbros.com/stores/174",
        "branch": "Clinton Keith"
      },
      "geometry": { "type": "Point", "coordinates": [-117.2478351, 33.5970735] }
    },
    {
      "type": "Feature",
      "id": "node/-275315",
      "properties": {
        "addr:city": "Fontana",
        "addr:housenumber": "15222",
        "addr:postcode": "92336",
        "addr:state": "CA",
        "addr:street": "Summit Avenue",
        "brand": "Stater Bros.",
        "brand:wikidata": "Q7604016",
        "name": "Stater Bros. Markets",
        "opening_hours": "Mo-Su 06:00-23:00",
        "phone": "+1 909-463-2490",
        "ref": "175",
        "shop": "supermarket",
        "website": "https://www.staterbros.com/stores/175",
        "branch": "Falcon Ridge"
      },
      "geometry": { "type": "Point", "coordinates": [-117.4755511, 34.1513359] }
    },
    {
      "type": "Feature",
      "id": "node/-275316",
      "properties": {
        "addr:city": "Adelanto",
        "addr:housenumber": "14168",
        "addr:postcode": "92301",
        "addr:state": "CA",
        "addr:street": "US 395",
        "brand": "Stater Bros.",
        "brand:wikidata": "Q7604016",
        "name": "Stater Bros. Markets",
        "opening_hours": "Mo-Su 06:00-23:00",
        "phone": "+1 760-246-7705",
        "ref": "176",
        "shop": "supermarket",
        "website": "https://www.staterbros.com/stores/176",
        "branch": "Adelanto"
      },
      "geometry": { "type": "Point", "coordinates": [-117.4015871, 34.5079102] }
    },
    {
      "type": "Feature",
      "id": "node/-275317",
      "properties": {
        "addr:city": "Winchester",
        "addr:housenumber": "30712",
        "addr:postcode": "92596",
        "addr:state": "CA",
        "addr:street": "Benton Road",
        "brand": "Stater Bros.",
        "brand:wikidata": "Q7604016",
        "name": "Stater Bros. Markets",
        "opening_hours": "Mo-Su 06:00-23:00",
        "phone": "+1 951-926-6432",
        "ref": "177",
        "shop": "supermarket",
        "website": "https://www.staterbros.com/stores/177",
        "branch": "French Valley"
      },
      "geometry": { "type": "Point", "coordinates": [-117.1236028, 33.5924514] }
    },
    {
      "type": "Feature",
      "id": "node/-275318",
      "properties": {
        "addr:city": "Apple Valley",
        "addr:housenumber": "12253",
        "addr:postcode": "92308",
        "addr:state": "CA",
        "addr:street": "Apple Valley Road",
        "brand": "Stater Bros.",
        "brand:wikidata": "Q7604016",
        "name": "Stater Bros. Markets",
        "opening_hours": "Mo-Su 06:00-23:00",
        "phone": "+1 760-240-2214",
        "ref": "178",
        "shop": "supermarket",
        "website": "https://www.staterbros.com/stores/178",
        "branch": "Bear Valley"
      },
      "geometry": { "type": "Point", "coordinates": [-117.240513, 34.4740919] }
    },
    {
      "type": "Feature",
      "id": "node/-275319",
      "properties": {
        "addr:city": "Fontana",
        "addr:housenumber": "11225",
        "addr:postcode": "92337",
        "addr:state": "CA",
        "addr:street": "Sierra Avenue",
        "brand": "Stater Bros.",
        "brand:wikidata": "Q7604016",
        "name": "Stater Bros. Markets",
        "opening_hours": "Mo-Su 06:00-23:00",
        "phone": "+1 909-428-4545",
        "ref": "179",
        "shop": "supermarket",
        "website": "https://www.staterbros.com/stores/179",
        "branch": "Sierra Crossroads"
      },
      "geometry": { "type": "Point", "coordinates": [-117.4338086, 34.0498001] }
    },
    {
      "type": "Feature",
      "id": "node/-275320",
      "properties": {
        "addr:city": "Redlands",
        "addr:housenumber": "11",
        "addr:postcode": "92374",
        "addr:state": "CA",
        "addr:street": "East Colton Avenue",
        "brand": "Stater Bros.",
        "brand:wikidata": "Q7604016",
        "name": "Stater Bros. Markets",
        "opening_hours": "Mo-Su 06:00-23:00",
        "phone": "+1 909-792-3900",
        "ref": "18",
        "shop": "supermarket",
        "website": "https://www.staterbros.com/stores/18",
        "branch": "North Redlands"
      },
      "geometry": { "type": "Point", "coordinates": [-117.181894, 34.0637972] }
    },
    {
      "type": "Feature",
      "id": "node/-275321",
      "properties": {
        "addr:city": "San Jacinto",
        "addr:housenumber": "1271",
        "addr:postcode": "92583",
        "addr:state": "CA",
        "addr:street": "North State Street",
        "brand": "Stater Bros.",
        "brand:wikidata": "Q7604016",
        "name": "Stater Bros. Markets",
        "opening_hours": "Mo-Su 06:00-23:00",
        "phone": "+1 951-487-9070",
        "ref": "180",
        "shop": "supermarket",
        "website": "https://www.staterbros.com/stores/180"
      },
      "geometry": { "type": "Point", "coordinates": [-116.9716546, 33.8041941] }
    },
    {
      "type": "Feature",
      "id": "node/-275322",
      "properties": {
        "addr:city": "Palm Desert",
        "addr:housenumber": "78210",
        "addr:postcode": "92211",
        "addr:state": "CA",
        "addr:street": "Varner Road",
        "brand": "Stater Bros.",
        "brand:wikidata": "Q7604016",
        "name": "Stater Bros. Markets",
        "opening_hours": "Mo-Su 06:00-23:00",
        "phone": "+1 760-772-7508",
        "ref": "181",
        "shop": "supermarket",
        "website": "https://www.staterbros.com/stores/181"
      },
      "geometry": { "type": "Point", "coordinates": [-116.2993218, 33.7615529] }
    },
    {
      "type": "Feature",
      "id": "node/-275323",
      "properties": {
        "addr:city": "Highland",
        "addr:housenumber": "28988",
        "addr:postcode": "92346",
        "addr:state": "CA",
        "addr:street": "Greenspot Road",
        "brand": "Stater Bros.",
        "brand:wikidata": "Q7604016",
        "name": "Stater Bros. Markets",
        "opening_hours": "Mo-Su 06:00-23:00",
        "phone": "+1 909-863-7600",
        "ref": "182",
        "shop": "supermarket",
        "website": "https://www.staterbros.com/stores/182",
        "branch": "East Highland"
      },
      "geometry": { "type": "Point", "coordinates": [-117.1720914, 34.1112474] }
    },
    {
      "type": "Feature",
      "id": "node/-275324",
      "properties": {
        "addr:city": "Cathedral City",
        "addr:housenumber": "67800",
        "addr:postcode": "92234",
        "addr:state": "CA",
        "addr:street": "Vista Chino",
        "brand": "Stater Bros.",
        "brand:wikidata": "Q7604016",
        "name": "Stater Bros. Markets",
        "opening_hours": "Mo-Su 06:00-23:00",
        "phone": "+1 760-327-9295",
        "ref": "183",
        "shop": "supermarket",
        "website": "https://www.staterbros.com/stores/183",
        "branch": "North Cathedral City"
      },
      "geometry": { "type": "Point", "coordinates": [-116.4779085, 33.8460347] }
    },
    {
      "type": "Feature",
      "id": "node/-275325",
      "properties": {
        "addr:city": "Chino",
        "addr:housenumber": "6989",
        "addr:postcode": "91710",
        "addr:state": "CA",
        "addr:street": "Schaefer Avenue",
        "brand": "Stater Bros.",
        "brand:wikidata": "Q7604016",
        "name": "Stater Bros. Markets",
        "opening_hours": "Mo-Su 06:00-23:00",
        "phone": "+1 909-627-6665",
        "ref": "184",
        "shop": "supermarket",
        "website": "https://www.staterbros.com/stores/184",
        "branch": "Euclid"
      },
      "geometry": { "type": "Point", "coordinates": [-117.6525601, 34.0033434] }
    },
    {
      "type": "Feature",
      "id": "node/-275326",
      "properties": {
        "addr:city": "Moreno Valley",
        "addr:housenumber": "14425",
        "addr:postcode": "92555",
        "addr:state": "CA",
        "addr:street": "Moreno Beach Drive",
        "brand": "Stater Bros.",
        "brand:wikidata": "Q7604016",
        "name": "Stater Bros. Markets",
        "opening_hours": "Mo-Su 06:00-23:00",
        "phone": "+1 951-242-1461",
        "ref": "185",
        "shop": "supermarket",
        "website": "https://www.staterbros.com/stores/185",
        "branch": "Moreno Beach"
      },
      "geometry": { "type": "Point", "coordinates": [-117.175609, 33.9114124] }
    },
    {
      "type": "Feature",
      "id": "node/-275327",
      "properties": {
        "addr:city": "Carlsbad",
        "addr:housenumber": "2687",
        "addr:postcode": "92009",
        "addr:state": "CA",
        "addr:street": "Gateway Road",
        "brand": "Stater Bros.",
        "brand:wikidata": "Q7604016",
        "name": "Stater Bros. Markets",
        "opening_hours": "Mo-Su 06:00-23:00",
        "phone": "+1 760-929-7900",
        "ref": "186",
        "shop": "supermarket",
        "website": "https://www.staterbros.com/stores/186",
        "branch": "Bressi Ranch"
      },
      "geometry": { "type": "Point", "coordinates": [-117.2517203, 33.1264932] }
    },
    {
      "type": "Feature",
      "id": "node/-275328",
      "properties": {
        "addr:city": "Lake Elsinore",
        "addr:housenumber": "29995",
        "addr:postcode": "92532",
        "addr:state": "CA",
        "addr:street": "Canyon Hills Road",
        "brand": "Stater Bros.",
        "brand:wikidata": "Q7604016",
        "name": "Stater Bros. Markets",
        "opening_hours": "Mo-Su 06:00-23:00",
        "phone": "+1 951-244-2014",
        "ref": "187",
        "shop": "supermarket",
        "website": "https://www.staterbros.com/stores/187"
      },
      "geometry": { "type": "Point", "coordinates": [-117.2623759, 33.6661528] }
    },
    {
      "type": "Feature",
      "id": "node/-275329",
      "properties": {
        "addr:city": "Grand Terrace",
        "addr:housenumber": "22201",
        "addr:postcode": "92313",
        "addr:state": "CA",
        "addr:street": "Barton Road",
        "brand": "Stater Bros.",
        "brand:wikidata": "Q7604016",
        "name": "Stater Bros. Markets",
        "opening_hours": "Mo-Su 06:00-23:00",
        "phone": "+1 909-824-1053",
        "ref": "188",
        "shop": "supermarket",
        "website": "https://www.staterbros.com/stores/188",
        "branch": "Grand Terrace"
      },
      "geometry": { "type": "Point", "coordinates": [-117.3202837, 34.0327835] }
    },
    {
      "type": "Feature",
      "id": "node/-275330",
      "properties": {
        "addr:city": "Lake Elsinore",
        "addr:housenumber": "32281",
        "addr:postcode": "92530",
        "addr:state": "CA",
        "addr:street": "Mission Trail",
        "brand": "Stater Bros.",
        "brand:wikidata": "Q7604016",
        "name": "Stater Bros. Markets",
        "opening_hours": "Mo-Su 06:00-23:00",
        "phone": "+1 951-245-5802",
        "ref": "189",
        "shop": "supermarket",
        "website": "https://www.staterbros.com/stores/189",
        "branch": "Lake Elsinore"
      },
      "geometry": { "type": "Point", "coordinates": [-117.2981965, 33.6531034] }
    },
    {
      "type": "Feature",
      "id": "node/-275331",
      "properties": {
        "addr:city": "Pomona",
        "addr:housenumber": "1045",
        "addr:postcode": "91767",
        "addr:state": "CA",
        "addr:street": "North Garey Avenue",
        "brand": "Stater Bros.",
        "brand:wikidata": "Q7604016",
        "name": "Stater Bros. Markets",
        "opening_hours": "Mo-Su 06:00-23:00",
        "phone": "+1 909-629-9244",
        "ref": "19",
        "shop": "supermarket",
        "website": "https://www.staterbros.com/stores/19",
        "branch": "North Pomona"
      },
      "geometry": { "type": "Point", "coordinates": [-117.7532803, 34.06822] }
    },
    {
      "type": "Feature",
      "id": "node/-275332",
      "properties": {
        "addr:city": "Hesperia",
        "addr:housenumber": "16904",
        "addr:postcode": "92345",
        "addr:state": "CA",
        "addr:street": "Main Street",
        "brand": "Stater Bros.",
        "brand:wikidata": "Q7604016",
        "name": "Stater Bros. Markets",
        "opening_hours": "Mo-Su 06:00-23:00",
        "phone": "+1 760-244-1503",
        "ref": "190",
        "shop": "supermarket",
        "website": "https://www.staterbros.com/stores/190",
        "branch": "Hesperia"
      },
      "geometry": { "type": "Point", "coordinates": [-117.2946147, 34.4220356] }
    },
    {
      "type": "Feature",
      "id": "node/-275333",
      "properties": {
        "addr:city": "Redlands",
        "addr:housenumber": "1775",
        "addr:postcode": "92374",
        "addr:state": "CA",
        "addr:street": "East Lugonia Avenue",
        "brand": "Stater Bros.",
        "brand:wikidata": "Q7604016",
        "name": "Stater Bros. Markets",
        "opening_hours": "Mo-Su 06:00-23:00",
        "phone": "+1 909-794-0105",
        "ref": "191",
        "shop": "supermarket",
        "website": "https://www.staterbros.com/stores/191",
        "branch": "Redlands"
      },
      "geometry": { "type": "Point", "coordinates": [-117.1402624, 34.0715338] }
    },
    {
      "type": "Feature",
      "id": "node/-275334",
      "properties": {
        "addr:city": "Riverside",
        "addr:housenumber": "2841",
        "addr:postcode": "92506",
        "addr:state": "CA",
        "addr:street": "Mary Street",
        "brand": "Stater Bros.",
        "brand:wikidata": "Q7604016",
        "name": "Stater Bros. Markets",
        "opening_hours": "Mo-Su 06:00-23:00",
        "phone": "+1 951-682-3101",
        "ref": "192",
        "shop": "supermarket",
        "website": "https://www.staterbros.com/stores/192",
        "branch": "Victoria"
      },
      "geometry": { "type": "Point", "coordinates": [-117.3865102, 33.9345274] }
    },
    {
      "type": "Feature",
      "id": "node/-275335",
      "properties": {
        "addr:city": "Moreno Valley",
        "addr:housenumber": "11875",
        "addr:postcode": "92557",
        "addr:state": "CA",
        "addr:street": "Pigeon Pass Road",
        "brand": "Stater Bros.",
        "brand:wikidata": "Q7604016",
        "name": "Stater Bros. Markets",
        "opening_hours": "Mo-Su 06:00-23:00",
        "phone": "+1 951-924-2575",
        "ref": "193",
        "shop": "supermarket",
        "website": "https://www.staterbros.com/stores/193",
        "branch": "North Moreno Valley"
      },
      "geometry": { "type": "Point", "coordinates": [-117.2628352, 33.9477121] }
    },
    {
      "type": "Feature",
      "id": "node/-275336",
      "properties": {
        "addr:city": "Covina",
        "addr:housenumber": "1023",
        "addr:postcode": "91724",
        "addr:state": "CA",
        "addr:street": "North Grand Avenue",
        "brand": "Stater Bros.",
        "brand:wikidata": "Q7604016",
        "name": "Stater Bros. Markets",
        "opening_hours": "Mo-Su 06:00-23:00",
        "phone": "+1 626-543-1104",
        "ref": "194",
        "shop": "supermarket",
        "website": "https://www.staterbros.com/stores/194",
        "branch": "Covina"
      },
      "geometry": { "type": "Point", "coordinates": [-117.8735779, 34.0978529] }
    },
    {
      "type": "Feature",
      "id": "node/-275337",
      "properties": {
        "addr:city": "Hemet",
        "addr:housenumber": "3125",
        "addr:postcode": "92545",
        "addr:state": "CA",
        "addr:street": "West Florida Avenue",
        "brand": "Stater Bros.",
        "brand:wikidata": "Q7604016",
        "name": "Stater Bros. Markets",
        "opening_hours": "Mo-Su 06:00-23:00",
        "phone": "+1 951-537-1190",
        "ref": "195",
        "shop": "supermarket",
        "website": "https://www.staterbros.com/stores/195",
        "branch": "Sanderson"
      },
      "geometry": { "type": "Point", "coordinates": [-117.0046318, 33.7465647] }
    },
    {
      "type": "Feature",
      "id": "node/-275338",
      "properties": {
        "addr:city": "Simi Valley",
        "addr:housenumber": "660",
        "addr:postcode": "93065",
        "addr:state": "CA",
        "addr:street": "East Los Angeles Avenue",
        "brand": "Stater Bros.",
        "brand:wikidata": "Q7604016",
        "name": "Stater Bros. Markets",
        "opening_hours": "Mo-Su 06:00-23:00",
        "phone": "+1 805-416-7151",
        "ref": "196",
        "shop": "supermarket",
        "website": "https://www.staterbros.com/stores/196",
        "branch": "Simi Valley"
      },
      "geometry": { "type": "Point", "coordinates": [-118.784064, 34.2704087] }
    },
    {
      "type": "Feature",
      "id": "node/-275339",
      "properties": {
        "addr:city": "Menifee",
        "addr:housenumber": "29061",
        "addr:postcode": "92584",
        "addr:state": "CA",
        "addr:street": "Newport Road",
        "brand": "Stater Bros.",
        "brand:wikidata": "Q7604016",
        "name": "Stater Bros. Markets",
        "opening_hours": "Mo-Su 06:00-23:00",
        "phone": "+1 951-723-6141",
        "ref": "197",
        "shop": "supermarket",
        "website": "https://www.staterbros.com/stores/197",
        "branch": "Menifee"
      },
      "geometry": { "type": "Point", "coordinates": [-117.1526308, 33.6838301] }
    },
    {
      "type": "Feature",
      "id": "node/-275340",
      "properties": {
        "addr:city": "Tustin",
        "addr:housenumber": "15150",
        "addr:postcode": "92780",
        "addr:state": "CA",
        "addr:street": "Kensington Park Drive",
        "brand": "Stater Bros.",
        "brand:wikidata": "Q7604016",
        "name": "Stater Bros. Markets",
        "opening_hours": "Mo-Su 06:00-23:00",
        "phone": "+1 657-235-6641",
        "ref": "198",
        "shop": "supermarket",
        "website": "https://www.staterbros.com/stores/198",
        "branch": "Tustin"
      },
      "geometry": { "type": "Point", "coordinates": [-117.8163973, 33.7114798] }
    },
    {
      "type": "Feature",
      "id": "node/-275341",
      "properties": {
        "addr:city": "Norco",
        "addr:housenumber": "2430",
        "addr:postcode": "92860",
        "addr:state": "CA",
        "addr:street": "River Road",
        "brand": "Stater Bros.",
        "brand:wikidata": "Q7604016",
        "name": "Stater Bros. Markets",
        "opening_hours": "Mo-Su 06:00-23:00",
        "phone": "+1 951-893-9251",
        "ref": "199",
        "shop": "supermarket",
        "website": "https://www.staterbros.com/stores/199",
        "branch": "River Road"
      },
      "geometry": { "type": "Point", "coordinates": [-117.5903871, 33.9152434] }
    },
    {
      "type": "Feature",
      "id": "node/-275342",
      "properties": {
        "addr:city": "San Bernardino",
        "addr:housenumber": "444",
        "addr:postcode": "92410",
        "addr:state": "CA",
        "addr:street": "East Baseline Street",
        "brand": "Stater Bros.",
        "brand:wikidata": "Q7604016",
        "name": "Stater Bros. Markets",
        "opening_hours": "Mo-Su 06:00-23:00",
        "phone": "+1 909-889-6270",
        "ref": "2",
        "shop": "supermarket",
        "website": "https://www.staterbros.com/stores/2"
      },
      "geometry": { "type": "Point", "coordinates": [-117.2759874, 34.1223259] }
    },
    {
      "type": "Feature",
      "id": "node/-275343",
      "properties": {
        "addr:city": "Rancho Cucamonga",
        "addr:housenumber": "7200",
        "addr:postcode": "91739",
        "addr:state": "CA",
        "addr:street": "Day Creek Boulevard",
        "brand": "Stater Bros.",
        "brand:wikidata": "Q7604016",
        "name": "Stater Bros. Markets",
        "opening_hours": "Mo-Su 06:00-23:00",
        "phone": "+1 909-646-1148",
        "ref": "200",
        "shop": "supermarket",
        "website": "https://www.staterbros.com/stores/200",
        "branch": "Day Creek"
      },
      "geometry": { "type": "Point", "coordinates": [-117.5388778, 34.1225697] }
    },
    {
      "type": "Feature",
      "id": "node/-275344",
      "properties": {
        "addr:city": "Riverside",
        "addr:housenumber": "315",
        "addr:postcode": "92508",
        "addr:state": "CA",
        "addr:street": "East Alessandro Boulevard",
        "brand": "Stater Bros.",
        "brand:wikidata": "Q7604016",
        "name": "Stater Bros. Markets",
        "opening_hours": "Mo-Su 06:00-23:00",
        "phone": "+1 951-565-5426",
        "ref": "201",
        "shop": "supermarket",
        "website": "https://www.staterbros.com/stores/201",
        "branch": "Mission Grove"
      },
      "geometry": { "type": "Point", "coordinates": [-117.3246225, 33.9162587] }
    },
    {
      "type": "Feature",
      "id": "node/-275345",
      "properties": {
        "addr:city": "Pasadena",
        "addr:housenumber": "1390",
        "addr:postcode": "91104",
        "addr:state": "CA",
        "addr:street": "Allen Avenue",
        "brand": "Stater Bros.",
        "brand:wikidata": "Q7604016",
        "name": "Stater Bros. Markets",
        "opening_hours": "Mo-Su 06:00-23:00",
        "phone": "+1 626-788-4092",
        "ref": "202",
        "shop": "supermarket",
        "website": "https://www.staterbros.com/stores/202",
        "branch": "Pasadena"
      },
      "geometry": { "type": "Point", "coordinates": [-118.1118903, 34.1699706] }
    },
    {
      "type": "Feature",
      "id": "node/-275346",
      "properties": {
        "addr:city": "Ladera Ranch",
        "addr:housenumber": "25636",
        "addr:postcode": "92694",
        "addr:state": "CA",
        "addr:street": "Crown Valley Parkway",
        "brand": "Stater Bros.",
        "brand:wikidata": "Q7604016",
        "name": "Stater Bros. Markets",
        "opening_hours": "Mo-Su 06:00-23:00",
        "phone": "+1 949-462-9696",
        "ref": "203",
        "shop": "supermarket",
        "website": "https://www.staterbros.com/stores/203",
        "branch": "Ladera Ranch"
      },
      "geometry": { "type": "Point", "coordinates": [-117.6312475, 33.5642049] }
    },
    {
      "type": "Feature",
      "id": "node/-275347",
      "properties": {
        "addr:city": "Ontario",
        "addr:housenumber": "3460",
        "addr:postcode": "91761",
        "addr:state": "CA",
        "addr:street": "Ontario Ranch Road",
        "addr:unit": "E",
        "brand": "Stater Bros.",
        "brand:wikidata": "Q7604016",
        "name": "Stater Bros. Markets",
        "opening_hours": "Mo-Su 06:00-23:00",
        "phone": "+1 909-627-1472",
        "ref": "204",
        "shop": "supermarket",
        "website": "https://www.staterbros.com/stores/204",
        "branch": "Ontario Ranch"
      },
      "geometry": { "type": "Point", "coordinates": [-117.577033, 33.9998198] }
    },
    {
      "type": "Feature",
      "id": "node/-275348",
      "properties": {
        "addr:city": "Calimesa",
        "addr:housenumber": "1004",
        "addr:postcode": "92320",
        "addr:state": "CA",
        "addr:street": "Cherry Valley Boulevard",
        "brand": "Stater Bros.",
        "brand:wikidata": "Q7604016",
        "name": "Stater Bros. Markets",
        "opening_hours": "Mo-Su 06:00-23:00",
        "phone": "+1 951-769-4095",
        "ref": "205",
        "shop": "supermarket",
        "website": "https://www.staterbros.com/stores/205"
      },
      "geometry": { "type": "Point", "coordinates": [-117.0378797, 33.9663519] }
    },
    {
      "type": "Feature",
      "id": "node/-275349",
      "properties": {
        "addr:city": "Whittier",
        "addr:housenumber": "11810",
        "addr:postcode": "90601",
        "addr:state": "CA",
        "addr:street": "Whittier Boulevard",
        "brand": "Stater Bros.",
        "brand:wikidata": "Q7604016",
        "name": "Stater Bros. Markets",
        "opening_hours": "Mo-Su 06:00-23:00",
        "phone": "+1 562-696-3212",
        "ref": "206",
        "shop": "supermarket",
        "website": "https://www.staterbros.com/stores/206"
      },
      "geometry": { "type": "Point", "coordinates": [-118.0505041, 33.9803072] }
    },
    {
      "type": "Feature",
      "id": "node/-275350",
      "properties": {
        "addr:city": "Riverside",
        "addr:housenumber": "7200",
        "addr:postcode": "92503",
        "addr:state": "CA",
        "addr:street": "Arlington Avenue",
        "brand": "Stater Bros.",
        "brand:wikidata": "Q7604016",
        "name": "Stater Bros. Markets",
        "opening_hours": "Mo-Su 06:00-23:00",
        "phone": "+1 951-279-4480",
        "ref": "207",
        "shop": "supermarket",
        "website": "https://www.staterbros.com/stores/207"
      },
      "geometry": { "type": "Point", "coordinates": [-117.4517846, 33.9448036] }
    },
    {
      "type": "Feature",
      "id": "node/-275351",
      "properties": {
        "addr:city": "Ontario",
        "addr:housenumber": "930",
        "addr:postcode": "91764",
        "addr:state": "CA",
        "addr:street": "North Haven Avenue",
        "brand": "Stater Bros.",
        "brand:wikidata": "Q7604016",
        "name": "Stater Bros. Markets",
        "opening_hours": "Mo-Su 06:00-23:00",
        "phone": "+1 909-989-5707",
        "ref": "208",
        "shop": "supermarket",
        "website": "https://www.staterbros.com/stores/208"
      },
      "geometry": { "type": "Point", "coordinates": [-117.5739018, 34.0755831] }
    },
    {
      "type": "Feature",
      "id": "node/-275352",
      "properties": {
        "addr:city": "Chino",
        "addr:housenumber": "8373",
        "addr:postcode": "91708",
        "addr:state": "CA",
        "addr:street": "Pine Avenue",
        "brand": "Stater Bros.",
        "brand:wikidata": "Q7604016",
        "name": "Stater Bros. Markets",
        "opening_hours": "Mo-Su 06:00-23:00",
        "phone": "+1 909-627-6697",
        "ref": "209",
        "shop": "supermarket",
        "website": "https://www.staterbros.com/stores/209"
      },
      "geometry": { "type": "Point", "coordinates": [-117.6226165, 33.9577775] }
    },
    {
      "type": "Feature",
      "id": "node/-275353",
      "properties": {
        "addr:city": "Riverside",
        "addr:housenumber": "4680",
        "addr:postcode": "92505",
        "addr:state": "CA",
        "addr:street": "La Sierra Avenue",
        "brand": "Stater Bros.",
        "brand:wikidata": "Q7604016",
        "name": "Stater Bros. Markets",
        "opening_hours": "Mo-Su 06:00-23:00",
        "phone": "+1 951-343-2580",
        "ref": "22",
        "shop": "supermarket",
        "website": "https://www.staterbros.com/stores/22",
        "branch": "La Sierra"
      },
      "geometry": { "type": "Point", "coordinates": [-117.4877085, 33.9162227] }
    },
    {
      "type": "Feature",
      "id": "node/-275354",
      "properties": {
        "addr:city": "Yucaipa",
        "addr:housenumber": "34460",
        "addr:postcode": "92399",
        "addr:state": "CA",
        "addr:street": "Yucaipa Boulevard",
        "brand": "Stater Bros.",
        "brand:wikidata": "Q7604016",
        "name": "Stater Bros. Markets",
        "opening_hours": "Mo-Su 06:00-23:00",
        "phone": "+1 909-790-0060",
        "ref": "23",
        "shop": "supermarket",
        "website": "https://www.staterbros.com/stores/23",
        "branch": "Yucaipa"
      },
      "geometry": { "type": "Point", "coordinates": [-117.0532961, 34.03495] }
    },
    {
      "type": "Feature",
      "id": "node/-275355",
      "properties": {
        "addr:city": "San Bernardino",
        "addr:housenumber": "1522",
        "addr:postcode": "92404",
        "addr:state": "CA",
        "addr:street": "East Highland Avenue",
        "brand": "Stater Bros.",
        "brand:wikidata": "Q7604016",
        "name": "Stater Bros. Markets",
        "opening_hours": "Mo-Su 06:00-23:00",
        "phone": "+1 909-882-3214",
        "ref": "24",
        "shop": "supermarket",
        "website": "https://www.staterbros.com/stores/24",
        "branch": "del Rosa"
      },
      "geometry": { "type": "Point", "coordinates": [-117.2541087, 34.1368811] }
    },
    {
      "type": "Feature",
      "id": "node/-275356",
      "properties": {
        "addr:city": "Costa Mesa",
        "addr:housenumber": "2180",
        "addr:postcode": "92627",
        "addr:state": "CA",
        "addr:street": "Newport Boulevard",
        "brand": "Stater Bros.",
        "brand:wikidata": "Q7604016",
        "name": "Stater Bros. Markets",
        "opening_hours": "Mo-Su 06:00-23:00",
        "phone": "+1 949-646-2324",
        "ref": "25",
        "shop": "supermarket",
        "website": "https://www.staterbros.com/stores/25",
        "branch": "Newport"
      },
      "geometry": { "type": "Point", "coordinates": [-117.9088806, 33.650578] }
    },
    {
      "type": "Feature",
      "id": "node/-275357",
      "properties": {
        "addr:city": "Westminster",
        "addr:housenumber": "8522",
        "addr:postcode": "92683",
        "addr:state": "CA",
        "addr:street": "Westminster Boulevard",
        "brand": "Stater Bros.",
        "brand:wikidata": "Q7604016",
        "name": "Stater Bros. Markets",
        "opening_hours": "Mo-Su 06:00-23:00",
        "phone": "+1 714-379-5891",
        "ref": "27",
        "shop": "supermarket",
        "website": "https://www.staterbros.com/stores/27"
      },
      "geometry": { "type": "Point", "coordinates": [-117.9803549, 33.7579743] }
    },
    {
      "type": "Feature",
      "id": "node/-275358",
      "properties": {
        "addr:city": "Orange",
        "addr:housenumber": "1800",
        "addr:postcode": "92867",
        "addr:state": "CA",
        "addr:street": "East Collins Avenue",
        "brand": "Stater Bros.",
        "brand:wikidata": "Q7604016",
        "name": "Stater Bros. Markets",
        "opening_hours": "Mo-Su 06:00-23:00",
        "phone": "+1 714-538-5550",
        "ref": "28",
        "shop": "supermarket",
        "website": "https://www.staterbros.com/stores/28",
        "branch": "Collins"
      },
      "geometry": { "type": "Point", "coordinates": [-117.834701, 33.8017449] }
    },
    {
      "type": "Feature",
      "id": "node/-275359",
      "properties": {
        "addr:city": "Santa Ana",
        "addr:housenumber": "2630",
        "addr:postcode": "92704",
        "addr:state": "CA",
        "addr:street": "West Edinger Avenue",
        "brand": "Stater Bros.",
        "brand:wikidata": "Q7604016",
        "name": "Stater Bros. Markets",
        "opening_hours": "Mo-Su 06:00-23:00",
        "phone": "+1 714-437-0750",
        "ref": "29",
        "shop": "supermarket",
        "website": "https://www.staterbros.com/stores/29",
        "branch": "Edinger"
      },
      "geometry": { "type": "Point", "coordinates": [-117.9051216, 33.7263288] }
    },
    {
      "type": "Feature",
      "id": "node/-275360",
      "properties": {
        "addr:city": "Colton",
        "addr:housenumber": "151",
        "addr:postcode": "92324",
        "addr:state": "CA",
        "addr:street": "East Valley Boulevard",
        "brand": "Stater Bros.",
        "brand:wikidata": "Q7604016",
        "name": "Stater Bros. Markets",
        "opening_hours": "Mo-Su 06:00-23:00",
        "phone": "+1 909-825-5186",
        "ref": "3",
        "shop": "supermarket",
        "website": "https://www.staterbros.com/stores/3",
        "branch": "Colton"
      },
      "geometry": { "type": "Point", "coordinates": [-117.323359, 34.0675068] }
    },
    {
      "type": "Feature",
      "id": "node/-275361",
      "properties": {
        "addr:city": "Garden Grove",
        "addr:housenumber": "8888",
        "addr:postcode": "92841",
        "addr:state": "CA",
        "addr:street": "Chapman Avenue",
        "brand": "Stater Bros.",
        "brand:wikidata": "Q7604016",
        "name": "Stater Bros. Markets",
        "opening_hours": "Mo-Su 06:00-23:00",
        "phone": "+1 714-539-6556",
        "ref": "32",
        "shop": "supermarket",
        "website": "https://www.staterbros.com/stores/32",
        "branch": "Chapman"
      },
      "geometry": { "type": "Point", "coordinates": [-117.9771597, 33.7880472] }
    },
    {
      "type": "Feature",
      "id": "node/-275362",
      "properties": {
        "addr:city": "Costa Mesa",
        "addr:housenumber": "1175",
        "addr:postcode": "92626",
        "addr:state": "CA",
        "addr:street": "Baker Street",
        "brand": "Stater Bros.",
        "brand:wikidata": "Q7604016",
        "name": "Stater Bros. Markets",
        "opening_hours": "Mo-Su 06:00-23:00",
        "phone": "+1 714-437-0754",
        "ref": "35",
        "shop": "supermarket",
        "website": "https://www.staterbros.com/stores/35"
      },
      "geometry": { "type": "Point", "coordinates": [-117.9065483, 33.6801333] }
    },
    {
      "type": "Feature",
      "id": "node/-275363",
      "properties": {
        "addr:city": "San Bernardino",
        "addr:housenumber": "161",
        "addr:postcode": "92404",
        "addr:state": "CA",
        "addr:street": "East 40th Street",
        "brand": "Stater Bros.",
        "brand:wikidata": "Q7604016",
        "name": "Stater Bros. Markets 40th Street",
        "opening_hours": "Mo-Su 06:00-23:00",
        "phone": "+1 909-882-2678",
        "ref": "36",
        "shop": "supermarket",
        "website": "https://www.staterbros.com/stores/36"
      },
      "geometry": { "type": "Point", "coordinates": [-117.2827669, 34.163803] }
    },
    {
      "type": "Feature",
      "id": "node/-275364",
      "properties": {
        "addr:city": "Tustin",
        "addr:housenumber": "14171",
        "addr:postcode": "92780",
        "addr:state": "CA",
        "addr:street": "Red Hill Avenue",
        "brand": "Stater Bros.",
        "brand:wikidata": "Q7604016",
        "name": "Stater Bros. Markets",
        "opening_hours": "Mo-Su 06:00-23:00",
        "phone": "+1 714-544-1812",
        "ref": "37",
        "shop": "supermarket",
        "website": "https://www.staterbros.com/stores/37",
        "branch": "Red Hill"
      },
      "geometry": { "type": "Point", "coordinates": [-117.8178707, 33.732062] }
    },
    {
      "type": "Feature",
      "id": "node/-275365",
      "properties": {
        "addr:city": "Santa Ana",
        "addr:housenumber": "2360",
        "addr:postcode": "92705",
        "addr:state": "CA",
        "addr:street": "North Tustin Avenue",
        "brand": "Stater Bros.",
        "brand:wikidata": "Q7604016",
        "name": "Stater Bros. Markets",
        "opening_hours": "Mo-Su 06:00-23:00",
        "phone": "+1 714-543-9034",
        "ref": "40",
        "shop": "supermarket",
        "website": "https://www.staterbros.com/stores/40",
        "branch": "Santa Clara"
      },
      "geometry": { "type": "Point", "coordinates": [-117.8369125, 33.7681535] }
    },
    {
      "type": "Feature",
      "id": "node/-275366",
      "properties": {
        "addr:city": "Riverside",
        "addr:housenumber": "6160",
        "addr:postcode": "92504",
        "addr:state": "CA",
        "addr:street": "Arlington Avenue",
        "brand": "Stater Bros.",
        "brand:wikidata": "Q7604016",
        "name": "Stater Bros. Markets",
        "opening_hours": "Mo-Su 06:00-23:00",
        "phone": "+1 951-343-2562",
        "ref": "42",
        "shop": "supermarket",
        "website": "https://www.staterbros.com/stores/42"
      },
      "geometry": { "type": "Point", "coordinates": [-117.4367571, 33.9456298] }
    },
    {
      "type": "Feature",
      "id": "node/-275367",
      "properties": {
        "addr:city": "Rialto",
        "addr:housenumber": "168",
        "addr:postcode": "92376",
        "addr:state": "CA",
        "addr:street": "East Baseline Road",
        "brand": "Stater Bros.",
        "brand:wikidata": "Q7604016",
        "name": "Stater Bros. Markets",
        "opening_hours": "Mo-Su 06:00-23:00",
        "phone": "+1 909-875-4471",
        "ref": "43",
        "shop": "supermarket",
        "website": "https://www.staterbros.com/stores/43",
        "branch": "North Rialto"
      },
      "geometry": { "type": "Point", "coordinates": [-117.3692677, 34.1227754] }
    },
    {
      "type": "Feature",
      "id": "node/-275368",
      "properties": {
        "addr:city": "Norco",
        "addr:housenumber": "2790",
        "addr:postcode": "92860",
        "addr:state": "CA",
        "addr:street": "Hamner Avenue",
        "brand": "Stater Bros.",
        "brand:wikidata": "Q7604016",
        "name": "Stater Bros. Markets",
        "opening_hours": "Mo-Su 06:00-23:00",
        "phone": "+1 951-734-1838",
        "ref": "44",
        "shop": "supermarket",
        "website": "https://www.staterbros.com/stores/44",
        "branch": "Norco"
      },
      "geometry": { "type": "Point", "coordinates": [-117.5603158, 33.9225744] }
    },
    {
      "type": "Feature",
      "id": "node/-275369",
      "properties": {
        "addr:city": "Upland",
        "addr:housenumber": "919",
        "addr:postcode": "91786",
        "addr:state": "CA",
        "addr:street": "North Mountain Avenue",
        "brand": "Stater Bros.",
        "brand:wikidata": "Q7604016",
        "name": "Stater Bros. Markets",
        "opening_hours": "Mo-Su 06:00-23:00",
        "phone": "+1 909-982-3514",
        "ref": "45",
        "shop": "supermarket",
        "website": "https://www.staterbros.com/stores/45",
        "branch": "Upland"
      },
      "geometry": { "type": "Point", "coordinates": [-117.6708935, 34.105407] }
    },
    {
      "type": "Feature",
      "id": "node/-275370",
      "properties": {
        "addr:city": "Hemet",
        "addr:housenumber": "210",
        "addr:postcode": "92543",
        "addr:state": "CA",
        "addr:street": "East Stetson Avenue",
        "brand": "Stater Bros.",
        "brand:wikidata": "Q7604016",
        "name": "Stater Bros. Markets",
        "opening_hours": "Mo-Su 06:00-23:00",
        "phone": "+1 951-925-5545",
        "ref": "46",
        "shop": "supermarket",
        "website": "https://www.staterbros.com/stores/46",
        "branch": "State Street"
      },
      "geometry": { "type": "Point", "coordinates": [-116.970065, 33.7308799] }
    },
    {
      "type": "Feature",
      "id": "node/-275371",
      "properties": {
        "addr:city": "La Verne",
        "addr:housenumber": "2090",
        "addr:postcode": "91750",
        "addr:state": "CA",
        "addr:street": "Foothill Boulevard",
        "brand": "Stater Bros.",
        "brand:wikidata": "Q7604016",
        "name": "Stater Bros. Markets",
        "opening_hours": "Mo-Su 06:00-23:00",
        "phone": "+1 909-593-1591",
        "ref": "48",
        "shop": "supermarket",
        "website": "https://www.staterbros.com/stores/48",
        "branch": "La Verne"
      },
      "geometry": { "type": "Point", "coordinates": [-117.7662807, 34.1123637] }
    },
    {
      "type": "Feature",
      "id": "node/-275372",
      "properties": {
        "addr:city": "Claremont",
        "addr:housenumber": "1055",
        "addr:postcode": "91711",
        "addr:state": "CA",
        "addr:street": "West Foothill Boulevard",
        "brand": "Stater Bros.",
        "brand:wikidata": "Q7604016",
        "name": "Stater Bros. Markets",
        "opening_hours": "Mo-Su 06:00-23:00",
        "phone": "+1 909-624-0619",
        "ref": "49",
        "shop": "supermarket",
        "website": "https://www.staterbros.com/stores/49",
        "branch": "Towne Avenue"
      },
      "geometry": { "type": "Point", "coordinates": [-117.73549, 34.107878] }
    },
    {
      "type": "Feature",
      "id": "node/-275373",
      "properties": {
        "addr:city": "Fontana",
        "addr:housenumber": "8228",
        "addr:postcode": "92335",
        "addr:state": "CA",
        "addr:street": "Sierra Avenue",
        "brand": "Stater Bros.",
        "brand:wikidata": "Q7604016",
        "name": "Stater Bros. Markets",
        "opening_hours": "Mo-Su 06:00-23:00",
        "phone": "+1 909-427-8200",
        "ref": "5",
        "shop": "supermarket",
        "website": "https://www.staterbros.com/stores/5",
        "branch": "North Fontana"
      },
      "geometry": { "type": "Point", "coordinates": [-117.436775, 34.104389] }
    },
    {
      "type": "Feature",
      "id": "node/-275374",
      "properties": {
        "addr:city": "Chino",
        "addr:housenumber": "4721",
        "addr:postcode": "91710",
        "addr:state": "CA",
        "addr:street": "Riverside Drive",
        "brand": "Stater Bros.",
        "brand:wikidata": "Q7604016",
        "name": "Stater Bros. Markets",
        "opening_hours": "Mo-Su 06:00-23:00",
        "phone": "+1 909-627-3015",
        "ref": "52",
        "shop": "supermarket",
        "website": "https://www.staterbros.com/stores/52",
        "branch": "Chino"
      },
      "geometry": { "type": "Point", "coordinates": [-117.7016897, 34.0182366] }
    },
    {
      "type": "Feature",
      "id": "node/-275375",
      "properties": {
        "addr:housenumber": "8770",
        "addr:postcode": "91701",
        "addr:state": "CA",
        "addr:street": "Base Line Road",
        "brand": "Stater Bros.",
        "brand:wikidata": "Q7604016",
        "name": "Stater Bros. Markets",
        "opening_hours": "Mo-Su 06:00-23:00",
        "phone": "+1 909-987-8350",
        "ref": "53",
        "shop": "supermarket",
        "website": "https://www.staterbros.com/stores/53"
      },
      "geometry": { "type": "Point", "coordinates": [-117.5826427, 34.1215188] }
    },
    {
      "type": "Feature",
      "id": "node/-275376",
      "properties": {
        "addr:city": "West Covina",
        "addr:housenumber": "1025",
        "addr:postcode": "91792",
        "addr:state": "CA",
        "addr:street": "East Amar Road",
        "brand": "Stater Bros.",
        "brand:wikidata": "Q7604016",
        "name": "Stater Bros. Markets",
        "opening_hours": "Mo-Su 06:00-23:00",
        "phone": "+1 626-968-6005",
        "ref": "54",
        "shop": "supermarket",
        "website": "https://www.staterbros.com/stores/54"
      },
      "geometry": { "type": "Point", "coordinates": [-117.914683, 34.0314107] }
    },
    {
      "type": "Feature",
      "id": "node/-275377",
      "properties": {
        "addr:city": "San Dimas",
        "addr:housenumber": "1425",
        "addr:postcode": "91773",
        "addr:state": "CA",
        "addr:street": "West Arrow Highway",
        "brand": "Stater Bros.",
        "brand:wikidata": "Q7604016",
        "name": "Stater Bros. Markets",
        "opening_hours": "Mo-Su 06:00-23:00",
        "phone": "+1 909-599-1374",
        "ref": "56",
        "shop": "supermarket",
        "website": "https://www.staterbros.com/stores/56",
        "branch": "San Dimas"
      },
      "geometry": { "type": "Point", "coordinates": [-117.836363, 34.1075111] }
    },
    {
      "type": "Feature",
      "id": "node/-275378",
      "properties": {
        "addr:city": "Azusa",
        "addr:housenumber": "1145",
        "addr:postcode": "91702",
        "addr:state": "CA",
        "addr:street": "East Alosta Avenue",
        "brand": "Stater Bros.",
        "brand:wikidata": "Q7604016",
        "name": "Stater Bros. Markets",
        "opening_hours": "Mo-Su 06:00-23:00",
        "phone": "+1 626-335-2310",
        "ref": "57",
        "shop": "supermarket",
        "website": "https://www.staterbros.com/stores/57"
      },
      "geometry": { "type": "Point", "coordinates": [-117.8827638, 34.1296298] }
    },
    {
      "type": "Feature",
      "id": "node/-275379",
      "properties": {
        "addr:city": "Highland",
        "addr:housenumber": "3633",
        "addr:postcode": "92346",
        "addr:state": "CA",
        "addr:street": "East Highland Avenue",
        "brand": "Stater Bros.",
        "brand:wikidata": "Q7604016",
        "name": "Stater Bros. Markets",
        "opening_hours": "Mo-Su 06:00-23:00",
        "phone": "+1 909-864-0122",
        "ref": "58",
        "shop": "supermarket",
        "website": "https://www.staterbros.com/stores/58",
        "branch": "Palm"
      },
      "geometry": { "type": "Point", "coordinates": [-117.2079233, 34.1357701] }
    },
    {
      "type": "Feature",
      "id": "node/-275380",
      "properties": {
        "addr:city": "Ontario",
        "addr:housenumber": "1105",
        "addr:postcode": "91762",
        "addr:state": "CA",
        "addr:street": "West Philadelphia Street",
        "brand": "Stater Bros.",
        "brand:wikidata": "Q7604016",
        "name": "Stater Bros. Markets",
        "opening_hours": "Mo-Su 06:00-23:00",
        "phone": "+1 909-984-0517",
        "ref": "59",
        "shop": "supermarket",
        "website": "https://www.staterbros.com/stores/59",
        "branch": "South Ontario"
      },
      "geometry": { "type": "Point", "coordinates": [-117.6699769, 34.0327024] }
    },
    {
      "type": "Feature",
      "id": "node/-275381",
      "properties": {
        "addr:city": "Glendora",
        "addr:housenumber": "1830",
        "addr:postcode": "91740",
        "addr:state": "CA",
        "addr:street": "East Route 66",
        "brand": "Stater Bros.",
        "brand:wikidata": "Q7604016",
        "name": "Stater Bros. Markets",
        "opening_hours": "Mo-Su 06:00-23:00",
        "phone": "+1 626-963-0513",
        "ref": "6",
        "shop": "supermarket",
        "website": "https://www.staterbros.com/stores/6",
        "branch": "Glendora"
      },
      "geometry": { "type": "Point", "coordinates": [-117.830375, 34.1270537] }
    },
    {
      "type": "Feature",
      "id": "node/-275382",
      "properties": {
        "addr:city": "Yorba Linda",
        "addr:housenumber": "18527",
        "addr:postcode": "92886",
        "addr:state": "CA",
        "addr:street": "Yorba Linda Boulevard",
        "brand": "Stater Bros.",
        "brand:wikidata": "Q7604016",
        "name": "Stater Bros. Markets",
        "opening_hours": "Mo-Su 06:00-23:00",
        "phone": "+1 714-777-3893",
        "ref": "60",
        "shop": "supermarket",
        "website": "https://www.staterbros.com/stores/60",
        "branch": "Yorba Linda"
      },
      "geometry": { "type": "Point", "coordinates": [-117.8099858, 33.889921] }
    },
    {
      "type": "Feature",
      "id": "node/-275383",
      "properties": {
        "addr:city": "Bloomington",
        "addr:housenumber": "1045",
        "addr:postcode": "92316",
        "addr:state": "CA",
        "addr:street": "Bloomington Avenue",
        "brand": "Stater Bros.",
        "brand:wikidata": "Q7604016",
        "name": "Stater Bros. Markets",
        "opening_hours": "Mo-Su 06:00-23:00",
        "phone": "+1 909-877-0090",
        "ref": "61",
        "shop": "supermarket",
        "website": "https://www.staterbros.com/stores/61",
        "branch": "Bloomington"
      },
      "geometry": { "type": "Point", "coordinates": [-117.3894949, 34.0744852] }
    },
    {
      "type": "Feature",
      "id": "node/-275384",
      "properties": {
        "addr:city": "Corona",
        "addr:housenumber": "1288",
        "addr:postcode": "92882",
        "addr:state": "CA",
        "addr:street": "Border Avenue",
        "brand": "Stater Bros.",
        "brand:wikidata": "Q7604016",
        "name": "Stater Bros. Markets",
        "opening_hours": "Mo-Su 06:00-23:00",
        "phone": "+1 951-734-2470",
        "ref": "62",
        "shop": "supermarket",
        "website": "https://www.staterbros.com/stores/62",
        "branch": "Corona"
      },
      "geometry": { "type": "Point", "coordinates": [-117.5942512, 33.8693734] }
    },
    {
      "type": "Feature",
      "id": "node/-275385",
      "properties": {
        "addr:city": "Upland",
        "addr:housenumber": "1619",
        "addr:postcode": "91784",
        "addr:state": "CA",
        "addr:street": "North Mountain Avenue",
        "brand": "Stater Bros.",
        "brand:wikidata": "Q7604016",
        "name": "Stater Bros. Markets",
        "opening_hours": "Mo-Su 06:00-23:00",
        "phone": "+1 909-981-3237",
        "ref": "65",
        "shop": "supermarket",
        "website": "https://www.staterbros.com/stores/65",
        "branch": "Mountain Plaza"
      },
      "geometry": { "type": "Point", "coordinates": [-117.6718102, 34.1222029] }
    },
    {
      "type": "Feature",
      "id": "node/-275386",
      "properties": {
        "addr:city": "Anaheim",
        "addr:housenumber": "1741",
        "addr:postcode": "92807",
        "addr:state": "CA",
        "addr:street": "Kellogg Drive",
        "brand": "Stater Bros.",
        "brand:wikidata": "Q7604016",
        "name": "Stater Bros. Markets",
        "opening_hours": "Mo-Su 06:00-23:00",
        "phone": "+1 714-779-2020",
        "ref": "66",
        "shop": "supermarket",
        "website": "https://www.staterbros.com/stores/66",
        "branch": "Anaheim"
      },
      "geometry": { "type": "Point", "coordinates": [-117.8050396, 33.86604] }
    },
    {
      "type": "Feature",
      "id": "node/-275387",
      "properties": {
        "addr:city": "Rowland Heights",
        "addr:housenumber": "19756",
        "addr:postcode": "91748",
        "addr:state": "CA",
        "addr:street": "Colima Road",
        "brand": "Stater Bros.",
        "brand:wikidata": "Q7604016",
        "name": "Stater Bros. Markets",
        "opening_hours": "Mo-Su 06:00-23:00",
        "phone": "+1 909-598-6619",
        "ref": "67",
        "shop": "supermarket",
        "website": "https://www.staterbros.com/stores/67",
        "branch": "Rowland Heights"
      },
      "geometry": { "type": "Point", "coordinates": [-117.8701074, 33.9862908] }
    },
    {
      "type": "Feature",
      "id": "node/-275388",
      "properties": {
        "addr:city": "Riverside",
        "addr:housenumber": "9155",
        "addr:postcode": "92509",
        "addr:state": "CA",
        "addr:street": "Jurupa Road",
        "brand": "Stater Bros.",
        "brand:wikidata": "Q7604016",
        "name": "Stater Bros. Markets",
        "opening_hours": "Mo-Su 06:00-23:00",
        "phone": "+1 951-685-1266",
        "ref": "69",
        "shop": "supermarket",
        "website": "https://www.staterbros.com/stores/69",
        "branch": "Glen Avon"
      },
      "geometry": { "type": "Point", "coordinates": [-117.4830497, 33.9985258] }
    },
    {
      "type": "Feature",
      "id": "node/-275389",
      "properties": {
        "addr:city": "Norwalk",
        "addr:housenumber": "12523",
        "addr:postcode": "90650",
        "addr:state": "CA",
        "addr:street": "Alondra Boulevard",
        "brand": "Stater Bros.",
        "brand:wikidata": "Q7604016",
        "name": "Stater Bros. Markets",
        "opening_hours": "Mo-Su 06:00-23:00",
        "phone": "+1 562-921-3908",
        "ref": "70",
        "shop": "supermarket",
        "website": "https://www.staterbros.com/stores/70",
        "branch": "Norwalk"
      },
      "geometry": { "type": "Point", "coordinates": [-118.065536, 33.8884102] }
    },
    {
      "type": "Feature",
      "id": "node/-275390",
      "properties": {
        "addr:city": "Calimesa",
        "addr:housenumber": "1155",
        "addr:postcode": "92320",
        "addr:state": "CA",
        "addr:street": "Calimesa Boulevard",
        "brand": "Stater Bros.",
        "brand:wikidata": "Q7604016",
        "name": "Stater Bros. Markets",
        "opening_hours": "Mo-Su 06:00-23:00",
        "phone": "+1 909-795-2224",
        "ref": "71",
        "shop": "supermarket",
        "website": "https://www.staterbros.com/stores/71"
      },
      "geometry": { "type": "Point", "coordinates": [-117.0567619, 33.9959056] }
    },
    {
      "type": "Feature",
      "id": "node/-275391",
      "properties": {
        "addr:city": "Montclair",
        "addr:housenumber": "9575",
        "addr:postcode": "91763",
        "addr:state": "CA",
        "addr:street": "Central Avenue",
        "brand": "Stater Bros.",
        "brand:wikidata": "Q7604016",
        "name": "Stater Bros. Markets",
        "opening_hours": "Mo-Su 06:00-23:00",
        "phone": "+1 909-621-4637",
        "ref": "73",
        "shop": "supermarket",
        "website": "https://www.staterbros.com/stores/73",
        "branch": "Montclair"
      },
      "geometry": { "type": "Point", "coordinates": [-117.6888586, 34.079996] }
    },
    {
      "type": "Feature",
      "id": "node/-275392",
      "properties": {
        "addr:city": "Hemet",
        "addr:housenumber": "41849",
        "addr:postcode": "92544",
        "addr:state": "CA",
        "addr:street": "Florida Avenue",
        "brand": "Stater Bros.",
        "brand:wikidata": "Q7604016",
        "name": "Stater Bros. Markets",
        "opening_hours": "Mo-Su 06:00-23:00",
        "phone": "+1 951-652-2388",
        "ref": "75",
        "shop": "supermarket",
        "website": "https://www.staterbros.com/stores/75",
        "branch": "Stanford"
      },
      "geometry": { "type": "Point", "coordinates": [-116.9316848, 33.7467912] }
    },
    {
      "type": "Feature",
      "id": "node/-275393",
      "properties": {
        "addr:city": "Fountain Valley",
        "addr:housenumber": "11085",
        "addr:postcode": "92708",
        "addr:state": "CA",
        "addr:street": "Warner Avenue",
        "brand": "Stater Bros.",
        "brand:wikidata": "Q7604016",
        "name": "Stater Bros. Markets",
        "opening_hours": "Mo-Su 06:00-23:00",
        "phone": "+1 714-775-6343",
        "ref": "77",
        "shop": "supermarket",
        "website": "https://www.staterbros.com/stores/77",
        "branch": "Fountain Valley"
      },
      "geometry": { "type": "Point", "coordinates": [-117.9352435, 33.7170771] }
    },
    {
      "type": "Feature",
      "id": "node/-275394",
      "properties": {
        "addr:city": "Rancho Cucamonga",
        "addr:housenumber": "9750",
        "addr:postcode": "91737",
        "addr:state": "CA",
        "addr:street": "19th Street",
        "brand": "Stater Bros.",
        "brand:wikidata": "Q7604016",
        "name": "Stater Bros. Markets",
        "opening_hours": "Mo-Su 06:00-23:00",
        "phone": "+1 909-989-4908",
        "ref": "78",
        "shop": "supermarket",
        "website": "https://www.staterbros.com/stores/78"
      },
      "geometry": { "type": "Point", "coordinates": [-117.5954686, 34.1327121] }
    },
    {
      "type": "Feature",
      "id": "node/-275395",
      "properties": {
        "addr:city": "San Bernardino",
        "addr:housenumber": "1085",
        "addr:postcode": "92405",
        "addr:state": "CA",
        "addr:street": "West Highland Avenue",
        "brand": "Stater Bros.",
        "brand:wikidata": "Q7604016",
        "name": "Stater Bros. Markets",
        "opening_hours": "Mo-Su 06:00-23:00",
        "phone": "+1 909-886-1517",
        "ref": "8",
        "shop": "supermarket",
        "website": "https://www.staterbros.com/stores/8",
        "branch": "Highland"
      },
      "geometry": { "type": "Point", "coordinates": [-117.3081454, 34.1351622] }
    },
    {
      "type": "Feature",
      "id": "node/-275396",
      "properties": {
        "addr:city": "Riverside",
        "addr:housenumber": "17050",
        "addr:postcode": "92504",
        "addr:state": "CA",
        "addr:street": "Van Buren Boulevard",
        "brand": "Stater Bros.",
        "brand:wikidata": "Q7604016",
        "name": "Stater Bros. Markets",
        "opening_hours": "Mo-Su 06:00-23:00",
        "phone": "+1 951-780-2261",
        "ref": "80",
        "shop": "supermarket",
        "website": "https://www.staterbros.com/stores/80",
        "branch": "Woodcrest"
      },
      "geometry": { "type": "Point", "coordinates": [-117.3649867, 33.8835768] }
    },
    {
      "type": "Feature",
      "id": "node/-275397",
      "properties": {
        "addr:city": "Loma Linda",
        "addr:housenumber": "25630",
        "addr:postcode": "92354",
        "addr:state": "CA",
        "addr:street": "Barton Road",
        "brand": "Stater Bros.",
        "brand:wikidata": "Q7604016",
        "name": "Stater Bros. Markets",
        "opening_hours": "Mo-Su 06:00-23:00",
        "phone": "+1 909-478-5488",
        "ref": "81",
        "shop": "supermarket",
        "website": "https://www.staterbros.com/stores/81"
      },
      "geometry": { "type": "Point", "coordinates": [-117.245514, 34.04936] }
    },
    {
      "type": "Feature",
      "id": "node/-275398",
      "properties": {
        "addr:city": "Menifee",
        "addr:housenumber": "27160",
        "addr:postcode": "92586",
        "addr:state": "CA",
        "addr:street": "Sun City Boulevard",
        "brand": "Stater Bros.",
        "brand:wikidata": "Q7604016",
        "name": "Stater Bros. Markets",
        "opening_hours": "Mo-Su 06:00-23:00",
        "phone": "+1 951-679-6655",
        "ref": "83",
        "shop": "supermarket",
        "website": "https://www.staterbros.com/stores/83"
      },
      "geometry": { "type": "Point", "coordinates": [-117.1923695, 33.7115583] }
    },
    {
      "type": "Feature",
      "id": "node/-275399",
      "properties": {
        "addr:city": "Desert Hot Springs",
        "addr:housenumber": "13200",
        "addr:postcode": "92240",
        "addr:state": "CA",
        "addr:street": "Palm Drive",
        "brand": "Stater Bros.",
        "brand:wikidata": "Q7604016",
        "name": "Stater Bros. Markets",
        "opening_hours": "Mo-Su 06:00-23:00",
        "phone": "+1 760-329-1533",
        "ref": "84",
        "shop": "supermarket",
        "website": "https://www.staterbros.com/stores/84",
        "branch": "Desert Hot Springs"
      },
      "geometry": { "type": "Point", "coordinates": [-116.5004305, 33.952498] }
    },
    {
      "type": "Feature",
      "id": "node/-275400",
      "properties": {
        "addr:city": "Ontario",
        "addr:housenumber": "1939",
        "addr:postcode": "91764",
        "addr:state": "CA",
        "addr:street": "East 4th Street",
        "brand": "Stater Bros.",
        "brand:wikidata": "Q7604016",
        "name": "Stater Bros. Markets",
        "opening_hours": "Mo-Su 06:00-23:00",
        "phone": "+1 909-989-7615",
        "ref": "85",
        "shop": "supermarket",
        "website": "https://www.staterbros.com/stores/85",
        "branch": "Vineyard"
      },
      "geometry": { "type": "Point", "coordinates": [-117.6096528, 34.0785318] }
    },
    {
      "type": "Feature",
      "id": "node/-275401",
      "properties": {
        "addr:city": "Beaumont",
        "addr:housenumber": "1661",
        "addr:postcode": "92223",
        "addr:state": "CA",
        "addr:street": "East 6th Street",
        "brand": "Stater Bros.",
        "brand:wikidata": "Q7604016",
        "name": "Stater Bros. Markets",
        "opening_hours": "Mo-Su 06:00-23:00",
        "phone": "+1 951-845-2248",
        "ref": "86",
        "shop": "supermarket",
        "website": "https://www.staterbros.com/stores/86"
      },
      "geometry": { "type": "Point", "coordinates": [-116.9497863, 33.9284437] }
    },
    {
      "type": "Feature",
      "id": "node/-275402",
      "properties": {
        "addr:city": "Jurupa Valley",
        "addr:housenumber": "11070",
        "addr:postcode": "91752",
        "addr:state": "CA",
        "addr:street": "Limonite Avenue",
        "brand": "Stater Bros.",
        "brand:wikidata": "Q7604016",
        "name": "Stater Bros. Markets",
        "opening_hours": "Mo-Su 06:00-23:00",
        "phone": "+1 951-734-4330",
        "ref": "88",
        "shop": "supermarket",
        "website": "https://www.staterbros.com/stores/88",
        "branch": "Mira Loma"
      },
      "geometry": { "type": "Point", "coordinates": [-117.524859, 33.974855] }
    },
    {
      "type": "Feature",
      "id": "node/-275403",
      "properties": {
        "addr:city": "Riverside",
        "addr:housenumber": "7770",
        "addr:postcode": "92509",
        "addr:state": "CA",
        "addr:street": "Limonite Avenue",
        "brand": "Stater Bros.",
        "brand:wikidata": "Q7604016",
        "name": "Stater Bros. Markets",
        "opening_hours": "Mo-Su 06:00-23:00",
        "phone": "+1 951-681-3142",
        "ref": "90",
        "shop": "supermarket",
        "website": "https://www.staterbros.com/stores/90",
        "branch": "de Anza"
      },
      "geometry": { "type": "Point", "coordinates": [-117.4524593, 33.9773662] }
    },
    {
      "type": "Feature",
      "id": "node/-275404",
      "properties": {
        "addr:city": "Big Bear Lake",
        "addr:housenumber": "42171",
        "addr:postcode": "92315",
        "addr:state": "CA",
        "addr:street": "Big Bear Boulevard",
        "brand": "Stater Bros.",
        "brand:wikidata": "Q7604016",
        "name": "Stater Bros. Markets",
        "opening_hours": "Mo-Su 06:00-23:00",
        "phone": "+1 909-866-5211",
        "ref": "91",
        "shop": "supermarket",
        "website": "https://www.staterbros.com/stores/91"
      },
      "geometry": { "type": "Point", "coordinates": [-116.8837185, 34.2521989] }
    },
    {
      "type": "Feature",
      "id": "node/-275405",
      "properties": {
        "addr:city": "Lake Arrowhead",
        "addr:housenumber": "28100",
        "addr:postcode": "92352",
        "addr:state": "CA",
        "addr:street": "California 189",
        "brand": "Stater Bros.",
        "brand:wikidata": "Q7604016",
        "name": "Stater Bros. Markets",
        "opening_hours": "Mo-Su 06:00-23:00",
        "phone": "+1 909-337-5854",
        "ref": "92",
        "shop": "supermarket",
        "website": "https://www.staterbros.com/stores/92",
        "branch": "Lake Arrowhead"
      },
      "geometry": { "type": "Point", "coordinates": [-117.1905317, 34.2505226] }
    },
    {
      "type": "Feature",
      "id": "node/-275406",
      "properties": {
        "addr:city": "Indio",
        "addr:housenumber": "81056",
        "addr:postcode": "92201",
        "addr:state": "CA",
        "addr:street": "California 111",
        "brand": "Stater Bros.",
        "brand:wikidata": "Q7604016",
        "name": "Stater Bros. Markets",
        "opening_hours": "Mo-Su 06:00-23:00",
        "phone": "+1 760-347-5823",
        "ref": "94",
        "shop": "supermarket",
        "website": "https://www.staterbros.com/stores/94",
        "branch": "Indio"
      },
      "geometry": { "type": "Point", "coordinates": [-116.2504868, 33.7086819] }
    },
    {
      "type": "Feature",
      "id": "node/-275407",
      "properties": {
        "addr:city": "Fontana",
        "addr:housenumber": "18140",
        "addr:postcode": "92335",
        "addr:state": "CA",
        "addr:street": "Arrow Boulevard",
        "brand": "Stater Bros.",
        "brand:wikidata": "Q7604016",
        "name": "Stater Bros. Markets",
        "opening_hours": "Mo-Su 06:00-23:00",
        "phone": "+1 909-427-8208",
        "ref": "95",
        "shop": "supermarket",
        "website": "https://www.staterbros.com/stores/95",
        "branch": "Fontana"
      },
      "geometry": { "type": "Point", "coordinates": [-117.408557, 34.1009398] }
    },
    {
      "type": "Feature",
      "id": "node/-275408",
      "properties": {
        "addr:city": "Yucca Valley",
        "addr:housenumber": "57075",
        "addr:postcode": "92284",
        "addr:state": "CA",
        "addr:street": "Twentynine Palms Highway",
        "brand": "Stater Bros.",
        "brand:wikidata": "Q7604016",
        "name": "Stater Bros. Markets",
        "opening_hours": "Mo-Su 06:00-23:00",
        "phone": "+1 760-365-9877",
        "ref": "96",
        "shop": "supermarket",
        "website": "https://www.staterbros.com/stores/96",
        "branch": "Yucca Valley"
      },
      "geometry": { "type": "Point", "coordinates": [-116.4185591, 34.1210853] }
    },
    {
      "type": "Feature",
      "id": "node/-275409",
      "properties": {
        "addr:city": "Hesperia",
        "addr:housenumber": "15757",
        "addr:postcode": "92345",
        "addr:state": "CA",
        "addr:street": "Main Street",
        "brand": "Stater Bros.",
        "brand:wikidata": "Q7604016",
        "name": "Stater Bros. Markets",
        "opening_hours": "Mo-Su 06:00-23:00",
        "phone": "+1 760-244-1630",
        "ref": "97",
        "shop": "supermarket",
        "website": "https://www.staterbros.com/stores/97",
        "branch": "Eighth "
      },
      "geometry": { "type": "Point", "coordinates": [-117.3195309, 34.422561] }
    },
    {
      "type": "Feature",
      "id": "node/-275410",
      "properties": {
        "addr:city": "Lake Elsinore",
        "addr:housenumber": "16750",
        "addr:postcode": "92530",
        "addr:state": "CA",
        "addr:street": "Lakeshore Drive",
        "brand": "Stater Bros.",
        "brand:wikidata": "Q7604016",
        "name": "Stater Bros. Markets",
        "opening_hours": "Mo-Su 06:00-23:00",
        "phone": "+1 951-674-1349",
        "ref": "98",
        "shop": "supermarket",
        "website": "https://www.staterbros.com/stores/98",
        "branch": "Elsinore"
      },
      "geometry": { "type": "Point", "coordinates": [-117.3679824, 33.6868861] }
    }
  ],
  "dataset_attributes": {
    "cleaning": { "version": "0.1.1", "datetime": "2024-01-25" }
  }
}
