{
  "type": "FeatureCollection",
  "dataset_attributes": {
    "@spider": "wegmans",
    "spider:collection_time": "2023-09-10T17:11:32.057117",
    "cleaning": { "version": "0.1.2", "datetime": "2024-01-30" }
  },
  "features": [
    {
      "type": "Feature",
      "id": "UNmm3qLwu5qUxRSvYX-LUNzNNBc=",
      "properties": {
        "ref": "81",
        "shop": "supermarket",
        "addr:city": "Amherst",
        "addr:state": "NY",
        "addr:postcode": "14226",
        "addr:country": "US",
        "name": "Wegmans",
        "phone": "+1 716-831-6300",
        "website": "https://www.wegmans.com/stores/alberta-dr-ny",
        "brand": "Wegmans",
        "brand:wikidata": "Q11288478",
        "addr:housenumber": "675",
        "addr:street": "Alberta Drive",
        "branch": "Alberta Drive"
      },
      "geometry": { "type": "Point", "coordinates": [-78.81604, 42.98937] }
    },
    {
      "type": "Feature",
      "id": "FXz-2-U0BAy_r_-f-TNLMe11jWU=",
      "properties": {
        "ref": "22",
        "shop": "supermarket",
        "addr:city": "Alexandria",
        "addr:state": "VA",
        "addr:postcode": "22315",
        "addr:country": "US",
        "name": "Wegmans",
        "phone": "+1 571-527-2400",
        "website": "https://www.wegmans.com/stores/alexandria-va",
        "brand": "Wegmans",
        "brand:wikidata": "Q11288478",
        "addr:housenumber": "7905",
        "addr:street": "Hilltop Village Center Drive",
        "branch": "Alexandria"
      },
      "geometry": { "type": "Point", "coordinates": [-77.16178, 38.7424] }
    },
    {
      "type": "Feature",
      "id": "NIL05V0YFRqlMu-OVBPho2ICHK4=",
      "properties": {
        "ref": "58",
        "shop": "supermarket",
        "addr:city": "Buffalo",
        "addr:state": "NY",
        "addr:postcode": "14207",
        "addr:country": "US",
        "name": "Wegmans",
        "phone": "+1 716-877-0500",
        "website": "https://www.wegmans.com/stores/amherst-st-ny",
        "brand": "Wegmans",
        "brand:wikidata": "Q11288478",
        "addr:housenumber": "601",
        "addr:street": "Amherst Street",
        "branch": "Amherst St."
      },
      "geometry": { "type": "Point", "coordinates": [-78.88235, 42.93877] }
    },
    {
      "type": "Feature",
      "id": "TSQP4js7D0vcetKlvbl08jou2Jo=",
      "properties": {
        "ref": "115",
        "shop": "supermarket",
        "addr:city": "New York",
        "addr:state": "NY",
        "addr:postcode": "10003",
        "addr:country": "US",
        "name": "Wegmans",
        "brand": "Wegmans",
        "brand:wikidata": "Q11288478",
        "addr:housenumber": "770",
        "addr:street": "Broadway",
        "branch": "Astor Place"
      },
      "geometry": { "type": "Point", "coordinates": [-73.99151, 40.73061] }
    },
    {
      "type": "Feature",
      "id": "FcQ79FPDppCITElwgDVTjtWezBg=",
      "properties": {
        "ref": "21",
        "shop": "supermarket",
        "addr:city": "Auburn",
        "addr:state": "NY",
        "addr:postcode": "13021",
        "addr:country": "US",
        "name": "Wegmans",
        "phone": "+1 315-255-2231",
        "website": "https://www.wegmans.com/stores/auburn-ny",
        "brand": "Wegmans",
        "brand:wikidata": "Q11288478",
        "addr:housenumber": "1",
        "addr:street": "Loop Road",
        "branch": "Auburn"
      },
      "geometry": { "type": "Point", "coordinates": [-76.56496, 42.93153] }
    },
    {
      "type": "Feature",
      "id": "oB7nuAgXYxJj5W_bGVDgDnUnNm0=",
      "properties": {
        "ref": "38",
        "shop": "supermarket",
        "addr:city": "Abingdon",
        "addr:state": "MD",
        "addr:postcode": "21009",
        "addr:country": "US",
        "name": "Wegmans",
        "phone": "+1 443-372-2900",
        "website": "https://www.wegmans.com/stores/bel-air-md",
        "brand": "Wegmans",
        "brand:wikidata": "Q11288478",
        "addr:housenumber": "21",
        "addr:street": "Wegman's Boulevard",
        "branch": "Bel Air"
      },
      "geometry": { "type": "Point", "coordinates": [-76.30942, 39.46618] }
    },
    {
      "type": "Feature",
      "id": "WF-6xdNtEaXFhtVLjmEzQ6-wIsw=",
      "properties": {
        "ref": "49",
        "shop": "supermarket",
        "addr:city": "Bethlehem",
        "addr:state": "PA",
        "addr:postcode": "18017",
        "addr:country": "US",
        "name": "Wegmans",
        "phone": "+1 610-317-1300",
        "website": "https://www.wegmans.com/stores/bethlehem-pa",
        "brand": "Wegmans",
        "brand:wikidata": "Q11288478",
        "addr:housenumber": "5000",
        "addr:street": "Wegmans Drive",
        "branch": "Bethlehem"
      },
      "geometry": { "type": "Point", "coordinates": [-75.38882, 40.66534] }
    },
    {
      "type": "Feature",
      "id": "wTZEwTa-wdW-EYGBdalXbi_ExuE=",
      "properties": {
        "ref": "76",
        "shop": "supermarket",
        "addr:city": "Bridgewater",
        "addr:state": "NJ",
        "addr:postcode": "08807",
        "addr:country": "US",
        "name": "Wegmans",
        "phone": "+1 908-243-9600",
        "website": "https://www.wegmans.com/stores/bridgewater-nj",
        "brand": "Wegmans",
        "brand:wikidata": "Q11288478",
        "addr:housenumber": "724",
        "addr:street": "Route 202 South",
        "branch": "Bridgewater"
      },
      "geometry": { "type": "Point", "coordinates": [-74.67065, 40.57374] }
    },
    {
      "type": "Feature",
      "id": "KmbEDLM0XHTVqlSRp1Q1maE7DcA=",
      "properties": {
        "ref": "75",
        "shop": "supermarket",
        "addr:city": "Brockport",
        "addr:state": "NY",
        "addr:postcode": "14420",
        "addr:country": "US",
        "name": "Wegmans",
        "phone": "+1 585-637-3111",
        "website": "https://www.wegmans.com/stores/brockport-ny",
        "brand": "Wegmans",
        "brand:wikidata": "Q11288478",
        "addr:housenumber": "6660",
        "addr:street": "4th Section Road",
        "branch": "Brockport"
      },
      "geometry": { "type": "Point", "coordinates": [-77.94642, 43.20029] }
    },
    {
      "type": "Feature",
      "id": "gAh6-RQQ95w3kBT99HLhSEWWFfk=",
      "properties": {
        "ref": "101",
        "shop": "supermarket",
        "addr:city": "Brooklyn",
        "addr:state": "NY",
        "addr:postcode": "11205",
        "addr:country": "US",
        "name": "Wegmans",
        "phone": "+1 347-694-8510",
        "website": "https://www.wegmans.com/stores/brooklyn-ny",
        "brand": "Wegmans",
        "brand:wikidata": "Q11288478",
        "addr:housenumber": "21",
        "addr:street": "Flushing Avenue",
        "branch": "Brooklyn"
      },
      "geometry": { "type": "Point", "coordinates": [-73.97935, 40.69888] }
    },
    {
      "type": "Feature",
      "id": "5VY5G3kbJFLMxHVDMGwQXBzxlfU=",
      "properties": {
        "ref": "72",
        "shop": "supermarket",
        "addr:city": "Burlington",
        "addr:state": "MA",
        "addr:postcode": "01803",
        "addr:country": "US",
        "name": "Wegmans",
        "phone": "+1 781-418-0700",
        "website": "https://www.wegmans.com/stores/burlington-ma",
        "brand": "Wegmans",
        "brand:wikidata": "Q11288478",
        "addr:housenumber": "53",
        "addr:street": "Third Avenue",
        "branch": "Burlington"
      },
      "geometry": { "type": "Point", "coordinates": [-71.22555, 42.48689] }
    },
    {
      "type": "Feature",
      "id": "CPyZDlRyajGeQWLOOMnEke8lLOU=",
      "properties": {
        "ref": "30",
        "shop": "supermarket",
        "addr:city": "Rochester",
        "addr:state": "NY",
        "addr:postcode": "14623",
        "addr:country": "US",
        "name": "Wegmans",
        "phone": "+1 585-334-4010",
        "website": "https://www.wegmans.com/stores/calkins-rd-ny",
        "brand": "Wegmans",
        "brand:wikidata": "Q11288478",
        "addr:housenumber": "745",
        "addr:street": "Calkins Road",
        "branch": "Calkins Road"
      },
      "geometry": { "type": "Point", "coordinates": [-77.61212, 43.06708] }
    },
    {
      "type": "Feature",
      "id": "LGmrl7zma0-uoxzYNHNtU8NAbGk=",
      "properties": {
        "ref": "11",
        "shop": "supermarket",
        "addr:city": "Canandaigua",
        "addr:state": "NY",
        "addr:postcode": "14424",
        "addr:country": "US",
        "name": "Wegmans",
        "phone": "+1 585-394-4820",
        "website": "https://www.wegmans.com/stores/canandaigua-ny",
        "brand": "Wegmans",
        "brand:wikidata": "Q11288478",
        "addr:housenumber": "345",
        "addr:street": "Eastern Boulevard",
        "branch": "Canandaigua"
      },
      "geometry": { "type": "Point", "coordinates": [-77.25509, 42.87556] }
    },
    {
      "type": "Feature",
      "id": "CsMKs-_K6UeP-OeWsjmo-ZzBoyE=",
      "properties": {
        "ref": "109",
        "shop": "supermarket",
        "addr:city": "Alexandria",
        "addr:state": "VA",
        "addr:postcode": "22314",
        "addr:country": "US",
        "name": "Wegmans",
        "phone": "+1 571-473-5100",
        "website": "https://www.wegmans.com/stores/carlyle-va",
        "brand": "Wegmans",
        "brand:wikidata": "Q11288478",
        "addr:housenumber": "150",
        "addr:street": "Stovall Street",
        "branch": "Carlyle"
      },
      "geometry": { "type": "Point", "coordinates": [-77.07262, 38.80299] }
    },
    {
      "type": "Feature",
      "id": "iB5Ph4hGeZWqnQupIiQpwEaOjSA=",
      "properties": {
        "ref": "93",
        "shop": "supermarket",
        "addr:city": "Chantilly",
        "addr:state": "VA",
        "addr:postcode": "20151",
        "addr:country": "US",
        "name": "Wegmans",
        "phone": "+1 571-525-5525",
        "website": "https://www.wegmans.com/stores/chantilly-va",
        "brand": "Wegmans",
        "brand:wikidata": "Q11288478",
        "addr:housenumber": "14361",
        "addr:street": "Newbrook Drive",
        "branch": "Chantilly"
      },
      "geometry": { "type": "Point", "coordinates": [-77.44363, 38.87743] }
    },
    {
      "type": "Feature",
      "id": "MSaVvHY8PaB0Uvr5vXTKRkPBHAw=",
      "properties": {
        "ref": "105",
        "shop": "supermarket",
        "addr:city": "Chapel Hill",
        "addr:state": "NC",
        "addr:postcode": "27514",
        "addr:country": "US",
        "name": "Wegmans",
        "phone": "+1 919-864-7400",
        "website": "https://www.wegmans.com/stores/chapel-hill-nc",
        "brand": "Wegmans",
        "brand:wikidata": "Q11288478",
        "addr:housenumber": "1810",
        "addr:street": "Fordham Boulevard",
        "branch": "Chapel Hill"
      },
      "geometry": { "type": "Point", "coordinates": [-79.00938, 35.94483] }
    },
    {
      "type": "Feature",
      "id": "FdLqQItc3gg4fGnTCjHcyLxsGBM=",
      "properties": {
        "ref": "97",
        "shop": "supermarket",
        "addr:city": "Charlottesville",
        "addr:state": "VA",
        "addr:postcode": "22902",
        "addr:country": "US",
        "name": "Wegmans",
        "phone": "+1 434-529-3200",
        "website": "https://www.wegmans.com/stores/charlottesville-va",
        "brand": "Wegmans",
        "brand:wikidata": "Q11288478",
        "addr:housenumber": "100",
        "addr:street": "Wegmans Way",
        "branch": "Charlottesville"
      },
      "geometry": { "type": "Point", "coordinates": [-78.49923, 38.0091] }
    },
    {
      "type": "Feature",
      "id": "homyeSWlD4GX7lVmEiGn_ZkRL_I=",
      "properties": {
        "ref": "2",
        "shop": "supermarket",
        "addr:city": "Cherry Hill",
        "addr:state": "NJ",
        "addr:postcode": "08002",
        "addr:country": "US",
        "name": "Wegmans",
        "phone": "+1 856-488-2700",
        "website": "https://www.wegmans.com/stores/cherry-hill-nj",
        "brand": "Wegmans",
        "brand:wikidata": "Q11288478",
        "addr:housenumber": "2100",
        "addr:street": "Route 70 West",
        "branch": "Cherry Hill"
      },
      "geometry": { "type": "Point", "coordinates": [-75.03492, 39.92285] }
    },
    {
      "type": "Feature",
      "id": "DbHcg_ew7kn4puDKlM5wnY5LjRU=",
      "properties": {
        "ref": "64",
        "shop": "supermarket",
        "addr:city": "Chestnut Hill",
        "addr:state": "MA",
        "addr:postcode": "02467",
        "addr:country": "US",
        "name": "Wegmans",
        "phone": "+1 617-762-2000",
        "website": "https://www.wegmans.com/stores/chestnut-hill-ma",
        "brand": "Wegmans",
        "brand:wikidata": "Q11288478",
        "addr:housenumber": "200",
        "addr:street": "Boylston Street",
        "branch": "Chestnut Hill"
      },
      "geometry": { "type": "Point", "coordinates": [-71.17541, 42.31887] }
    },
    {
      "type": "Feature",
      "id": "lyEsyyVpSbD536WkhYJQ6Doz0wI=",
      "properties": {
        "ref": "50",
        "shop": "supermarket",
        "addr:city": "Rochester",
        "addr:state": "NY",
        "addr:postcode": "14624",
        "addr:country": "US",
        "name": "Wegmans",
        "phone": "+1 585-426-5010",
        "website": "https://www.wegmans.com/stores/chili-paul-ny",
        "brand": "Wegmans",
        "brand:wikidata": "Q11288478",
        "addr:housenumber": "3175",
        "addr:street": "Chili Avenue",
        "branch": "Chili-Paul"
      },
      "geometry": { "type": "Point", "coordinates": [-77.74277, 43.10657] }
    },
    {
      "type": "Feature",
      "id": "ekDbQAgsBXtvQmprHzqWYn7cx6g=",
      "properties": {
        "ref": "28",
        "shop": "supermarket",
        "addr:city": "Cicero",
        "addr:state": "NY",
        "addr:postcode": "13039",
        "addr:country": "US",
        "name": "Wegmans",
        "phone": "+1 315-698-6700",
        "website": "https://www.wegmans.com/stores/cicero-ny",
        "brand": "Wegmans",
        "brand:wikidata": "Q11288478",
        "addr:housenumber": "7952",
        "addr:street": "Brewerton Road",
        "branch": "Cicero"
      },
      "geometry": { "type": "Point", "coordinates": [-76.12115, 43.15565] }
    },
    {
      "type": "Feature",
      "id": "DWk6hsF9I5LULMWRVzz2-ds4ap4=",
      "properties": {
        "ref": "68",
        "shop": "supermarket",
        "addr:city": "Collegeville",
        "addr:state": "PA",
        "addr:postcode": "19426",
        "addr:country": "US",
        "name": "Wegmans",
        "phone": "+1 484-902-1500",
        "website": "https://www.wegmans.com/stores/collegeville-pa",
        "brand": "Wegmans",
        "brand:wikidata": "Q11288478",
        "addr:housenumber": "600",
        "addr:street": "Commerce Drive",
        "branch": "Collegeville"
      },
      "geometry": { "type": "Point", "coordinates": [-75.48344, 40.16439] }
    },
    {
      "type": "Feature",
      "id": "kkn20V1I1W_MnPAewDfeQjm_Amc=",
      "properties": {
        "ref": "39",
        "shop": "supermarket",
        "addr:city": "Columbia",
        "addr:state": "MD",
        "addr:postcode": "21045",
        "addr:country": "US",
        "name": "Wegmans",
        "phone": "+1 443-537-2900",
        "website": "https://www.wegmans.com/stores/columbia-md",
        "brand": "Wegmans",
        "brand:wikidata": "Q11288478",
        "addr:housenumber": "8855",
        "addr:street": "McGaw Road",
        "branch": "Columbia"
      },
      "geometry": { "type": "Point", "coordinates": [-76.82018, 39.18622] }
    },
    {
      "type": "Feature",
      "id": "KOVEIh-fwMp7o0eOyYLLM_Qwn5c=",
      "properties": {
        "ref": "85",
        "shop": "supermarket",
        "addr:city": "Glen Mills",
        "addr:state": "PA",
        "addr:postcode": "19342",
        "addr:country": "US",
        "name": "Wegmans",
        "phone": "+1 484-785-9900",
        "website": "https://www.wegmans.com/stores/concordville-pa",
        "brand": "Wegmans",
        "brand:wikidata": "Q11288478",
        "addr:housenumber": "100",
        "addr:street": "Applied Bank Boulevard",
        "branch": "Concordville"
      },
      "geometry": { "type": "Point", "coordinates": [-75.54132, 39.87529] }
    },
    {
      "type": "Feature",
      "id": "l0YBsnFsjwjWzCPgz3U6Oou4fJc=",
      "properties": {
        "ref": "61",
        "shop": "supermarket",
        "addr:city": "Corning",
        "addr:state": "NY",
        "addr:postcode": "14830",
        "addr:country": "US",
        "name": "Wegmans",
        "phone": "+1 607-937-8347",
        "website": "https://www.wegmans.com/stores/corning-ny",
        "brand": "Wegmans",
        "brand:wikidata": "Q11288478",
        "addr:housenumber": "24",
        "addr:street": "South Bridge Street",
        "branch": "Corning"
      },
      "geometry": { "type": "Point", "coordinates": [-77.06272, 42.14574] }
    },
    {
      "type": "Feature",
      "id": "AOuKt5hTrgg2iQwIq3PLzknEU9w=",
      "properties": {
        "ref": "71",
        "shop": "supermarket",
        "addr:city": "Gambrills",
        "addr:state": "MD",
        "addr:postcode": "21054",
        "addr:country": "US",
        "name": "Wegmans",
        "phone": "+1 443-332-6200",
        "website": "https://www.wegmans.com/stores/crofton-md",
        "brand": "Wegmans",
        "brand:wikidata": "Q11288478",
        "addr:housenumber": "1413",
        "addr:street": "South Main Chapel Way",
        "branch": "Crofton"
      },
      "geometry": { "type": "Point", "coordinates": [-76.686, 39.03273] }
    },
    {
      "type": "Feature",
      "id": "nItENF0A0JCNHCpnPR31ib5UziI=",
      "properties": {
        "ref": "18",
        "shop": "supermarket",
        "addr:city": "Fayetteville",
        "addr:state": "NY",
        "addr:postcode": "13066",
        "addr:country": "US",
        "name": "Wegmans",
        "phone": "+1 315-446-1180",
        "website": "https://www.wegmans.com/stores/dewitt-ny",
        "brand": "Wegmans",
        "brand:wikidata": "Q11288478",
        "addr:housenumber": "6789",
        "addr:street": "East Genesee Street",
        "branch": "Dewitt"
      },
      "geometry": { "type": "Point", "coordinates": [-76.0525, 43.03141] }
    },
    {
      "type": "Feature",
      "id": "O-5VvyBWxnoNer-vd5c4kJLA2-Q=",
      "properties": {
        "ref": "31",
        "shop": "supermarket",
        "addr:city": "Depew",
        "addr:state": "NY",
        "addr:postcode": "14043",
        "addr:country": "US",
        "name": "Wegmans",
        "phone": "+1 716-685-8100",
        "website": "https://www.wegmans.com/stores/dick-rd-ny",
        "brand": "Wegmans",
        "brand:wikidata": "Q11288478",
        "addr:housenumber": "651",
        "addr:street": "Dick Road",
        "branch": "Dick Road"
      },
      "geometry": { "type": "Point", "coordinates": [-78.73723, 42.92066] }
    },
    {
      "type": "Feature",
      "id": "zlcm7eXBHULY9wLnwif5po3IXew=",
      "properties": {
        "ref": "41",
        "shop": "supermarket",
        "addr:city": "Downingtown",
        "addr:state": "PA",
        "addr:postcode": "19335",
        "addr:country": "US",
        "name": "Wegmans",
        "phone": "+1 610-518-7800",
        "website": "https://www.wegmans.com/stores/downingtown-pa",
        "brand": "Wegmans",
        "brand:wikidata": "Q11288478",
        "addr:housenumber": "1056",
        "addr:street": "East Lancaster Avenue",
        "branch": "Downingtown"
      },
      "geometry": { "type": "Point", "coordinates": [-75.67772, 40.01676] }
    },
    {
      "type": "Feature",
      "id": "PkVZgqcXpEGuHPdfA4YRaWiuvBk=",
      "properties": {
        "ref": "6",
        "shop": "supermarket",
        "addr:city": "Sterling",
        "addr:state": "VA",
        "addr:postcode": "20166",
        "addr:country": "US",
        "name": "Wegmans",
        "phone": "+1 703-421-2400",
        "website": "https://www.wegmans.com/stores/dulles-va",
        "brand": "Wegmans",
        "brand:wikidata": "Q11288478",
        "addr:housenumber": "45131",
        "addr:street": "Columbia Place",
        "branch": "Dulles"
      },
      "geometry": { "type": "Point", "coordinates": [-77.44062, 39.00708] }
    },
    {
      "type": "Feature",
      "id": "uAp0m4-vzjyubx4fth5ND1CsPjk=",
      "properties": {
        "ref": "53",
        "shop": "supermarket",
        "addr:city": "Rochester",
        "addr:state": "NY",
        "addr:postcode": "14610",
        "addr:country": "US",
        "name": "Wegmans",
        "phone": "+1 585-244-7950",
        "website": "https://www.wegmans.com/stores/east-ave-ny",
        "brand": "Wegmans",
        "brand:wikidata": "Q11288478",
        "addr:housenumber": "1750",
        "addr:street": "East Avenue",
        "branch": "East Avenue"
      },
      "geometry": { "type": "Point", "coordinates": [-77.55603, 43.14618] }
    },
    {
      "type": "Feature",
      "id": "1bYibC0pKHQAeYBZOavGophitho=",
      "properties": {
        "ref": "5",
        "shop": "supermarket",
        "addr:city": "Webster",
        "addr:state": "NY",
        "addr:postcode": "14580",
        "addr:country": "US",
        "name": "Wegmans",
        "phone": "+1 585-671-8290",
        "website": "https://www.wegmans.com/stores/eastway-ny",
        "brand": "Wegmans",
        "brand:wikidata": "Q11288478",
        "addr:housenumber": "1955",
        "addr:street": "Empire Boulevard",
        "branch": "Eastway"
      },
      "geometry": { "type": "Point", "coordinates": [-77.50479, 43.19331] }
    },
    {
      "type": "Feature",
      "id": "Vvga4eNRt1sjEze0KQfzBwgu9og=",
      "properties": {
        "ref": "60",
        "shop": "supermarket",
        "addr:city": "Elmira",
        "addr:state": "NY",
        "addr:postcode": "14901",
        "addr:country": "US",
        "name": "Wegmans",
        "phone": "+1 607-737-0770",
        "website": "https://www.wegmans.com/stores/elmira-ny",
        "brand": "Wegmans",
        "brand:wikidata": "Q11288478",
        "addr:housenumber": "1100",
        "addr:street": "Clemens Center Parkway",
        "branch": "Elmira"
      },
      "geometry": { "type": "Point", "coordinates": [-76.80884, 42.10573] }
    },
    {
      "type": "Feature",
      "id": "QRR-7a4upavPBc2nv0mUlTMGt-Y=",
      "properties": {
        "ref": "62",
        "shop": "supermarket",
        "addr:city": "Erie",
        "addr:state": "PA",
        "addr:postcode": "16506",
        "addr:country": "US",
        "name": "Wegmans",
        "phone": "+1 814-835-1900",
        "website": "https://www.wegmans.com/stores/erie-west-pa",
        "brand": "Wegmans",
        "brand:wikidata": "Q11288478",
        "addr:housenumber": "5028",
        "addr:street": "West Ridge Road",
        "branch": "Erie West"
      },
      "geometry": { "type": "Point", "coordinates": [-80.19029, 42.07014] }
    },
    {
      "type": "Feature",
      "id": "SE9k2Pih5VKIMu8ReQdIOGNAvRw=",
      "properties": {
        "ref": "7",
        "shop": "supermarket",
        "addr:city": "Fairfax",
        "addr:state": "VA",
        "addr:postcode": "22030",
        "addr:country": "US",
        "name": "Wegmans",
        "phone": "+1 703-653-1600",
        "website": "https://www.wegmans.com/stores/fairfax-va",
        "brand": "Wegmans",
        "brand:wikidata": "Q11288478",
        "addr:housenumber": "11620",
        "addr:street": "Monument Drive",
        "branch": "Fairfax"
      },
      "geometry": { "type": "Point", "coordinates": [-77.34781, 38.85153] }
    },
    {
      "type": "Feature",
      "id": "vBAH_5CqVzRvKWBL-OUWRrGSpIw=",
      "properties": {
        "ref": "65",
        "shop": "supermarket",
        "addr:city": "Syracuse",
        "addr:state": "NY",
        "addr:postcode": "13219",
        "addr:country": "US",
        "name": "Wegmans",
        "phone": "+1 315-487-1581",
        "website": "https://www.wegmans.com/stores/fairmount-ny",
        "brand": "Wegmans",
        "brand:wikidata": "Q11288478",
        "addr:housenumber": "3325",
        "addr:street": "West Genesee Street",
        "branch": "Fairmount"
      },
      "geometry": { "type": "Point", "coordinates": [-76.22757, 43.04733] }
    },
    {
      "type": "Feature",
      "id": "y2IjQmxKMXzbTuE05DjL70zBcvg=",
      "properties": {
        "ref": "15",
        "shop": "supermarket",
        "addr:city": "East Rochester",
        "addr:state": "NY",
        "addr:postcode": "14445",
        "addr:country": "US",
        "name": "Wegmans",
        "phone": "+1 585-586-8340",
        "website": "https://www.wegmans.com/stores/fairport-ny",
        "brand": "Wegmans",
        "brand:wikidata": "Q11288478",
        "addr:housenumber": "851",
        "addr:street": "Fairport Road",
        "branch": "Fairport"
      },
      "geometry": { "type": "Point", "coordinates": [-77.48364, 43.10197] }
    },
    {
      "type": "Feature",
      "id": "yfeXE2IAGx-E2YmvR7efOpcJPEA=",
      "properties": {
        "ref": "46",
        "shop": "supermarket",
        "addr:city": "Frederick",
        "addr:state": "MD",
        "addr:postcode": "21701",
        "addr:country": "US",
        "name": "Wegmans",
        "phone": "+1 240-575-7300",
        "website": "https://www.wegmans.com/stores/frederick-md",
        "brand": "Wegmans",
        "brand:wikidata": "Q11288478",
        "addr:housenumber": "7830",
        "addr:street": "Wormans Mill Road",
        "branch": "Frederick"
      },
      "geometry": { "type": "Point", "coordinates": [-77.39996, 39.44574] }
    },
    {
      "type": "Feature",
      "id": "bBbFLBBB0iShNH6p8EbG_fAhtTQ=",
      "properties": {
        "ref": "14",
        "shop": "supermarket",
        "addr:city": "Fredericksburg",
        "addr:state": "VA",
        "addr:postcode": "22401",
        "addr:country": "US",
        "name": "Wegmans",
        "phone": "+1 540-322-4800",
        "website": "https://www.wegmans.com/stores/fredericksburg-va",
        "brand": "Wegmans",
        "brand:wikidata": "Q11288478",
        "addr:housenumber": "2281",
        "addr:street": "Carl D. Silver Parkway",
        "branch": "Fredericksburg"
      },
      "geometry": { "type": "Point", "coordinates": [-77.50837, 38.31312] }
    },
    {
      "type": "Feature",
      "id": "8yD_2PUH7QlhDk3qDlZKJsl2wnE=",
      "properties": {
        "ref": "13",
        "shop": "supermarket",
        "addr:city": "Geneseo",
        "addr:state": "NY",
        "addr:postcode": "14454",
        "addr:country": "US",
        "name": "Wegmans",
        "phone": "+1 585-243-9000",
        "website": "https://www.wegmans.com/stores/geneseo-ny",
        "brand": "Wegmans",
        "brand:wikidata": "Q11288478",
        "addr:housenumber": "4287",
        "addr:street": "Genesee Valley Plaza Road",
        "branch": "Geneseo"
      },
      "geometry": { "type": "Point", "coordinates": [-77.78419, 42.79707] }
    },
    {
      "type": "Feature",
      "id": "CC6VYrJ7HUTbfWeHQIRK77LHZes=",
      "properties": {
        "ref": "69",
        "shop": "supermarket",
        "addr:city": "Geneva",
        "addr:state": "NY",
        "addr:postcode": "14456",
        "addr:country": "US",
        "name": "Wegmans",
        "phone": "+1 315-781-5800",
        "website": "https://www.wegmans.com/stores/geneva-ny",
        "brand": "Wegmans",
        "brand:wikidata": "Q11288478",
        "addr:housenumber": "300",
        "addr:street": "Hamilton Street",
        "branch": "Geneva"
      },
      "geometry": { "type": "Point", "coordinates": [-76.99632, 42.85982] }
    },
    {
      "type": "Feature",
      "id": "vMCwGCreJ1k8l-QtLx5PSRa6mQI=",
      "properties": {
        "ref": "67",
        "shop": "supermarket",
        "addr:city": "Germantown",
        "addr:state": "MD",
        "addr:postcode": "20876",
        "addr:country": "US",
        "name": "Wegmans",
        "phone": "+1 240-499-0700",
        "website": "https://www.wegmans.com/stores/germantown-md",
        "brand": "Wegmans",
        "brand:wikidata": "Q11288478",
        "addr:housenumber": "20600",
        "addr:street": "Seneca Meadows Parkway",
        "branch": "Germantown"
      },
      "geometry": { "type": "Point", "coordinates": [-77.25521, 39.19967] }
    },
    {
      "type": "Feature",
      "id": "MC0U5ITqIBTAY4Ct233q7zQJfu0=",
      "properties": {
        "ref": "57",
        "shop": "supermarket",
        "addr:city": "Liverpool",
        "addr:state": "NY",
        "addr:postcode": "13090",
        "addr:country": "US",
        "name": "Wegmans",
        "phone": "+1 315-622-4632",
        "website": "https://www.wegmans.com/stores/great-northern-ny",
        "brand": "Wegmans",
        "brand:wikidata": "Q11288478",
        "addr:housenumber": "3955",
        "addr:street": "Route 31",
        "branch": "Great Northern"
      },
      "geometry": { "type": "Point", "coordinates": [-76.23781, 43.18547] }
    },
    {
      "type": "Feature",
      "id": "xPALp8VahHmVr_yF8YmC9d-__WE=",
      "properties": {
        "ref": "59",
        "shop": "supermarket",
        "addr:city": "Parsippany-Troy Hills",
        "addr:state": "NJ",
        "addr:postcode": "07054",
        "addr:country": "US",
        "name": "Wegmans",
        "phone": "+1 973-434-1500",
        "website": "https://www.wegmans.com/stores/hanover-nj",
        "brand": "Wegmans",
        "brand:wikidata": "Q11288478",
        "addr:housenumber": "34",
        "addr:street": "Sylvan Way",
        "branch": "Hanover"
      },
      "geometry": { "type": "Point", "coordinates": [-74.43746, 40.8385] }
    },
    {
      "type": "Feature",
      "id": "ieJSqrfmJwV3mkAgqjXFaCz-pXs=",
      "properties": {
        "ref": "27",
        "shop": "supermarket",
        "addr:city": "Mechanicsburg",
        "addr:state": "PA",
        "addr:postcode": "17050",
        "addr:country": "US",
        "name": "Wegmans",
        "phone": "+1 717-791-4500",
        "website": "https://www.wegmans.com/stores/harrisburg-pa",
        "brand": "Wegmans",
        "brand:wikidata": "Q11288478",
        "addr:housenumber": "6416",
        "addr:street": "Carlisle Pike",
        "branch": "Harrisburg"
      },
      "geometry": { "type": "Point", "coordinates": [-77.00909, 40.2492] }
    },
    {
      "type": "Feature",
      "id": "4Z4fYEQWMgOYizRbOGq7h_CFPPY=",
      "properties": {
        "ref": "102",
        "shop": "supermarket",
        "addr:city": "West Harrison",
        "addr:state": "NY",
        "addr:postcode": "10604",
        "addr:country": "US",
        "name": "Wegmans",
        "phone": "+1 914-539-3700",
        "website": "https://www.wegmans.com/stores/harrison-ny",
        "brand": "Wegmans",
        "brand:wikidata": "Q11288478",
        "addr:housenumber": "106",
        "addr:street": "Corporate Park Drive",
        "branch": "Harrison"
      },
      "geometry": { "type": "Point", "coordinates": [-73.71901, 41.02033] }
    },
    {
      "type": "Feature",
      "id": "RBmGm2WkN0uCBha-HuDKDQcm7zI=",
      "properties": {
        "ref": "51",
        "shop": "supermarket",
        "addr:city": "Webster",
        "addr:state": "NY",
        "addr:postcode": "14580",
        "addr:country": "US",
        "name": "Wegmans",
        "phone": "+1 585-872-0780",
        "website": "https://www.wegmans.com/stores/holt-rd-ny",
        "brand": "Wegmans",
        "brand:wikidata": "Q11288478",
        "addr:housenumber": "900",
        "addr:street": "Holt Road",
        "branch": "Holt Road"
      },
      "geometry": { "type": "Point", "coordinates": [-77.44415, 43.21307] }
    },
    {
      "type": "Feature",
      "id": "w2ftsv3NV0CjWAjmTzohJkVKnjw=",
      "properties": {
        "ref": "40",
        "shop": "supermarket",
        "addr:city": "Hornell",
        "addr:state": "NY",
        "addr:postcode": "14843",
        "addr:country": "US",
        "name": "Wegmans",
        "phone": "+1 607-324-0600",
        "website": "https://www.wegmans.com/stores/hornell-ny",
        "brand": "Wegmans",
        "brand:wikidata": "Q11288478",
        "addr:housenumber": "1000",
        "addr:street": "Highway 36 North",
        "branch": "Hornell"
      },
      "geometry": { "type": "Point", "coordinates": [-77.6682, 42.35052] }
    },
    {
      "type": "Feature",
      "id": "3Xp8t2oGPKmxMPjkWM6Tk1bCjYw=",
      "properties": {
        "ref": "33",
        "shop": "supermarket",
        "addr:city": "Hunt Valley",
        "addr:state": "MD",
        "addr:postcode": "21030",
        "addr:country": "US",
        "name": "Wegmans",
        "phone": "+1 410-773-3900",
        "website": "https://www.wegmans.com/stores/hunt-valley-md",
        "brand": "Wegmans",
        "brand:wikidata": "Q11288478",
        "addr:housenumber": "122",
        "addr:street": "Shawan Road",
        "branch": "Hunt Valley"
      },
      "geometry": { "type": "Point", "coordinates": [-76.65568, 39.49804] }
    },
    {
      "type": "Feature",
      "id": "EZa0QeNrhyNr-kFx5qQGOhDGbfc=",
      "properties": {
        "ref": "84",
        "shop": "supermarket",
        "addr:city": "Rochester",
        "addr:state": "NY",
        "addr:postcode": "14617",
        "addr:country": "US",
        "name": "Wegmans",
        "phone": "+1 585-266-4090",
        "website": "https://www.wegmans.com/stores/irondequoit-ny",
        "brand": "Wegmans",
        "brand:wikidata": "Q11288478",
        "addr:housenumber": "525",
        "addr:street": "Titus Avenue",
        "branch": "Irondequoit"
      },
      "geometry": { "type": "Point", "coordinates": [-77.6028, 43.20767] }
    },
    {
      "type": "Feature",
      "id": "LVLK2DKJyTj2a-TmPX08QKztt84=",
      "properties": {
        "ref": "36",
        "shop": "supermarket",
        "addr:city": "Ithaca",
        "addr:state": "NY",
        "addr:postcode": "14850",
        "addr:country": "US",
        "name": "Wegmans",
        "phone": "+1 607-277-5800",
        "website": "https://www.wegmans.com/stores/ithaca-ny",
        "brand": "Wegmans",
        "brand:wikidata": "Q11288478",
        "addr:housenumber": "500",
        "addr:street": "South Meadow Street",
        "branch": "Ithaca"
      },
      "geometry": { "type": "Point", "coordinates": [-76.51019, 42.43463] }
    },
    {
      "type": "Feature",
      "id": "qU0XFJoU5hjlenUKZwNYE15EDuU=",
      "properties": {
        "ref": "12",
        "shop": "supermarket",
        "addr:city": "East Syracuse",
        "addr:state": "NY",
        "addr:postcode": "13057",
        "addr:country": "US",
        "name": "Wegmans",
        "phone": "+1 315-437-1534",
        "website": "https://www.wegmans.com/stores/james-st-ny",
        "brand": "Wegmans",
        "brand:wikidata": "Q11288478",
        "addr:housenumber": "4256",
        "addr:street": "James Street",
        "branch": "James St."
      },
      "geometry": { "type": "Point", "coordinates": [-76.08731, 43.06882] }
    },
    {
      "type": "Feature",
      "id": "4h9yrjv7DsCxfNLMk-pZqZDpt7k=",
      "properties": {
        "ref": "91",
        "shop": "supermarket",
        "addr:city": "Jamestown",
        "addr:state": "NY",
        "addr:postcode": "14701",
        "addr:country": "US",
        "name": "Wegmans",
        "phone": "+1 716-483-9900",
        "website": "https://www.wegmans.com/stores/jamestown-ny",
        "brand": "Wegmans",
        "brand:wikidata": "Q11288478",
        "addr:housenumber": "945",
        "addr:street": "Fairmount Avenue",
        "branch": "Jamestown"
      },
      "geometry": { "type": "Point", "coordinates": [-79.29074, 42.09463] }
    },
    {
      "type": "Feature",
      "id": "mmLket3euFxJOh7aVDmoNfBGhNw=",
      "properties": {
        "ref": "4",
        "shop": "supermarket",
        "addr:city": "Liverpool",
        "addr:state": "NY",
        "addr:postcode": "13090",
        "addr:country": "US",
        "name": "Wegmans",
        "phone": "+1 315-546-1200",
        "website": "https://www.wegmans.com/stores/john-glenn-ny",
        "brand": "Wegmans",
        "brand:wikidata": "Q11288478",
        "addr:housenumber": "7519",
        "addr:street": "Oswego Road",
        "branch": "John Glenn"
      },
      "geometry": { "type": "Point", "coordinates": [-76.22528, 43.13394] }
    },
    {
      "type": "Feature",
      "id": "aYVe-WV1aEQ6pMBIa2NVyHD_kd4=",
      "properties": {
        "ref": "45",
        "shop": "supermarket",
        "addr:city": "Johnson City",
        "addr:state": "NY",
        "addr:postcode": "13790",
        "addr:country": "US",
        "name": "Wegmans",
        "phone": "+1 607-729-7782",
        "website": "https://www.wegmans.com/stores/johnson-city-ny",
        "brand": "Wegmans",
        "brand:wikidata": "Q11288478",
        "addr:housenumber": "650",
        "addr:street": "Harry L Drive",
        "branch": "Johnson City"
      },
      "geometry": { "type": "Point", "coordinates": [-75.97317, 42.12287] }
    },
    {
      "type": "Feature",
      "id": "-hHcjsI6L2gbxh-vK1XxtBYZHlM=",
      "properties": {
        "ref": "48",
        "shop": "supermarket",
        "addr:city": "King of Prussia",
        "addr:state": "PA",
        "addr:postcode": "19406",
        "addr:country": "US",
        "name": "Wegmans",
        "phone": "+1 484-690-3500",
        "website": "https://www.wegmans.com/stores/king-of-prussia-pa",
        "brand": "Wegmans",
        "brand:wikidata": "Q11288478",
        "addr:housenumber": "1",
        "addr:street": "Village Drive",
        "branch": "King Of Prussia"
      },
      "geometry": { "type": "Point", "coordinates": [-75.40201, 40.08353] }
    },
    {
      "type": "Feature",
      "id": "41vf3oNGXXD29_yMS8nPKnOlvLI=",
      "properties": {
        "ref": "83",
        "shop": "supermarket",
        "addr:city": "Gainesville",
        "addr:state": "VA",
        "addr:postcode": "20155",
        "addr:country": "US",
        "name": "Wegmans",
        "phone": "+1 571-222-2300",
        "website": "https://www.wegmans.com/stores/lake-manassas-va",
        "brand": "Wegmans",
        "brand:wikidata": "Q11288478",
        "addr:housenumber": "8297",
        "addr:street": "Stonewall Shops Square",
        "branch": "Lake Manassas"
      },
      "geometry": { "type": "Point", "coordinates": [-77.65304, 38.785] }
    },
    {
      "type": "Feature",
      "id": "gQivzxix2RDs0tVYVY1kIHqbZns=",
      "properties": {
        "ref": "90",
        "shop": "supermarket",
        "addr:city": "Lancaster",
        "addr:state": "PA",
        "addr:postcode": "17601",
        "addr:country": "US",
        "name": "Wegmans",
        "phone": "+1 717-358-9400",
        "website": "https://www.wegmans.com/stores/lancaster-pa",
        "brand": "Wegmans",
        "brand:wikidata": "Q11288478",
        "addr:housenumber": "2000",
        "addr:street": "Crossings Boulevard",
        "branch": "Lancaster"
      },
      "geometry": { "type": "Point", "coordinates": [-76.34019, 40.05944] }
    },
    {
      "type": "Feature",
      "id": "fDIfUr1PqxXc0q7jLPIxarX2bdU=",
      "properties": {
        "ref": "96",
        "shop": "supermarket",
        "addr:city": "Rochester",
        "addr:state": "NY",
        "addr:postcode": "14612",
        "addr:country": "US",
        "name": "Wegmans",
        "phone": "+1 585-723-8260",
        "website": "https://www.wegmans.com/stores/latta-rd-ny",
        "brand": "Wegmans",
        "brand:wikidata": "Q11288478",
        "addr:housenumber": "3177",
        "addr:street": "Latta Road",
        "branch": "Latta Road"
      },
      "geometry": { "type": "Point", "coordinates": [-77.6983, 43.25213] }
    },
    {
      "type": "Feature",
      "id": "0fTU-iQMqhsD8C7PIPDkDkMmArE=",
      "properties": {
        "ref": "47",
        "shop": "supermarket",
        "addr:city": "Leesburg",
        "addr:state": "VA",
        "addr:postcode": "20175",
        "addr:country": "US",
        "name": "Wegmans",
        "phone": "+1 703-669-2044",
        "website": "https://www.wegmans.com/stores/leesburg-va",
        "brand": "Wegmans",
        "brand:wikidata": "Q11288478",
        "addr:housenumber": "101",
        "addr:street": "Crosstrail Boulevard Southeast",
        "branch": "Leesburg"
      },
      "geometry": { "type": "Point", "coordinates": [-77.52173, 39.08925] }
    },
    {
      "type": "Feature",
      "id": "oW-5_rJftJ3EWH21UTDqBIEWxEw=",
      "properties": {
        "ref": "98",
        "shop": "supermarket",
        "addr:city": "Depew",
        "addr:state": "NY",
        "addr:postcode": "14043",
        "addr:country": "US",
        "name": "Wegmans",
        "phone": "+1 716-685-7300",
        "website": "https://www.wegmans.com/stores/losson-rd-ny",
        "brand": "Wegmans",
        "brand:wikidata": "Q11288478",
        "addr:housenumber": "4960",
        "addr:street": "Transit Road",
        "branch": "Losson Road"
      },
      "geometry": { "type": "Point", "coordinates": [-78.69692, 42.88252] }
    },
    {
      "type": "Feature",
      "id": "tYeojM3sbODEyYeXYdZTqZiLay4=",
      "properties": {
        "ref": "32",
        "shop": "supermarket",
        "addr:city": "Rochester",
        "addr:state": "NY",
        "addr:postcode": "14606",
        "addr:country": "US",
        "name": "Wegmans",
        "phone": "+1 585-429-4400",
        "website": "https://www.wegmans.com/stores/lyell-ave-ny",
        "brand": "Wegmans",
        "brand:wikidata": "Q11288478",
        "addr:housenumber": "2301",
        "addr:street": "Lyell Avenue",
        "branch": "Lyell Avenue"
      },
      "geometry": { "type": "Point", "coordinates": [-77.68851, 43.16337] }
    },
    {
      "type": "Feature",
      "id": "wBg2OXeEx_JQu11DkpfiDSiFyHc=",
      "properties": {
        "ref": "43",
        "shop": "supermarket",
        "addr:city": "Malvern",
        "addr:state": "PA",
        "addr:postcode": "19355",
        "addr:country": "US",
        "name": "Wegmans",
        "phone": "+1 484-913-9600",
        "website": "https://www.wegmans.com/stores/malvern-pa",
        "brand": "Wegmans",
        "brand:wikidata": "Q11288478",
        "addr:housenumber": "50",
        "addr:street": "Foundry Way",
        "branch": "Malvern"
      },
      "geometry": { "type": "Point", "coordinates": [-75.52276, 40.04836] }
    },
    {
      "type": "Feature",
      "id": "DCoyu5588MyrP1VDAejbpaU5WwI=",
      "properties": {
        "ref": "73",
        "shop": "supermarket",
        "addr:city": "Manalapan Township",
        "addr:state": "NJ",
        "addr:postcode": "07726",
        "addr:country": "US",
        "name": "Wegmans",
        "phone": "+1 732-625-4100",
        "website": "https://www.wegmans.com/stores/manalapan-nj",
        "brand": "Wegmans",
        "brand:wikidata": "Q11288478",
        "addr:housenumber": "55",
        "addr:street": "Us Highway 9",
        "addr:unit": "100",
        "branch": "Manalapan"
      },
      "geometry": { "type": "Point", "coordinates": [-74.29778, 40.28982] }
    },
    {
      "type": "Feature",
      "id": "qv-e3hWfdKbphSLlSRaHZoHnB5Q=",
      "properties": {
        "ref": "92",
        "shop": "supermarket",
        "addr:city": "Rochester",
        "addr:state": "NY",
        "addr:postcode": "14623",
        "addr:country": "US",
        "name": "Wegmans",
        "phone": "+1 585-424-7255",
        "website": "https://www.wegmans.com/stores/marketplace-ny",
        "brand": "Wegmans",
        "brand:wikidata": "Q11288478",
        "addr:housenumber": "650",
        "addr:street": "Hylan Drive",
        "branch": "Marketplace"
      },
      "geometry": { "type": "Point", "coordinates": [-77.62748, 43.0831] }
    },
    {
      "type": "Feature",
      "id": "RkJ3m_aet76Z2bJ2vkfVS4gsmN8=",
      "properties": {
        "ref": "94",
        "shop": "supermarket",
        "addr:city": "Buffalo",
        "addr:state": "NY",
        "addr:postcode": "14219",
        "addr:country": "US",
        "name": "Wegmans",
        "phone": "+1 716-362-8400",
        "website": "https://www.wegmans.com/stores/mckinley-ny",
        "brand": "Wegmans",
        "brand:wikidata": "Q11288478",
        "addr:housenumber": "3740",
        "addr:street": "McKinley Parkway",
        "branch": "McKinley"
      },
      "geometry": { "type": "Point", "coordinates": [-78.81225, 42.78305] }
    },
    {
      "type": "Feature",
      "id": "BEyUYOwGO3FmJXoxUt7Blin_sok=",
      "properties": {
        "ref": "82",
        "shop": "supermarket",
        "addr:city": "Medford",
        "addr:state": "MA",
        "addr:postcode": "02155",
        "addr:country": "US",
        "name": "Wegmans",
        "phone": "+1 339-221-5700",
        "website": "https://www.wegmans.com/stores/medford-ma",
        "brand": "Wegmans",
        "brand:wikidata": "Q11288478",
        "addr:housenumber": "3850",
        "addr:street": "Mystic Valley Parkway",
        "branch": "Medford"
      },
      "geometry": { "type": "Point", "coordinates": [-71.09193, 42.4069] }
    },
    {
      "type": "Feature",
      "id": "h-MVMh2tHxF9EG5hFJzu-HPqNKw=",
      "properties": {
        "ref": "99",
        "shop": "supermarket",
        "addr:city": "Midlothian",
        "addr:state": "VA",
        "addr:postcode": "23113",
        "addr:country": "US",
        "name": "Wegmans",
        "phone": "+1 804-419-9900",
        "website": "https://www.wegmans.com/stores/midlothian-va",
        "brand": "Wegmans",
        "brand:wikidata": "Q11288478",
        "addr:housenumber": "12501",
        "addr:street": "Stone Village Way",
        "branch": "Midlothian"
      },
      "geometry": { "type": "Point", "coordinates": [-77.6248, 37.50234] }
    },
    {
      "type": "Feature",
      "id": "NZKLw-LhLJ7ozkF6cLAlcdoLm1w=",
      "properties": {
        "ref": "86",
        "shop": "supermarket",
        "addr:city": "Niagara Falls",
        "addr:state": "NY",
        "addr:postcode": "14304",
        "addr:country": "US",
        "name": "Wegmans",
        "phone": "+1 716-298-3100",
        "website": "https://www.wegmans.com/stores/military-rd-ny",
        "brand": "Wegmans",
        "brand:wikidata": "Q11288478",
        "addr:housenumber": "1577",
        "addr:street": "Military Road",
        "branch": "Military Road"
      },
      "geometry": { "type": "Point", "coordinates": [-78.97018, 43.09479] }
    },
    {
      "type": "Feature",
      "id": "7xOojDOvY6_Aafrvolgh_dggkJc=",
      "properties": {
        "ref": "70",
        "shop": "supermarket",
        "addr:city": "North Wales",
        "addr:state": "PA",
        "addr:postcode": "19454",
        "addr:country": "US",
        "name": "Wegmans",
        "phone": "+1 267-677-0700",
        "website": "https://www.wegmans.com/stores/montgomeryville-pa",
        "brand": "Wegmans",
        "brand:wikidata": "Q11288478",
        "addr:housenumber": "500",
        "addr:street": "Montgomery Mall",
        "branch": "Montgomeryville"
      },
      "geometry": { "type": "Point", "coordinates": [-75.24525, 40.23664] }
    },
    {
      "type": "Feature",
      "id": "h6zy74wBsJ0NIQtd0ifNEjTNZ0Q=",
      "properties": {
        "ref": "79",
        "shop": "supermarket",
        "addr:city": "Montvale",
        "addr:state": "NJ",
        "addr:postcode": "07645",
        "addr:country": "US",
        "name": "Wegmans",
        "phone": "+1 551-249-2200",
        "website": "https://www.wegmans.com/stores/montvale-nj",
        "brand": "Wegmans",
        "brand:wikidata": "Q11288478",
        "addr:housenumber": "100",
        "addr:street": "Farm View",
        "branch": "Montvale"
      },
      "geometry": { "type": "Point", "coordinates": [-74.05936, 41.04994] }
    },
    {
      "type": "Feature",
      "id": "B29wvXCleiBDxvJjzjg8_2Lm3WQ=",
      "properties": {
        "ref": "10",
        "shop": "supermarket",
        "addr:city": "Mount Laurel",
        "addr:state": "NJ",
        "addr:postcode": "08054",
        "addr:country": "US",
        "name": "Wegmans",
        "phone": "+1 856-439-7300",
        "website": "https://www.wegmans.com/stores/mt-laurel-nj",
        "brand": "Wegmans",
        "brand:wikidata": "Q11288478",
        "addr:housenumber": "2",
        "addr:street": "Centerton Road",
        "branch": "Mount Laurel"
      },
      "geometry": { "type": "Point", "coordinates": [-74.91706, 39.96801] }
    },
    {
      "type": "Feature",
      "id": "l6tBHjqBBpChvucG4BeHemQgHTE=",
      "properties": {
        "ref": "19",
        "shop": "supermarket",
        "addr:city": "Rochester",
        "addr:state": "NY",
        "addr:postcode": "14616",
        "addr:country": "US",
        "name": "Wegmans",
        "phone": "+1 585-663-4120",
        "website": "https://www.wegmans.com/stores/mt-read-ny",
        "brand": "Wegmans",
        "brand:wikidata": "Q11288478",
        "addr:housenumber": "3701",
        "addr:street": "Mount Read Boulevard",
        "branch": "Mount Read"
      },
      "geometry": { "type": "Point", "coordinates": [-77.66071, 43.22473] }
    },
    {
      "type": "Feature",
      "id": "YPs3y0sRsk2rkx2dMlJOoXDDVfY=",
      "properties": {
        "ref": "80",
        "shop": "supermarket",
        "addr:city": "Easton",
        "addr:state": "PA",
        "addr:postcode": "18045",
        "addr:country": "US",
        "name": "Wegmans",
        "phone": "+1 610-515-2400",
        "website": "https://www.wegmans.com/stores/nazareth-pa",
        "brand": "Wegmans",
        "brand:wikidata": "Q11288478",
        "addr:housenumber": "3791",
        "addr:street": "Easton",
        "branch": "Nazareth"
      },
      "geometry": { "type": "Point", "coordinates": [-75.28783, 40.7153] }
    },
    {
      "type": "Feature",
      "id": "49jkyiUq9hTYMCEKyawErohbskM=",
      "properties": {
        "ref": "1",
        "shop": "supermarket",
        "addr:city": "Newark",
        "addr:state": "NY",
        "addr:postcode": "14513",
        "addr:country": "US",
        "name": "Wegmans",
        "phone": "+1 315-331-4440",
        "website": "https://www.wegmans.com/stores/newark-ny",
        "brand": "Wegmans",
        "brand:wikidata": "Q11288478",
        "addr:housenumber": "800",
        "addr:street": "West Miller Street",
        "branch": "Newark"
      },
      "geometry": { "type": "Point", "coordinates": [-77.11021, 43.04528] }
    },
    {
      "type": "Feature",
      "id": "MEaLUlhW16-8-0d2c3bdYwusFsg=",
      "properties": {
        "ref": "54",
        "shop": "supermarket",
        "addr:city": "Amherst",
        "addr:state": "NY",
        "addr:postcode": "14228",
        "addr:country": "US",
        "name": "Wegmans",
        "phone": "+1 716-691-0800",
        "website": "https://www.wegmans.com/stores/niagara-falls-blvd-ny",
        "brand": "Wegmans",
        "brand:wikidata": "Q11288478",
        "addr:housenumber": "3135",
        "addr:street": "Niagara Falls Boulevard",
        "branch": "Niagara Falls Boulevard"
      },
      "geometry": { "type": "Point", "coordinates": [-78.82022, 43.03893] }
    },
    {
      "type": "Feature",
      "id": "SF5VcujLvc71LvNMlDs5ryJIO1g=",
      "properties": {
        "ref": "20",
        "shop": "supermarket",
        "addr:city": "Northborough",
        "addr:state": "MA",
        "addr:postcode": "01532",
        "addr:country": "US",
        "name": "Wegmans",
        "phone": "+1 508-936-1900",
        "website": "https://www.wegmans.com/stores/northborough-ma",
        "brand": "Wegmans",
        "brand:wikidata": "Q11288478",
        "addr:housenumber": "9102",
        "addr:street": "Shops Way",
        "branch": "Northborough"
      },
      "geometry": { "type": "Point", "coordinates": [-71.67058, 42.29114] }
    },
    {
      "type": "Feature",
      "id": "Eg88zfw1ELB416VEX3KUxD4YOPk=",
      "properties": {
        "ref": "37",
        "shop": "supermarket",
        "addr:city": "Ocean Township",
        "addr:state": "NJ",
        "addr:postcode": "07712",
        "addr:country": "US",
        "name": "Wegmans",
        "phone": "+1 732-695-7000",
        "website": "https://www.wegmans.com/stores/ocean-nj",
        "brand": "Wegmans",
        "brand:wikidata": "Q11288478",
        "addr:housenumber": "1104",
        "addr:street": "Route 35",
        "branch": "Ocean"
      },
      "geometry": { "type": "Point", "coordinates": [-74.0374, 40.2394] }
    },
    {
      "type": "Feature",
      "id": "DItJZkTWwoS5UG3GckP25lRQvPE=",
      "properties": {
        "ref": "25",
        "shop": "supermarket",
        "addr:city": "Syracuse",
        "addr:state": "NY",
        "addr:postcode": "13219",
        "addr:country": "US",
        "name": "Wegmans",
        "phone": "+1 315-478-3313",
        "website": "https://www.wegmans.com/stores/onondaga-ny",
        "brand": "Wegmans",
        "brand:wikidata": "Q11288478",
        "addr:housenumber": "4722",
        "addr:street": "Onondaga Boulevard",
        "branch": "Onondaga"
      },
      "geometry": { "type": "Point", "coordinates": [-76.19028, 43.03174] }
    },
    {
      "type": "Feature",
      "id": "vMRsK6I-yopghD-maKE1dLHC5oQ=",
      "properties": {
        "ref": "88",
        "shop": "supermarket",
        "addr:city": "Owings Mills",
        "addr:state": "MD",
        "addr:postcode": "21117",
        "addr:country": "US",
        "name": "Wegmans",
        "phone": "+1 443-471-2300",
        "website": "https://www.wegmans.com/stores/owings-mills-md",
        "brand": "Wegmans",
        "brand:wikidata": "Q11288478",
        "addr:housenumber": "10100",
        "addr:street": "Reisterstown Road",
        "branch": "Owings Mills"
      },
      "geometry": { "type": "Point", "coordinates": [-76.77447, 39.41312] }
    },
    {
      "type": "Feature",
      "id": "u7IhzLNI3DLzAzfq_rb22EUK3N0=",
      "properties": {
        "ref": "42",
        "shop": "supermarket",
        "addr:city": "Erie",
        "addr:state": "PA",
        "addr:postcode": "16509",
        "addr:country": "US",
        "name": "Wegmans",
        "phone": "+1 814-860-5300",
        "website": "https://www.wegmans.com/stores/erie-peach-st-pa",
        "brand": "Wegmans",
        "brand:wikidata": "Q11288478",
        "addr:housenumber": "6143",
        "addr:street": "Peach Street",
        "branch": "Peach Street"
      },
      "geometry": { "type": "Point", "coordinates": [-80.09185, 42.06129] }
    },
    {
      "type": "Feature",
      "id": "4-lXw3zfZp33P9wr7rc5OJ-VQQE=",
      "properties": {
        "ref": "23",
        "shop": "supermarket",
        "addr:city": "Penfield",
        "addr:state": "NY",
        "addr:postcode": "14526",
        "addr:country": "US",
        "name": "Wegmans",
        "phone": "+1 585-248-3200",
        "website": "https://www.wegmans.com/stores/penfield-ny",
        "brand": "Wegmans",
        "brand:wikidata": "Q11288478",
        "addr:housenumber": "2157",
        "addr:street": "Penfield Road",
        "branch": "Penfield"
      },
      "geometry": { "type": "Point", "coordinates": [-77.44671, 43.12901] }
    },
    {
      "type": "Feature",
      "id": "0pitivOKwIeow0N5xWxCsPkUWsw=",
      "properties": {
        "ref": "26",
        "shop": "supermarket",
        "addr:city": "Fairport",
        "addr:state": "NY",
        "addr:postcode": "14450",
        "addr:country": "US",
        "name": "Wegmans",
        "phone": "+1 585-223-4092",
        "website": "https://www.wegmans.com/stores/perinton-ny",
        "brand": "Wegmans",
        "brand:wikidata": "Q11288478",
        "addr:housenumber": "6600",
        "addr:street": "Pittsford Palmyra Road",
        "branch": "Perinton"
      },
      "geometry": { "type": "Point", "coordinates": [-77.44599, 43.07131] }
    },
    {
      "type": "Feature",
      "id": "Gb2kcnponKjnHbRNp-uu2nY82B0=",
      "properties": {
        "ref": "34",
        "shop": "supermarket",
        "addr:city": "Rochester",
        "addr:state": "NY",
        "addr:postcode": "14618",
        "addr:country": "US",
        "name": "Wegmans",
        "phone": "+1 585-586-6680",
        "website": "https://www.wegmans.com/stores/pittsford-ny",
        "brand": "Wegmans",
        "brand:wikidata": "Q11288478",
        "addr:housenumber": "3195",
        "addr:street": "Monroe Avenue",
        "branch": "Pittsford"
      },
      "geometry": { "type": "Point", "coordinates": [-77.54347, 43.10658] }
    },
    {
      "type": "Feature",
      "id": "DHPcswrgyOIqd8r044MG0qOJ_3c=",
      "properties": {
        "ref": "29",
        "shop": "supermarket",
        "addr:city": "Woodbridge",
        "addr:state": "VA",
        "addr:postcode": "22191",
        "addr:country": "US",
        "name": "Wegmans",
        "phone": "+1 703-763-5500",
        "website": "https://www.wegmans.com/stores/potomac-va",
        "brand": "Wegmans",
        "brand:wikidata": "Q11288478",
        "addr:housenumber": "14801",
        "addr:street": "Dining Way",
        "branch": "Potomac"
      },
      "geometry": { "type": "Point", "coordinates": [-77.28882, 38.63109] }
    },
    {
      "type": "Feature",
      "id": "6t7al2sC08PEgNT8QoWfXkDqGqk=",
      "properties": {
        "ref": "78",
        "shop": "supermarket",
        "addr:city": "Princeton",
        "addr:state": "NJ",
        "addr:postcode": "08540",
        "addr:country": "US",
        "name": "Wegmans",
        "phone": "+1 609-919-9300",
        "website": "https://www.wegmans.com/stores/princeton-nj",
        "brand": "Wegmans",
        "brand:wikidata": "Q11288478",
        "addr:housenumber": "240",
        "addr:street": "Nassau Park Boulevard",
        "branch": "Princeton"
      },
      "geometry": { "type": "Point", "coordinates": [-74.67749, 40.30464] }
    },
    {
      "type": "Feature",
      "id": "io2YAMUQnYli63YZWAD1LuX-vrs=",
      "properties": {
        "ref": "100",
        "shop": "supermarket",
        "addr:city": "Raleigh",
        "addr:state": "NC",
        "addr:postcode": "27609",
        "addr:country": "US",
        "name": "Wegmans",
        "phone": "+1 984-960-5600",
        "website": "https://www.wegmans.com/stores/raleigh-nc",
        "brand": "Wegmans",
        "brand:wikidata": "Q11288478",
        "addr:housenumber": "1200",
        "addr:street": "Wake Towne Drive",
        "branch": "Raleigh"
      },
      "geometry": { "type": "Point", "coordinates": [-78.61959, 35.82095] }
    },
    {
      "type": "Feature",
      "id": "gj71mjIf93RbRZXUz4vpc63cavU=",
      "properties": {
        "ref": "110",
        "shop": "supermarket",
        "addr:city": "Reston",
        "addr:state": "VA",
        "addr:postcode": "20191",
        "addr:country": "US",
        "name": "Wegmans",
        "phone": "+1 703-621-2400",
        "website": "https://www.wegmans.com/stores/reston-va/",
        "brand": "Wegmans",
        "brand:wikidata": "Q11288478",
        "addr:housenumber": "11950",
        "addr:street": "Hopper Street",
        "branch": "Reston"
      },
      "geometry": { "type": "Point", "coordinates": [-77.35855, 38.94905] }
    },
    {
      "type": "Feature",
      "id": "emWg4_HiyN0xqR5RHcyvM45le4A=",
      "properties": {
        "ref": "24",
        "shop": "supermarket",
        "addr:city": "Rochester",
        "addr:state": "NY",
        "addr:postcode": "14622",
        "addr:country": "US",
        "name": "Wegmans",
        "phone": "+1 585-342-4810",
        "website": "https://www.wegmans.com/stores/ridge-culver-ny",
        "brand": "Wegmans",
        "brand:wikidata": "Q11288478",
        "addr:housenumber": "2200",
        "addr:street": "East Ridge Road",
        "branch": "Ridge-Culver"
      },
      "geometry": { "type": "Point", "coordinates": [-77.55861, 43.20488] }
    },
    {
      "type": "Feature",
      "id": "iNHPWPqJMLtY1BhwKK2bj15B65w=",
      "properties": {
        "ref": "3",
        "shop": "supermarket",
        "addr:city": "Rochester",
        "addr:state": "NY",
        "addr:postcode": "14626",
        "addr:country": "US",
        "name": "Wegmans",
        "phone": "+1 585-723-6000",
        "website": "https://www.wegmans.com/stores/ridgemont-ny",
        "brand": "Wegmans",
        "brand:wikidata": "Q11288478",
        "addr:housenumber": "2833",
        "addr:street": "West Ridge Road",
        "branch": "Ridgemont"
      },
      "geometry": { "type": "Point", "coordinates": [-77.70675, 43.2089] }
    },
    {
      "type": "Feature",
      "id": "YLa2yx8UVZW7nXoW0mpvtPFvNes=",
      "properties": {
        "ref": "52",
        "shop": "supermarket",
        "addr:city": "Scranton",
        "addr:state": "PA",
        "addr:postcode": "18508",
        "addr:country": "US",
        "name": "Wegmans",
        "phone": "+1 570-383-8721",
        "website": "https://www.wegmans.com/stores/scranton-pa",
        "brand": "Wegmans",
        "brand:wikidata": "Q11288478",
        "addr:housenumber": "1315",
        "addr:street": "Cold Spring Road",
        "branch": "Scranton"
      },
      "geometry": { "type": "Point", "coordinates": [-75.63299, 41.4755] }
    },
    {
      "type": "Feature",
      "id": "P65c3w8ttQr9wcL5umiFdXm_418=",
      "properties": {
        "ref": "77",
        "shop": "supermarket",
        "addr:city": "Williamsville",
        "addr:state": "NY",
        "addr:postcode": "14221",
        "addr:country": "US",
        "name": "Wegmans",
        "phone": "+1 716-631-4300",
        "website": "https://www.wegmans.com/stores/sheridan-dr-ny",
        "brand": "Wegmans",
        "brand:wikidata": "Q11288478",
        "addr:housenumber": "5275",
        "addr:street": "Sheridan Drive",
        "branch": "Sheridan Drive"
      },
      "geometry": { "type": "Point", "coordinates": [-78.73685, 42.97651] }
    },
    {
      "type": "Feature",
      "id": "zqTaYAvEmKHpigDNgUyhMlvFs5Q=",
      "properties": {
        "ref": "95",
        "shop": "supermarket",
        "addr:city": "Henrico",
        "addr:state": "VA",
        "addr:postcode": "23233",
        "addr:country": "US",
        "name": "Wegmans",
        "phone": "+1 804-377-4100",
        "website": "https://www.wegmans.com/stores/short-pump-va",
        "brand": "Wegmans",
        "brand:wikidata": "Q11288478",
        "addr:housenumber": "12200",
        "addr:street": "Wegmans Boulevard",
        "branch": "Short Pump"
      },
      "geometry": { "type": "Point", "coordinates": [-77.63539, 37.66302] }
    },
    {
      "type": "Feature",
      "id": "Ru9ybI1PQ4rH_wzTIX5tlO3WfDc=",
      "properties": {
        "ref": "63",
        "shop": "supermarket",
        "addr:city": "State College",
        "addr:state": "PA",
        "addr:postcode": "16803",
        "addr:country": "US",
        "name": "Wegmans",
        "phone": "+1 814-278-9000",
        "website": "https://www.wegmans.com/stores/state-college-pa",
        "brand": "Wegmans",
        "brand:wikidata": "Q11288478",
        "addr:housenumber": "345",
        "addr:street": "Colonnade Boulevard",
        "branch": "State College"
      },
      "geometry": { "type": "Point", "coordinates": [-77.90816, 40.81164] }
    },
    {
      "type": "Feature",
      "id": "21oFxgXvjJ4g0bnZ5wYsoMHkm-c=",
      "properties": {
        "ref": "16",
        "shop": "supermarket",
        "addr:city": "Liverpool",
        "addr:state": "NY",
        "addr:postcode": "13088",
        "addr:country": "US",
        "name": "Wegmans",
        "phone": "+1 315-457-0514",
        "website": "https://www.wegmans.com/stores/taft-rd-ny",
        "brand": "Wegmans",
        "brand:wikidata": "Q11288478",
        "addr:housenumber": "4979",
        "addr:street": "West Taft Road",
        "branch": "Taft Road"
      },
      "geometry": { "type": "Point", "coordinates": [-76.16738, 43.12189] }
    },
    {
      "type": "Feature",
      "id": "TwIIu0cGzYyOl6RlAFSmZzIpuUE=",
      "properties": {
        "ref": "35",
        "shop": "supermarket",
        "addr:city": "Allentown",
        "addr:state": "PA",
        "addr:postcode": "18104",
        "addr:country": "US",
        "name": "Wegmans",
        "phone": "+1 610-336-7900",
        "website": "https://www.wegmans.com/stores/tilghman-st-pa",
        "brand": "Wegmans",
        "brand:wikidata": "Q11288478",
        "addr:housenumber": "3900",
        "addr:street": "Tilghman Street",
        "branch": "Tilghman St."
      },
      "geometry": { "type": "Point", "coordinates": [-75.54151, 40.5925] }
    },
    {
      "type": "Feature",
      "id": "1vc6cR8b9MU5hK2QcQCjJ7Iz6j8=",
      "properties": {
        "ref": "89",
        "shop": "supermarket",
        "addr:city": "Buffalo",
        "addr:state": "NY",
        "addr:postcode": "14221",
        "addr:country": "US",
        "name": "Wegmans",
        "phone": "+1 716-636-5600",
        "website": "https://www.wegmans.com/stores/transit-rd-ny",
        "brand": "Wegmans",
        "brand:wikidata": "Q11288478",
        "addr:housenumber": "8270",
        "addr:street": "Transit Road",
        "branch": "Transit Road"
      },
      "geometry": { "type": "Point", "coordinates": [-78.6985, 42.99344] }
    },
    {
      "type": "Feature",
      "id": "9mOhRwdD1EPZsvRNgeNmw4Q_kXU=",
      "properties": {
        "ref": "104",
        "shop": "supermarket",
        "addr:city": "McLean",
        "addr:state": "VA",
        "addr:postcode": "22102",
        "addr:country": "US",
        "name": "Wegmans",
        "phone": "+1 571-423-0700",
        "website": "https://www.wegmans.com/stores/tysons-corner-va",
        "brand": "Wegmans",
        "brand:wikidata": "Q11288478",
        "addr:housenumber": "1835",
        "addr:street": "Capital One Drive South",
        "branch": "Tysons"
      },
      "geometry": { "type": "Point", "coordinates": [-77.21075, 38.92586] }
    },
    {
      "type": "Feature",
      "id": "qtb4RhBJ5LUSFmHmk5Xll4EXm-Q=",
      "properties": {
        "ref": "44",
        "shop": "supermarket",
        "addr:city": "Virginia Beach",
        "addr:state": "VA",
        "addr:postcode": "23462",
        "addr:country": "US",
        "name": "Wegmans",
        "phone": "+1 757-271-0500",
        "website": "https://www.wegmans.com/stores/virginia-beach-va",
        "brand": "Wegmans",
        "brand:wikidata": "Q11288478",
        "addr:housenumber": "4721",
        "addr:street": "Virginia Beach Boulevard",
        "branch": "Virginia Beach"
      },
      "geometry": { "type": "Point", "coordinates": [-76.13972, 36.84349] }
    },
    {
      "type": "Feature",
      "id": "qJyjCT2Hf9qRvy_mewqXPf9g2Mg=",
      "properties": {
        "ref": "106",
        "shop": "supermarket",
        "addr:city": "Wake Forest",
        "addr:state": "NC",
        "addr:postcode": "27587",
        "addr:country": "US",
        "name": "Wegmans",
        "phone": "+1 919-575-3800",
        "website": "https://www.wegmans.com/stores/wake-forest-nc",
        "brand": "Wegmans",
        "brand:wikidata": "Q11288478",
        "addr:housenumber": "11051",
        "addr:street": "Ligon Mill Road",
        "branch": "Wake Forest"
      },
      "geometry": { "type": "Point", "coordinates": [-78.5337, 35.96403] }
    },
    {
      "type": "Feature",
      "id": "shLZphEhVuXvQqcZsxrKhNYZVk0=",
      "properties": {
        "ref": "8",
        "shop": "supermarket",
        "addr:city": "Warrington",
        "addr:state": "PA",
        "addr:postcode": "18976",
        "addr:country": "US",
        "name": "Wegmans",
        "phone": "+1 215-918-3900",
        "website": "https://www.wegmans.com/stores/warrington-pa",
        "brand": "Wegmans",
        "brand:wikidata": "Q11288478",
        "addr:housenumber": "1405",
        "addr:street": "Main Street",
        "branch": "Warrington"
      },
      "geometry": { "type": "Point", "coordinates": [-75.13261, 40.2304] }
    },
    {
      "type": "Feature",
      "id": "L8y0mCPkGRFku2JQS5-o_HbZZUg=",
      "properties": {
        "ref": "103",
        "shop": "supermarket",
        "addr:city": "Morrisville",
        "addr:state": "NC",
        "addr:postcode": "27560",
        "addr:country": "US",
        "name": "Wegmans",
        "phone": "+1 919-415-0210",
        "website": "https://www.wegmans.com/stores/west-cary-nc",
        "brand": "Wegmans",
        "brand:wikidata": "Q11288478",
        "addr:housenumber": "3710",
        "addr:street": "Davis Drive",
        "branch": "West Cary"
      },
      "geometry": { "type": "Point", "coordinates": [-78.85033, 35.8288] }
    },
    {
      "type": "Feature",
      "id": "Vs5hykvcNN7w1EKOXeyE_vkzCNA=",
      "properties": {
        "ref": "56",
        "shop": "supermarket",
        "addr:city": "West Seneca",
        "addr:state": "NY",
        "addr:postcode": "14224",
        "addr:country": "US",
        "name": "Wegmans",
        "phone": "+1 716-826-4000",
        "website": "https://www.wegmans.com/stores/west-seneca-ny",
        "brand": "Wegmans",
        "brand:wikidata": "Q11288478",
        "addr:housenumber": "370",
        "addr:street": "Orchard Park Road",
        "branch": "West Seneca"
      },
      "geometry": { "type": "Point", "coordinates": [-78.78424, 42.83482] }
    },
    {
      "type": "Feature",
      "id": "4K9tWV9oETbxSjPWUCkgn0vMORo=",
      "properties": {
        "ref": "17",
        "shop": "supermarket",
        "addr:city": "Westwood",
        "addr:state": "MA",
        "addr:postcode": "02090",
        "addr:country": "US",
        "name": "Wegmans",
        "phone": "+1 781-234-0300",
        "website": "https://www.wegmans.com/stores/westwood-ma",
        "brand": "Wegmans",
        "brand:wikidata": "Q11288478",
        "addr:housenumber": "169",
        "addr:street": "University Avenue",
        "branch": "Westwood"
      },
      "geometry": { "type": "Point", "coordinates": [-71.15469, 42.20681] }
    },
    {
      "type": "Feature",
      "id": "fRtdyQqhcELTJouANqY_r9oeOuQ=",
      "properties": {
        "ref": "55",
        "shop": "supermarket",
        "addr:city": "Wilkes-Barre Township",
        "addr:state": "PA",
        "addr:postcode": "18702",
        "addr:country": "US",
        "name": "Wegmans",
        "phone": "+1 570-825-4400",
        "website": "https://www.wegmans.com/stores/wilkes-barre-pa",
        "brand": "Wegmans",
        "brand:wikidata": "Q11288478",
        "addr:housenumber": "220",
        "addr:street": "Highland Park Boulevard",
        "branch": "Wilkes-Barre"
      },
      "geometry": { "type": "Point", "coordinates": [-75.8612, 41.23674] }
    },
    {
      "type": "Feature",
      "id": "f3GQZW6IAmxO25qlUNMlf9i8XnE=",
      "properties": {
        "ref": "74",
        "shop": "supermarket",
        "addr:city": "Williamsport",
        "addr:state": "PA",
        "addr:postcode": "17701",
        "addr:country": "US",
        "name": "Wegmans",
        "phone": "+1 570-320-8778",
        "website": "https://www.wegmans.com/stores/williamsport-pa",
        "brand": "Wegmans",
        "brand:wikidata": "Q11288478",
        "addr:housenumber": "201",
        "addr:street": "William Street",
        "branch": "Williamsport"
      },
      "geometry": { "type": "Point", "coordinates": [-77.00517, 41.23791] }
    },
    {
      "type": "Feature",
      "id": "gzcfPGICuJpPIci_CpneoBLYiV0=",
      "properties": {
        "ref": "111",
        "shop": "supermarket",
        "addr:city": "Wilmington",
        "addr:state": "DE",
        "addr:postcode": "19807",
        "addr:country": "US",
        "name": "Wegmans",
        "phone": "+1 302-551-6100",
        "website": "https://www.wegmans.com/stores/wilmington-de",
        "brand": "Wegmans",
        "brand:wikidata": "Q11288478",
        "addr:housenumber": "371",
        "addr:street": "Buckley Mill Road",
        "branch": "Wilmington"
      },
      "geometry": { "type": "Point", "coordinates": [-75.59997, 39.76007] }
    },
    {
      "type": "Feature",
      "id": "q8lorGyBiT7ahCDNtDE5WdEB46w=",
      "properties": {
        "ref": "108",
        "shop": "supermarket",
        "addr:city": "Washington",
        "addr:state": "DC",
        "addr:postcode": "20016",
        "addr:country": "US",
        "name": "Wegmans",
        "phone": "+1 202-449-1600",
        "website": "https://www.wegmans.com/stores/wisconsin-avenue-dc",
        "brand": "Wegmans",
        "brand:wikidata": "Q11288478",
        "addr:housenumber": "41",
        "addr:street": "Ridge Square Northwest",
        "branch": "Wisconsin Avenue"
      },
      "geometry": { "type": "Point", "coordinates": [-77.07817, 38.94064] }
    },
    {
      "type": "Feature",
      "id": "rdGPyoMXNPQQUghGAWt4Hxzj5pU=",
      "properties": {
        "ref": "9",
        "shop": "supermarket",
        "addr:city": "Woodbridge Township",
        "addr:state": "NJ",
        "addr:postcode": "07095",
        "addr:country": "US",
        "name": "Wegmans",
        "phone": "+1 732-596-3200",
        "website": "https://www.wegmans.com/stores/woodbridge-nj",
        "brand": "Wegmans",
        "brand:wikidata": "Q11288478",
        "addr:housenumber": "15",
        "addr:street": "Woodbridge Center Drive",
        "branch": "Woodbridge"
      },
      "geometry": { "type": "Point", "coordinates": [-74.29773, 40.54988] }
    },
    {
      "type": "Feature",
      "id": "Q9GQnd4lve_xX3FLK4q3JjmcfZQ=",
      "properties": {
        "ref": "66",
        "shop": "supermarket",
        "addr:city": "Lanham",
        "addr:state": "MD",
        "addr:postcode": "20706",
        "addr:country": "US",
        "name": "Wegmans",
        "phone": "+1 240-487-5400",
        "website": "https://www.wegmans.com/stores/woodmore-md",
        "brand": "Wegmans",
        "brand:wikidata": "Q11288478",
        "addr:housenumber": "9001",
        "addr:street": "McHugh Drive",
        "branch": "Woodmore"
      },
      "geometry": { "type": "Point", "coordinates": [-76.85085, 38.92153] }
    }
  ]
}
