{
  "type": "FeatureCollection",
  "dataset_attributes": {
    "@spider": "costa_coffee",
    "spider:collection_time": "2024-04-13T19:18:09.738406",
    "cleaning": { "version": "0.2.0", "datetime": "2024-04-17" }
  },
  "features": [
    {
      "type": "Feature",
      "id": "aP--YllXb9Bf2OeN2t4ONojTgr4=",
      "properties": {
        "ref": "4YIxOYzWc9ai7u2uDVVxnG",
        "amenity": "cafe",
        "cuisine": "coffee_shop",
        "addr:state": "GA",
        "addr:country": "US",
        "name": "Costa Coffee - Emory (Closed for Summer)",
        "opening_hours": "Mo-Fr 08:00-17:00",
        "brand": "Costa Coffee",
        "brand:wikidata": "Q608845",
        "addr:housenumber": "1300",
        "addr:street": "Clifton Road",
        "addr:city": "Atlanta",
        "addr:postcode": "30322"
      },
      "geometry": {
        "type": "Point",
        "coordinates": [-84.32176246, 33.79011057]
      }
    },
    {
      "type": "Feature",
      "id": "CwgJNSatw6y6zvfqrvmu2sRFgPo=",
      "properties": {
        "ref": "4CPybpSQpRdUPmQRk4hiFa",
        "amenity": "cafe",
        "cuisine": "coffee_shop",
        "addr:state": "GA",
        "addr:country": "US",
        "name": "Costa Coffee - Brookhaven",
        "opening_hours": "Mo-Fr 07:00-17:00; Sa-Su 08:00-17:00",
        "brand": "Costa Coffee",
        "brand:wikidata": "Q608845",
        "addr:housenumber": "705",
        "addr:street": "Town Boulevard",
        "addr:unit": "A320",
        "addr:city": "Atlanta",
        "addr:postcode": "30319"
      },
      "geometry": {
        "type": "Point",
        "coordinates": [-84.33611771231016, 33.8698618794514]
      }
    },
    {
      "type": "Feature",
      "id": "8_wbreTV3qrp4eYyYUmfKSGV86Q=",
      "properties": {
        "ref": "4fdkhgUOEn1BLwbWKd6GbC",
        "amenity": "cafe",
        "cuisine": "coffee_shop",
        "addr:state": "GA",
        "addr:country": "US",
        "name": "Costa Coffee - Lee + White",
        "opening_hours": "Mo-Fr 07:00-16:00; Sa-Su 08:00-17:00",
        "brand": "Costa Coffee",
        "brand:wikidata": "Q608845",
        "addr:housenumber": "1020",
        "addr:street": "White Street Southwest",
        "addr:unit": "5",
        "addr:city": "Atlanta",
        "addr:postcode": "30310"
      },
      "geometry": {
        "type": "Point",
        "coordinates": [-84.4205888715953, 33.73152607734673]
      }
    },
    {
      "type": "Feature",
      "id": "1zzFQN8DrDmjQpcdGSsXru0O7VQ=",
      "properties": {
        "ref": "1p39lZJKD7agIx8Qm9s4wB",
        "amenity": "vending_machine",
        "vending": "coffee",
        "addr:state": "CA",
        "addr:country": "US",
        "name": "USC - MacDonald Becket Center",
        "brand": "Smart Caf\u00e9",
        "brand:wikidata": "Q117448428",
        "addr:housenumber": "850",
        "addr:street": "West Bloom Walk",
        "addr:city": "Los Angeles",
        "addr:postcode": "90089"
      },
      "geometry": {
        "type": "Point",
        "coordinates": [-118.28801309069223, 34.01923499451914]
      }
    },
    {
      "type": "Feature",
      "id": "-DrOMlC50R5DqMUk3C97nn2wp00=",
      "properties": {
        "ref": "41gHaWBJd2sRYjFlf9aiAI",
        "amenity": "vending_machine",
        "vending": "coffee",
        "addr:state": "LA",
        "addr:country": "US",
        "name": "Tulane University School of Law",
        "brand": "Smart Caf\u00e9",
        "brand:wikidata": "Q117448428",
        "addr:housenumber": "6329",
        "addr:street": "Freret Street",
        "addr:city": "New Orleans",
        "addr:postcode": "70118"
      },
      "geometry": {
        "type": "Point",
        "coordinates": [-90.11894637770273, 29.938368252575867]
      }
    },
    {
      "type": "Feature",
      "id": "114yeElTsOOuf6rLsa4zjVOtZas=",
      "properties": {
        "ref": "3Ps5p3KawD3SsIum3ueTt",
        "amenity": "vending_machine",
        "vending": "coffee",
        "addr:state": "NJ",
        "addr:country": "US",
        "name": "Saint Peters University - Student Center",
        "opening_hours": "Mo-Th 07:00-24:00; Fr 07:00-21:00; Sa-Su 11:00-21:00",
        "brand": "Smart Caf\u00e9",
        "brand:wikidata": "Q117448428",
        "addr:housenumber": "47",
        "addr:street": "Glenwood Avenue",
        "addr:city": "Jersey City",
        "addr:postcode": "07306"
      },
      "geometry": {
        "type": "Point",
        "coordinates": [-74.06949884556096, 40.72634343827041]
      }
    },
    {
      "type": "Feature",
      "id": "mV9iU3VAJxgbc-8lTrg5zRGjkO0=",
      "properties": {
        "ref": "2AqfN4UvSXEoBizJcfhuZI",
        "amenity": "vending_machine",
        "vending": "coffee",
        "addr:state": "MA",
        "addr:country": "US",
        "name": "Mount Holyoke College - Kendade Hall",
        "opening_hours": "Mo-Fr 06:00-02:00; Sa-Su 06:00-24:00",
        "brand": "Smart Caf\u00e9",
        "brand:wikidata": "Q117448428",
        "addr:city": "South Hadley",
        "addr:postcode": "01075"
      },
      "geometry": {
        "type": "Point",
        "coordinates": [-72.57406455329719, 42.25789402353858]
      }
    },
    {
      "type": "Feature",
      "id": "dXu-NOrMVksyRvbs7vDMlqftb48=",
      "properties": {
        "ref": "1jxOXiBjjy2HWQrepI2O4G",
        "amenity": "vending_machine",
        "vending": "coffee",
        "addr:state": "MA",
        "addr:country": "US",
        "name": "Mount Holyoke College - Blanchard Center",
        "brand": "Smart Caf\u00e9",
        "brand:wikidata": "Q117448428",
        "addr:city": "South Hadley",
        "addr:postcode": "01075"
      },
      "geometry": {
        "type": "Point",
        "coordinates": [-72.5741995092029, 42.25537964825036]
      }
    },
    {
      "type": "Feature",
      "id": "ZZphlDPt3dR_Lshj_-eR8PEfuVo=",
      "properties": {
        "ref": "2fZzgF8mQ6LHIfpxk9W2gC",
        "amenity": "vending_machine",
        "vending": "coffee",
        "addr:state": "NY",
        "addr:country": "US",
        "name": "SUNY Geneseo - Doty Hall",
        "brand": "Smart Caf\u00e9",
        "brand:wikidata": "Q117448428",
        "addr:street": "Park Street",
        "addr:city": "Geneseo",
        "addr:postcode": "14454"
      },
      "geometry": {
        "type": "Point",
        "coordinates": [-77.8199992473197, 42.794417400428266]
      }
    },
    {
      "type": "Feature",
      "id": "7w_7b-JRKAWl5FrqFdB6IxUB62A=",
      "properties": {
        "ref": "37e8do9VmLolW3uICc8CD5",
        "amenity": "vending_machine",
        "vending": "coffee",
        "addr:state": "NY",
        "addr:country": "US",
        "name": "D'Youville College Center",
        "opening_hours": "24/7",
        "brand": "Smart Caf\u00e9",
        "brand:wikidata": "Q117448428",
        "addr:city": "Buffalo",
        "addr:postcode": "14201"
      },
      "geometry": {
        "type": "Point",
        "coordinates": [-78.88914420788687, 42.90185180742889]
      }
    },
    {
      "type": "Feature",
      "id": "CLOxo6USPa_cl24e8YhZUJvon1w=",
      "properties": {
        "ref": "4EXIJzWopPuqAWqtZRwj1g",
        "amenity": "vending_machine",
        "vending": "coffee",
        "addr:state": "NY",
        "addr:country": "US",
        "name": "SUNY Plattsburgh, Plattsburgh, NY - Kent Hall",
        "opening_hours": "24/7",
        "brand": "Smart Caf\u00e9",
        "brand:wikidata": "Q117448428",
        "addr:housenumber": "61",
        "addr:street": "Rugar Street",
        "addr:city": "Plattsburgh",
        "addr:postcode": "12901"
      },
      "geometry": {
        "type": "Point",
        "coordinates": [-73.46733473441877, 44.69201806838624]
      }
    },
    {
      "type": "Feature",
      "id": "krFhfgRW6dubNWTkXSThoL0E9xQ=",
      "properties": {
        "ref": "7zSmkNmaRVw0ZgpfSpmdah",
        "amenity": "vending_machine",
        "vending": "coffee",
        "addr:state": "AZ",
        "addr:country": "US",
        "name": "University of Arizona - Law Library",
        "opening_hours": "24/7",
        "brand": "Smart Caf\u00e9",
        "brand:wikidata": "Q117448428",
        "addr:housenumber": "1201",
        "addr:street": "East Speedway Boulevard",
        "addr:city": "Tucson",
        "addr:postcode": "85719"
      },
      "geometry": {
        "type": "Point",
        "coordinates": [-110.95284869699847, 32.23640412396249]
      }
    },
    {
      "type": "Feature",
      "id": "jBAgDQbkltfTnXhxflMbTH_0Q4U=",
      "properties": {
        "ref": "j5a5EBko89w4VNpIHheV2",
        "amenity": "vending_machine",
        "vending": "coffee",
        "addr:state": "TX",
        "addr:country": "US",
        "name": "Houston Methodist Outpatient Center - Baytown",
        "opening_hours": "24/7",
        "brand": "Smart Caf\u00e9",
        "brand:wikidata": "Q117448428",
        "addr:housenumber": "1677",
        "addr:street": "West Baker Road",
        "addr:city": "Baytown",
        "addr:postcode": "77521"
      },
      "geometry": {
        "type": "Point",
        "coordinates": [-94.97673672377293, 29.79631588100554]
      }
    },
    {
      "type": "Feature",
      "id": "8vyEJz7h62NRvmKmThEK-JH04Jo=",
      "properties": {
        "ref": "S5U3QqGoka8XZkLEwW5Zn",
        "amenity": "vending_machine",
        "vending": "coffee",
        "addr:state": "TX",
        "addr:country": "US",
        "name": "Willow brook Medical - South Tower",
        "opening_hours": "Mo-Fr 08:00-17:00",
        "brand": "Smart Caf\u00e9",
        "brand:wikidata": "Q117448428",
        "addr:housenumber": "18310",
        "addr:street": "Tomball Parkway",
        "addr:unit": "200",
        "addr:city": "Houston",
        "addr:postcode": "77070"
      },
      "geometry": {
        "type": "Point",
        "coordinates": [-95.5507654322166, 29.96751984735295]
      }
    },
    {
      "type": "Feature",
      "id": "9MHyXthW2K7G_qrbTjo0I-Ag14c=",
      "properties": {
        "ref": "4ZLiW9KRm4BFNm3QZ04H3z",
        "amenity": "cafe",
        "cuisine": "coffee_shop",
        "addr:state": "GA",
        "addr:country": "US",
        "name": "Costa Coffee - Atlanta Midtown",
        "opening_hours": "Mo-Fr 07:00-17:00; Sa 09:00-15:00",
        "brand": "Costa Coffee",
        "brand:wikidata": "Q608845",
        "addr:housenumber": "756",
        "addr:street": "West Peachtree Street Northwest",
        "addr:city": "Atlanta",
        "addr:postcode": "30308"
      },
      "geometry": {
        "type": "Point",
        "coordinates": [-84.38751024, 33.77526841]
      }
    },
    {
      "type": "Feature",
      "id": "WtOwgU8tE6JbmxPG4RtJR2FZuX4=",
      "properties": {
        "ref": "4AIIqqkdjtxLFEB7mBJ3gJ",
        "amenity": "cafe",
        "cuisine": "coffee_shop",
        "addr:state": "WA",
        "addr:country": "US",
        "name": "Costa Coffee - Seattle-Tacoma International Airport",
        "opening_hours": "05:00-19:00",
        "brand": "Costa Coffee",
        "brand:wikidata": "Q608845",
        "addr:housenumber": "17801",
        "addr:street": "International Boulevard",
        "addr:city": "Seattle, North Satellite Terminal",
        "addr:postcode": "98158"
      },
      "geometry": {
        "type": "Point",
        "coordinates": [-122.3027598, 47.44248612]
      }
    },
    {
      "type": "Feature",
      "id": "Bu8eRApYlV6UQTQQKTi0TRfTK28=",
      "properties": {
        "ref": "6XDpHFGmWRMQy4fsvGRnHd",
        "amenity": "cafe",
        "cuisine": "coffee_shop",
        "addr:state": "GA",
        "addr:country": "US",
        "name": "Atlanta - 8 West",
        "opening_hours": "Mo-Fr 07:00-16:00; Sa-Su 08:00-15:00",
        "brand": "Costa Coffee",
        "brand:wikidata": "Q608845",
        "addr:housenumber": "889",
        "addr:street": "Howell Mill Road",
        "addr:unit": "117",
        "addr:city": "Atlanta",
        "addr:postcode": "30318"
      },
      "geometry": {
        "type": "Point",
        "coordinates": [-84.40969916625983, 33.7792011646217]
      }
    },
    {
      "type": "Feature",
      "id": "FsqI2NQIjn9UMTDx2BvE3XupmY0=",
      "properties": {
        "ref": "25PBjQEuoMsHKSL4nb5mTX",
        "amenity": "vending_machine",
        "vending": "coffee",
        "addr:state": "AL",
        "addr:country": "US",
        "name": "Auburn University - War Eagle Supply Co (The Village)",
        "opening_hours": "Mo-Th 07:00-24:00; Fr 07:00-21:00; Sa 09:00-21:00; Su 09:00-24:00",
        "brand": "Smart Caf\u00e9",
        "brand:wikidata": "Q117448428",
        "addr:housenumber": "230",
        "addr:street": "Beard-Eaves Court",
        "addr:city": "Auburn",
        "addr:postcode": "36849"
      },
      "geometry": {
        "type": "Point",
        "coordinates": [-85.4919640865072, 32.6039271537165]
      }
    },
    {
      "type": "Feature",
      "id": "m89zrmZT3RkxsMhGvVhONOSJKS0=",
      "properties": {
        "ref": "2Q8pO8kcNU9Z1H8fAfGsHH",
        "amenity": "vending_machine",
        "vending": "coffee",
        "addr:state": "MA",
        "addr:country": "US",
        "name": "Babson College - Horn Library",
        "opening_hours": "Mo-Th 07:30-24:00; Fr 07:00-21:00; Sa 10:00-21:00; Su 10:00-24:00",
        "brand": "Smart Caf\u00e9",
        "brand:wikidata": "Q117448428",
        "addr:housenumber": "11",
        "addr:street": "Babson College Drive",
        "addr:city": "Wellesley",
        "addr:postcode": "02482"
      },
      "geometry": {
        "type": "Point",
        "coordinates": [-71.2665121227676, 42.2991694765906]
      }
    },
    {
      "type": "Feature",
      "id": "LcuTsvJ2r60_Vkb92RnFj8pjFO4=",
      "properties": {
        "ref": "2za0riXwUG58TKk1Uvozo6",
        "amenity": "vending_machine",
        "vending": "coffee",
        "addr:state": "AZ",
        "addr:country": "US",
        "name": "University of Arizona - Global Market",
        "opening_hours": "08:00-12:00",
        "brand": "Smart Caf\u00e9",
        "brand:wikidata": "Q117448428",
        "addr:housenumber": "615",
        "addr:street": "North Park Avenue",
        "addr:city": "Tucson",
        "addr:postcode": "85721"
      },
      "geometry": {
        "type": "Point",
        "coordinates": [-110.957613692192, 32.2294797661046]
      }
    },
    {
      "type": "Feature",
      "id": "hORUGT_SEwOEuO5CTAK69JOtUSs=",
      "properties": {
        "ref": "7EwWC8qdtiDCey2D7KWXxm",
        "amenity": "vending_machine",
        "vending": "coffee",
        "addr:state": "NY",
        "addr:country": "US",
        "name": "SUNY Oneonta - Mills Market",
        "opening_hours": "Mo-Fr 10:30-20:00; Sa-Su 12:00-20:00",
        "brand": "Smart Caf\u00e9",
        "brand:wikidata": "Q117448428",
        "addr:city": "Oneonta",
        "addr:postcode": "13820"
      },
      "geometry": {
        "type": "Point",
        "coordinates": [-75.0609143, 42.4695144188255]
      }
    },
    {
      "type": "Feature",
      "id": "WePuY8A1tRaMNPB0TYYB-BjPmJw=",
      "properties": {
        "ref": "3oW8AXGsgbWXpF1VyEPpH3",
        "amenity": "vending_machine",
        "vending": "coffee",
        "addr:state": "MA",
        "addr:country": "US",
        "name": "Simmons University - LaFavour Library",
        "brand": "Smart Caf\u00e9",
        "brand:wikidata": "Q117448428",
        "addr:housenumber": "300",
        "addr:street": "Fenway",
        "addr:city": "Boston",
        "addr:postcode": "02115"
      },
      "geometry": {
        "type": "Point",
        "coordinates": [-71.0993246775586, 42.3385598278997]
      }
    },
    {
      "type": "Feature",
      "id": "QnjJr4FWtcHfQsCW3tDICE1Llhg=",
      "properties": {
        "ref": "4aFYVf6Do0KX2vTRWy1tgA",
        "amenity": "vending_machine",
        "vending": "coffee",
        "addr:state": "CT",
        "addr:country": "US",
        "name": "Quinnipiac University - York Hill Campus",
        "brand": "Smart Caf\u00e9",
        "brand:wikidata": "Q117448428",
        "addr:housenumber": "305",
        "addr:street": "Sherman Avenue",
        "addr:city": "Hamden",
        "addr:postcode": "06518"
      },
      "geometry": {
        "type": "Point",
        "coordinates": [-72.9112254770772, 41.4141615085896]
      }
    },
    {
      "type": "Feature",
      "id": "-1I_aBquekojsP5sM_FxZV9vCSo=",
      "properties": {
        "ref": "5o30vNV0u6fTtS9MxqqgOM",
        "amenity": "vending_machine",
        "vending": "coffee",
        "addr:state": "GA",
        "addr:country": "US",
        "name": "KSU Horace West Sturgis Library",
        "opening_hours": "Mo-Fr 07:30-23:00; Sa 12:00-21:00; Su 14:00-22:00",
        "brand": "Smart Caf\u00e9",
        "brand:wikidata": "Q117448428",
        "addr:housenumber": "385",
        "addr:street": "Cobb Avenue",
        "addr:city": "Kennesaw",
        "addr:postcode": "30144"
      },
      "geometry": {
        "type": "Point",
        "coordinates": [-84.5832510538703, 34.0384068908738]
      }
    },
    {
      "type": "Feature",
      "id": "tuEix5bRKgCvR6aZbIU5gB0L8Us=",
      "properties": {
        "ref": "7lRCSFSzIZOQO7T2IaEbvf",
        "amenity": "vending_machine",
        "vending": "coffee",
        "addr:state": "GA",
        "addr:country": "US",
        "name": "Kennesaw State University - The Market",
        "opening_hours": "Mo-Fr 08:00-18:00",
        "brand": "Smart Caf\u00e9",
        "brand:wikidata": "Q117448428",
        "addr:housenumber": "395",
        "addr:street": "Cobb Avenue",
        "addr:city": "Kennesaw",
        "addr:postcode": "30144"
      },
      "geometry": {
        "type": "Point",
        "coordinates": [-84.5830999005002, 34.0382041396413]
      }
    },
    {
      "type": "Feature",
      "id": "nMsKjvKESj8MAERdQNJTaGITziU=",
      "properties": {
        "ref": "31s4ewHnuCGYM3emTDauzq",
        "amenity": "vending_machine",
        "vending": "coffee",
        "addr:state": "NY",
        "addr:country": "US",
        "name": "Hartwick College - Table Rock Caf\u00e9",
        "opening_hours": "Mo-Fr 09:00-23:00; Sa-Su 17:00-23:00",
        "brand": "Smart Caf\u00e9",
        "brand:wikidata": "Q117448428",
        "addr:housenumber": "1",
        "addr:street": "Hartwick Drive",
        "addr:city": "Oneonta",
        "addr:postcode": "13820"
      },
      "geometry": {
        "type": "Point",
        "coordinates": [-75.0717039514474, 42.4586945046167]
      }
    },
    {
      "type": "Feature",
      "id": "y53x4wO2zeptpDS0cV7oefe-a9M=",
      "properties": {
        "ref": "wzuqN8i9ZPLcJqrjvDcsJ",
        "amenity": "vending_machine",
        "vending": "coffee",
        "addr:state": "MA",
        "addr:country": "US",
        "name": "Suffolk University - Ames Caf\u00e9",
        "brand": "Smart Caf\u00e9",
        "brand:wikidata": "Q117448428",
        "addr:housenumber": "1",
        "addr:street": "Court Street",
        "addr:city": "Boston",
        "addr:postcode": "02108"
      },
      "geometry": {
        "type": "Point",
        "coordinates": [-71.05805173019313, 42.35923394935039]
      }
    },
    {
      "type": "Feature",
      "id": "AQA3nSSfAcbS1QyNCZi32lzaCmQ=",
      "properties": {
        "ref": "4Tyx097P7NtSTncfSgelF6",
        "amenity": "vending_machine",
        "vending": "coffee",
        "addr:state": "MA",
        "addr:country": "US",
        "name": "Lesley University - Lower Level University Hal",
        "brand": "Smart Caf\u00e9",
        "brand:wikidata": "Q117448428",
        "addr:housenumber": "1815",
        "addr:street": "Massachusetts Avenue",
        "addr:city": "Cambridge",
        "addr:postcode": "02140"
      },
      "geometry": {
        "type": "Point",
        "coordinates": [-71.11865697252063, 42.38752678801974]
      }
    },
    {
      "type": "Feature",
      "id": "VPpUVcTue-XcLyvgXntV7k6KAPc=",
      "properties": {
        "ref": "50fBeSzC7pYyQRBTSWtA0Y",
        "amenity": "vending_machine",
        "vending": "coffee",
        "addr:state": "TX",
        "addr:country": "US",
        "name": "North Cypress Medical Center: Doctor's Pavilion",
        "opening_hours": "24/7",
        "brand": "Smart Caf\u00e9",
        "brand:wikidata": "Q117448428",
        "addr:housenumber": "10425",
        "addr:street": "Huffmeister Road",
        "addr:city": "Houston",
        "addr:postcode": "77065"
      },
      "geometry": {
        "type": "Point",
        "coordinates": [-95.62929203, 29.92572091]
      }
    },
    {
      "type": "Feature",
      "id": "60zGRo_dFagjpNbPR3y4Rc4s25Q=",
      "properties": {
        "ref": "1S6nmJ4vocLoJOQLoFKeY8",
        "amenity": "vending_machine",
        "vending": "coffee",
        "addr:state": "NY",
        "addr:country": "US",
        "name": "Syracuse Hancock International Airport: Northside",
        "opening_hours": "24/7",
        "brand": "Smart Caf\u00e9",
        "brand:wikidata": "Q117448428",
        "addr:housenumber": "1000",
        "addr:street": "Colonial Eileen Collins Boulevard",
        "addr:city": "Syracuse",
        "addr:postcode": "13212"
      },
      "geometry": { "type": "Point", "coordinates": [-76.1140733, 43.1138258] }
    },
    {
      "type": "Feature",
      "id": "aMd6J9M1WfeC-kofUwC5x1xmgnY=",
      "properties": {
        "ref": "6JNdqthyUG2oCEFnQSJ6Ky",
        "amenity": "vending_machine",
        "vending": "coffee",
        "addr:state": "NY",
        "addr:country": "US",
        "name": "Syracuse Hancock International Airport: Southside",
        "opening_hours": "24/7",
        "brand": "Smart Caf\u00e9",
        "brand:wikidata": "Q117448428",
        "addr:housenumber": "1000",
        "addr:street": "Colonial Eileen Collins Boulevard",
        "addr:city": "Syracuse",
        "addr:postcode": "13212"
      },
      "geometry": { "type": "Point", "coordinates": [-76.1140733, 43.1138258] }
    },
    {
      "type": "Feature",
      "id": "bbJ3tp2guoOIKoMr6tldmdGqvg8=",
      "properties": {
        "ref": "1s9XFXOLzKZ6lNMbOs8LOR",
        "amenity": "vending_machine",
        "vending": "coffee",
        "addr:state": "GA",
        "addr:country": "US",
        "name": "Gulfstream Aerospace",
        "opening_hours": "24/7",
        "brand": "Smart Caf\u00e9",
        "brand:wikidata": "Q117448428",
        "addr:housenumber": "500",
        "addr:street": "Gulfstream Road",
        "addr:city": "Savannah",
        "addr:postcode": "31408"
      },
      "geometry": {
        "type": "Point",
        "coordinates": [-81.19517687, 32.13585895]
      }
    },
    {
      "type": "Feature",
      "id": "jmPNJzf64nE6wL6xMU5laJ1AicI=",
      "properties": {
        "ref": "1C8STIK3hHQSHEfzL5HtOz",
        "amenity": "vending_machine",
        "vending": "coffee",
        "addr:state": "TX",
        "addr:country": "US",
        "name": "San Antonio Airport: Terminal B",
        "opening_hours": "24/7",
        "brand": "Smart Caf\u00e9",
        "brand:wikidata": "Q117448428",
        "addr:housenumber": "9800",
        "addr:street": "Airport Boulevard",
        "addr:city": "San Antonio",
        "addr:postcode": "78216"
      },
      "geometry": {
        "type": "Point",
        "coordinates": [-98.46921635, 29.530938597491613]
      }
    },
    {
      "type": "Feature",
      "id": "gxIr-GJ0xk_dBAlWo5GYLF_Lpb4=",
      "properties": {
        "ref": "4ebwWkGMDWZsYoYvZ6Rh5i",
        "amenity": "vending_machine",
        "vending": "coffee",
        "addr:state": "TX",
        "addr:country": "US",
        "name": "San Antonio Airport: Terminal A Baggage Claim",
        "opening_hours": "24/7",
        "brand": "Smart Caf\u00e9",
        "brand:wikidata": "Q117448428",
        "addr:housenumber": "9800",
        "addr:street": "Airport Boulevard",
        "addr:city": "San Antonio",
        "addr:postcode": "78216"
      },
      "geometry": {
        "type": "Point",
        "coordinates": [-98.46921635, 29.530938597491613]
      }
    },
    {
      "type": "Feature",
      "id": "33gS890S3fffyTHs77JUM19OIu8=",
      "properties": {
        "ref": "76FD2kZ0hWm3GWCPsjBvVg",
        "amenity": "vending_machine",
        "vending": "coffee",
        "addr:state": "KS",
        "addr:country": "US",
        "name": "Walmart",
        "opening_hours": "06:00-23:00",
        "brand": "Smart Caf\u00e9",
        "brand:wikidata": "Q117448428",
        "addr:housenumber": "13600",
        "addr:street": "South Alden Street",
        "addr:city": "Olathe",
        "addr:postcode": "66062"
      },
      "geometry": {
        "type": "Point",
        "coordinates": [-94.75819092, 38.88099206]
      }
    },
    {
      "type": "Feature",
      "id": "IQ3HFyf5n_6_zfcEhSept6wH374=",
      "properties": {
        "ref": "5mLosLS2X6O9f9F0iRbGYK",
        "amenity": "vending_machine",
        "vending": "coffee",
        "addr:state": "NY",
        "addr:country": "US",
        "name": "Syracuse Hancock International Airport: Grand Hall",
        "opening_hours": "24/7",
        "brand": "Smart Caf\u00e9",
        "brand:wikidata": "Q117448428",
        "addr:housenumber": "1000",
        "addr:street": "Colonial Eileen Collins Boulevard",
        "addr:city": "Syracuse",
        "addr:postcode": "13212"
      },
      "geometry": { "type": "Point", "coordinates": [-76.1140733, 43.1138258] }
    },
    {
      "type": "Feature",
      "id": "U3e5PneZmXCdlHggEiS7kx22kfQ=",
      "properties": {
        "ref": "23LmEf12R25IluSIQPmfE7",
        "amenity": "vending_machine",
        "vending": "coffee",
        "addr:state": "VA",
        "addr:country": "US",
        "name": "Smithsonian National Air and Space Museum - Udvar Hazy Center",
        "opening_hours": "10:00-17:30",
        "brand": "Smart Caf\u00e9",
        "brand:wikidata": "Q117448428",
        "addr:housenumber": "14390",
        "addr:street": "Air and Space Museum Parkway",
        "addr:city": "Chantilly",
        "addr:postcode": "20151"
      },
      "geometry": {
        "type": "Point",
        "coordinates": [-77.44407838, 38.91099221]
      }
    },
    {
      "type": "Feature",
      "id": "Fi67YM2VwWgmoDaE5ZVh_TKml-g=",
      "properties": {
        "ref": "2gN4fBiNkDfX3yrTkg8snU",
        "amenity": "vending_machine",
        "vending": "coffee",
        "addr:state": "FL",
        "addr:country": "US",
        "name": "Altitude Air Park",
        "opening_hours": "Mo-Th 10:00-21:00; Fr-Sa 10:00-22:00; Su 10:00-21:00",
        "brand": "Smart Caf\u00e9",
        "brand:wikidata": "Q117448428",
        "addr:housenumber": "2703",
        "addr:street": "West Osceola Parkway",
        "addr:city": "Kissimmee",
        "addr:postcode": "34741"
      },
      "geometry": {
        "type": "Point",
        "coordinates": [-81.42881287, 28.34424967]
      }
    },
    {
      "type": "Feature",
      "id": "1yWJDTZ5BFE6MtEd7V_q9MMmVNA=",
      "properties": {
        "ref": "7CVTB7r14dms2HlHFgVSyQ",
        "amenity": "vending_machine",
        "vending": "coffee",
        "addr:state": "FL",
        "addr:country": "US",
        "name": "Altitude Trampoline Park",
        "opening_hours": "Mo-Fr 10:00-21:00; Sa-Su 09:00-21:00",
        "brand": "Smart Caf\u00e9",
        "brand:wikidata": "Q117448428",
        "addr:housenumber": "201",
        "addr:street": "Cortez Road",
        "addr:city": "Bradenton",
        "addr:postcode": "34207"
      },
      "geometry": {
        "type": "Point",
        "coordinates": [-82.56503496, 27.46143743]
      }
    },
    {
      "type": "Feature",
      "id": "KsSSmdh1pL0wiPZ3_elam27U0Bs=",
      "properties": {
        "ref": "2j6m4u9hlz5Nfa19cMfEU5",
        "amenity": "vending_machine",
        "vending": "coffee",
        "addr:state": "GA",
        "addr:country": "US",
        "name": "Hartsfield Jackson International Airport - Opposite Gate T17",
        "opening_hours": "24/7",
        "brand": "Smart Caf\u00e9",
        "brand:wikidata": "Q117448428",
        "addr:housenumber": "6000",
        "addr:street": "North Terminal Parkway",
        "addr:city": "Atlanta",
        "addr:postcode": "30320"
      },
      "geometry": {
        "type": "Point",
        "coordinates": [-84.44242782, 33.64012269]
      }
    },
    {
      "type": "Feature",
      "id": "Zzeutt05q60hgIZp0eKhBb1CsiM=",
      "properties": {
        "ref": "UwJyEX92ZEoqe0uvd4y8I",
        "amenity": "vending_machine",
        "vending": "coffee",
        "addr:state": "AL",
        "addr:country": "US",
        "name": "University of Alabama School of Law",
        "opening_hours": "Mo-Fr 08:00-16:45",
        "brand": "Smart Caf\u00e9",
        "brand:wikidata": "Q117448428",
        "addr:housenumber": "101",
        "addr:street": "Paul West Bryant Drive",
        "addr:city": "East Tuscaloosa",
        "addr:postcode": "35487"
      },
      "geometry": {
        "type": "Point",
        "coordinates": [-87.53539936, 33.20383811]
      }
    },
    {
      "type": "Feature",
      "id": "3suZcFcmKzr_j4VDzNhO9T2zJ1U=",
      "properties": {
        "ref": "2r3lvFxtBpkwhOYt1xPpyH",
        "amenity": "vending_machine",
        "vending": "coffee",
        "addr:state": "MO",
        "addr:country": "US",
        "name": "Washington University in Saint Louis: Olin Library",
        "opening_hours": "Mo-Th 08:30-24:00; Fr 08:30-20:00; Sa 09:00-19:00; Su 09:00-24:00",
        "brand": "Smart Caf\u00e9",
        "brand:wikidata": "Q117448428",
        "addr:housenumber": "1",
        "addr:street": "Brookings Drive",
        "addr:city": "Saint Louis",
        "addr:postcode": "63130"
      },
      "geometry": {
        "type": "Point",
        "coordinates": [-90.30772433, 38.64846784]
      }
    },
    {
      "type": "Feature",
      "id": "kbgLIPddKdpV1ssNVwP9iy_MCi0=",
      "properties": {
        "ref": "7Jos5epghy7YAIAW64xwtc",
        "amenity": "vending_machine",
        "vending": "coffee",
        "addr:state": "MO",
        "addr:country": "US",
        "name": "Washington University in Saint Louis: Etta's Micro Mart at Steinberg Hall",
        "opening_hours": "24/7",
        "brand": "Smart Caf\u00e9",
        "brand:wikidata": "Q117448428",
        "addr:housenumber": "1",
        "addr:street": "Brookings Drive",
        "addr:city": "Saint Louis",
        "addr:postcode": "63130"
      },
      "geometry": {
        "type": "Point",
        "coordinates": [-90.30276604, 38.64656939]
      }
    },
    {
      "type": "Feature",
      "id": "OPTEIQqMrvBwW4wcFhOGN1Hd_hs=",
      "properties": {
        "ref": "5vvDMmbybFGLFkp5gR98IC",
        "amenity": "vending_machine",
        "vending": "coffee",
        "addr:state": "MO",
        "addr:country": "US",
        "name": "Washington University in Saint Louis: The Bear's Den",
        "opening_hours": "07:30-15:00",
        "brand": "Smart Caf\u00e9",
        "brand:wikidata": "Q117448428",
        "addr:housenumber": "1",
        "addr:street": "Brookings Drive",
        "addr:city": "Saint Louis",
        "addr:postcode": "63130"
      },
      "geometry": {
        "type": "Point",
        "coordinates": [-90.31318421, 38.64490979]
      }
    },
    {
      "type": "Feature",
      "id": "R6QirQbzMehOQEae4w9Mt_iHs6E=",
      "properties": {
        "ref": "6HHAjvuUxNj3UbASJyakV2",
        "amenity": "vending_machine",
        "vending": "coffee",
        "addr:state": "GA",
        "addr:country": "US",
        "name": "University of West Georgia: East Commons Micro Market",
        "opening_hours": "Mo-Th 07:30-20:00; Fr 07:30-17:00",
        "brand": "Smart Caf\u00e9",
        "brand:wikidata": "Q117448428",
        "addr:housenumber": "107",
        "addr:street": "Back Campus Drive",
        "addr:city": "Carrollton",
        "addr:postcode": "30118"
      },
      "geometry": { "type": "Point", "coordinates": [-85.0952762, 33.57330884] }
    },
    {
      "type": "Feature",
      "id": "A6ArJZUMjbcuZR_3T5gPKD_dCNg=",
      "properties": {
        "ref": "2KXWb4BXHbbuq3aGpb19uR",
        "amenity": "vending_machine",
        "vending": "coffee",
        "addr:state": "GA",
        "addr:country": "US",
        "name": "Georgia State University: Langdale Hall",
        "opening_hours": "Mo-Fr 08:00-17:00",
        "brand": "Smart Caf\u00e9",
        "brand:wikidata": "Q117448428",
        "addr:housenumber": "38",
        "addr:street": "Peachtree Center Avenue Southeast",
        "addr:city": "Atlanta",
        "addr:postcode": "30303"
      },
      "geometry": {
        "type": "Point",
        "coordinates": [-84.38715883, 33.75323422]
      }
    },
    {
      "type": "Feature",
      "id": "2kQN_jUWDSZ9sdPSImJyGjzmf1w=",
      "properties": {
        "ref": "5iVQqG4WGdrF3kerotgo5P",
        "amenity": "vending_machine",
        "vending": "coffee",
        "addr:state": "GA",
        "addr:country": "US",
        "name": "Georgia State University: Commons",
        "opening_hours": "24/7",
        "brand": "Smart Caf\u00e9",
        "brand:wikidata": "Q117448428",
        "addr:housenumber": "141",
        "addr:street": "Piedmont Avenue Northeast",
        "addr:city": "Atlanta",
        "addr:postcode": "30303"
      },
      "geometry": { "type": "Point", "coordinates": [-84.38143762, 33.7576017] }
    },
    {
      "type": "Feature",
      "id": "F5i4BJgXYkiH2RPHzaZaDsGFZ7E=",
      "properties": {
        "ref": "3Kw6w00NSrRe2yuk5pUn8A",
        "amenity": "vending_machine",
        "vending": "coffee",
        "addr:state": "GA",
        "addr:country": "US",
        "name": "Georgia State University: Law Library 5th Floor",
        "opening_hours": "Mo-Th 07:00-23:00; Fr 07:00-21:00; Sa 09:00-21:00; Su 10:00-23:00",
        "brand": "Smart Caf\u00e9",
        "brand:wikidata": "Q117448428",
        "addr:housenumber": "85",
        "addr:street": "Park Place Northeast",
        "addr:city": "Atlanta",
        "addr:postcode": "30303"
      },
      "geometry": { "type": "Point", "coordinates": [-84.38719577, 33.7567782] }
    },
    {
      "type": "Feature",
      "id": "nMHo4RDaNHtrg_AnOvsYbvlweEI=",
      "properties": {
        "ref": "2aUs02r3H5Tx7VxAYmYFWD",
        "amenity": "vending_machine",
        "vending": "coffee",
        "addr:state": "GA",
        "addr:country": "US",
        "name": "Georgia State University: Classroom South 2nd Floor",
        "opening_hours": "Mo-Fr 08:00-17:00",
        "brand": "Smart Caf\u00e9",
        "brand:wikidata": "Q117448428",
        "addr:housenumber": "95",
        "addr:street": "Decatur Street Southeast",
        "addr:city": "Atlanta",
        "addr:postcode": "30303"
      },
      "geometry": { "type": "Point", "coordinates": [-84.38738262, 33.75271] }
    },
    {
      "type": "Feature",
      "id": "FKOI2stmfOs2NjvzIjrQipn1X-U=",
      "properties": {
        "ref": "7Fr9w1oaxyxzLCeVtxDymO",
        "amenity": "vending_machine",
        "vending": "coffee",
        "addr:state": "GA",
        "addr:country": "US",
        "name": "Georgia State University: Classroom South 1st Floor",
        "opening_hours": "Mo-Fr 08:00-17:00",
        "brand": "Smart Caf\u00e9",
        "brand:wikidata": "Q117448428",
        "addr:housenumber": "95",
        "addr:street": "Decatur Street Southeast",
        "addr:city": "Atlanta",
        "addr:postcode": "30303"
      },
      "geometry": { "type": "Point", "coordinates": [-84.38738262, 33.75271] }
    },
    {
      "type": "Feature",
      "id": "LRXsauZ5CmuILmwK7IbhoXrsNEo=",
      "properties": {
        "ref": "1ltU7VVcTNeqO2bmam7qY8",
        "amenity": "vending_machine",
        "vending": "coffee",
        "addr:state": "GA",
        "addr:country": "US",
        "name": "Georgia State University: Centennial Hall",
        "opening_hours": "Mo-Fr 08:00-17:00",
        "brand": "Smart Caf\u00e9",
        "brand:wikidata": "Q117448428",
        "addr:housenumber": "100",
        "addr:street": "Auburn Avenue Northeast",
        "addr:city": "Atlanta",
        "addr:postcode": "30303"
      },
      "geometry": {
        "type": "Point",
        "coordinates": [-84.38339509, 33.75590084]
      }
    },
    {
      "type": "Feature",
      "id": "HOGv80aUfFDUW4qi49esYyq5B1U=",
      "properties": {
        "ref": "3Og3rXGT4TN5RhgaR5YjpC",
        "amenity": "vending_machine",
        "vending": "coffee",
        "addr:state": "TX",
        "addr:country": "US",
        "name": "University of Houston Blaffer Art Museum",
        "opening_hours": "Tu-Fr 10:00-17:30; Sa-Su 12:00-17:30",
        "brand": "Smart Caf\u00e9",
        "brand:wikidata": "Q117448428",
        "addr:housenumber": "4173",
        "addr:street": "Elgin Street",
        "addr:city": "Houston",
        "addr:postcode": "77004"
      },
      "geometry": {
        "type": "Point",
        "coordinates": [-95.34185378, 29.72489968]
      }
    },
    {
      "type": "Feature",
      "id": "YcqMbq7ewJaXN_od4rojg6-o8To=",
      "properties": {
        "ref": "3jKk29hqipn9OdJ5j7pmAJ",
        "amenity": "vending_machine",
        "vending": "coffee",
        "addr:state": "MA",
        "addr:country": "US",
        "name": "Worcester Polytechnic Institute: Becker Student Union",
        "opening_hours": "08:00-23:00",
        "brand": "Smart Caf\u00e9",
        "brand:wikidata": "Q117448428",
        "addr:housenumber": "44",
        "addr:street": "West Street",
        "addr:city": "Worcester",
        "addr:postcode": "01609"
      },
      "geometry": {
        "type": "Point",
        "coordinates": [-71.80880513, 42.26657271]
      }
    },
    {
      "type": "Feature",
      "id": "LMO9Ay15PsNvAAy8oyvEqwKyQ4A=",
      "properties": {
        "ref": "P6Oqx4QTudG8P5h2cE1W4",
        "amenity": "vending_machine",
        "vending": "coffee",
        "addr:state": "GA",
        "addr:country": "US",
        "name": "Georgia State University - Student Center East",
        "opening_hours": "Mo-Th 08:00-23:00; Fr 08:00-20:00; Sa 12:00-21:00; Su 14:00-21:00",
        "brand": "Smart Caf\u00e9",
        "brand:wikidata": "Q117448428",
        "addr:housenumber": "55",
        "addr:street": "Gilmer Street Southeast",
        "addr:city": "Atlanta",
        "addr:postcode": "30303"
      },
      "geometry": {
        "type": "Point",
        "coordinates": [-84.38479063, 33.75281127]
      }
    },
    {
      "type": "Feature",
      "id": "dz1G2gnKJcTuzNSpghAtQYkRv7w=",
      "properties": {
        "ref": "446PdZnueRTqt9vxyuGLqi",
        "amenity": "vending_machine",
        "vending": "coffee",
        "addr:state": "GA",
        "addr:country": "US",
        "name": "Georgia State University - Piedmont North",
        "opening_hours": "24/7",
        "brand": "Smart Caf\u00e9",
        "brand:wikidata": "Q117448428",
        "addr:housenumber": "175",
        "addr:street": "Piedmont Avenue Northeast",
        "addr:city": "Atlanta",
        "addr:postcode": "30303"
      },
      "geometry": {
        "type": "Point",
        "coordinates": [-84.38074593, 33.75909706]
      }
    },
    {
      "type": "Feature",
      "id": "iAePt-MjQDzCDjyKtRT6vzQJlCk=",
      "properties": {
        "ref": "29bmodfLxP6tieM4XVeWOo",
        "amenity": "vending_machine",
        "vending": "coffee",
        "addr:state": "AZ",
        "addr:country": "US",
        "name": "University of Arizona - Red and Blue Market",
        "opening_hours": "Mo-Th 08:00-17:00; Fr 08:00-15:00; Sa-Su 11:00-16:00",
        "brand": "Smart Caf\u00e9",
        "brand:wikidata": "Q117448428",
        "addr:housenumber": "1428",
        "addr:street": "East University Boulevard",
        "addr:city": "Tuscon",
        "addr:postcode": "85721"
      },
      "geometry": {
        "type": "Point",
        "coordinates": [-110.9495944, 32.23131391]
      }
    },
    {
      "type": "Feature",
      "id": "lFdNuzBgzEXDoVbN4XooZAz7YMo=",
      "properties": {
        "ref": "N2bNhCqxslqgbUDOEQwHi",
        "amenity": "vending_machine",
        "vending": "coffee",
        "addr:state": "FL",
        "addr:country": "US",
        "name": "University of Miami - The Market",
        "opening_hours": "24/7",
        "brand": "Smart Caf\u00e9",
        "brand:wikidata": "Q117448428",
        "addr:housenumber": "1350",
        "addr:street": "Miller Drive",
        "addr:city": "Coral Gables",
        "addr:postcode": "33124"
      },
      "geometry": {
        "type": "Point",
        "coordinates": [-80.27759602, 25.71996297]
      }
    },
    {
      "type": "Feature",
      "id": "RzHQuH-34LA6LP3_ys3ZGg2zCCM=",
      "properties": {
        "ref": "6Miiwpeqz0kYnJeLy6Tn7g",
        "amenity": "vending_machine",
        "vending": "coffee",
        "addr:state": "FL",
        "addr:country": "US",
        "name": "University of Miami - Shalala Student Center",
        "opening_hours": "Mo-Th 08:00-01:00; Fr-Sa 08:00-02:00; Su 08:00-01:00",
        "brand": "Smart Caf\u00e9",
        "brand:wikidata": "Q117448428",
        "addr:housenumber": "1330",
        "addr:street": "Miller Drive",
        "addr:city": "Miami",
        "addr:postcode": "33146"
      },
      "geometry": {
        "type": "Point",
        "coordinates": [-80.27841447, 25.71944807]
      }
    },
    {
      "type": "Feature",
      "id": "r922ErBHfJo0ciQcp9B5gF2TcQE=",
      "properties": {
        "ref": "J55WCUbmcImHqiW1OlHZk",
        "amenity": "vending_machine",
        "vending": "coffee",
        "addr:state": "NY",
        "addr:country": "US",
        "name": "SUNY Geneseo - Letchworth Dining Center",
        "opening_hours": "Mo-Fr 16:00-21:00; Sa-Su 11:00-19:00",
        "brand": "Smart Caf\u00e9",
        "brand:wikidata": "Q117448428",
        "addr:city": "Geneseo",
        "addr:postcode": "14454"
      },
      "geometry": {
        "type": "Point",
        "coordinates": [-77.82217918, 42.80031956]
      }
    },
    {
      "type": "Feature",
      "id": "2ncQbaApJ4gDh602aCMDzW7pvuE=",
      "properties": {
        "ref": "2ifHpJqESpfrNKW2iKceri",
        "amenity": "vending_machine",
        "vending": "coffee",
        "addr:state": "NY",
        "addr:country": "US",
        "name": "SUNY Delhi - Campus Convenience Store - Gary Hall",
        "opening_hours": "Mo-We 13:00-24:00; Th-Sa 13:00-02:00; Su 13:00-24:00",
        "brand": "Smart Caf\u00e9",
        "brand:wikidata": "Q117448428",
        "addr:housenumber": "454",
        "addr:street": "Delhi Drive",
        "addr:city": "Delhi",
        "addr:postcode": "13753"
      },
      "geometry": { "type": "Point", "coordinates": [-74.92298753, 42.2710328] }
    },
    {
      "type": "Feature",
      "id": "SCucbtR5JgwnnTmk92pN_zx7d1k=",
      "properties": {
        "ref": "5mXNogqUF6CAwO8b98JfHD",
        "amenity": "vending_machine",
        "vending": "coffee",
        "addr:state": "NY",
        "addr:country": "US",
        "name": "SUNY Delhi - Applied Technology School - Electric",
        "opening_hours": "24/7",
        "brand": "Smart Caf\u00e9",
        "brand:wikidata": "Q117448428",
        "addr:housenumber": "454",
        "addr:street": "Delhi Drive",
        "addr:city": "Delhi",
        "addr:postcode": "13753"
      },
      "geometry": { "type": "Point", "coordinates": [-74.92298753, 42.2710328] }
    },
    {
      "type": "Feature",
      "id": "z7mUMWK7RL9zaRa4MMfAWPXi20s=",
      "properties": {
        "ref": "3yyjYwviumXGgfJgb2Pfqr",
        "amenity": "vending_machine",
        "vending": "coffee",
        "addr:state": "VA",
        "addr:country": "US",
        "name": "Liberty University Student Union",
        "opening_hours": "Mo-Fr 08:00-17:00; Sa 12:00-16:00",
        "brand": "Smart Caf\u00e9",
        "brand:wikidata": "Q117448428",
        "addr:housenumber": "1971",
        "addr:street": "University Boulevard",
        "addr:city": "Lynchburg",
        "addr:postcode": "24515"
      },
      "geometry": {
        "type": "Point",
        "coordinates": [-79.18046941, 37.35091442]
      }
    },
    {
      "type": "Feature",
      "id": "tV8UAY3YNss5o7uH0hdhWDXQ6MQ=",
      "properties": {
        "ref": "1NhBRDaEjI2rGgMPIXaV2z",
        "amenity": "vending_machine",
        "vending": "coffee",
        "addr:state": "VA",
        "addr:country": "US",
        "name": "Liberty University Business School",
        "opening_hours": "24/7",
        "brand": "Smart Caf\u00e9",
        "brand:wikidata": "Q117448428",
        "addr:housenumber": "1971",
        "addr:street": "University Boulevard",
        "addr:city": "Lynchburg",
        "addr:postcode": "24515"
      },
      "geometry": {
        "type": "Point",
        "coordinates": [-79.17771632, 37.35102283]
      }
    },
    {
      "type": "Feature",
      "id": "Wm5JZtePEaYJ6cJ1cPglWhOBcOg=",
      "properties": {
        "ref": "5bm4VmWYLhic6noELNoRRd",
        "amenity": "vending_machine",
        "vending": "coffee",
        "addr:state": "VA",
        "addr:country": "US",
        "name": "Liberty University - LUCOM",
        "opening_hours": "Mo-Fr 08:00-17:00",
        "brand": "Smart Caf\u00e9",
        "brand:wikidata": "Q117448428",
        "addr:housenumber": "1971",
        "addr:street": "University Boulevard",
        "addr:city": "Lynchburg",
        "addr:postcode": "24515"
      },
      "geometry": {
        "type": "Point",
        "coordinates": [-79.17964766, 37.33721803]
      }
    },
    {
      "type": "Feature",
      "id": "bXhPySQIBjNbDOcny8jjqNdOUx0=",
      "properties": {
        "ref": "5p2GVYnxVAvfwh9rC4RKjx",
        "amenity": "vending_machine",
        "vending": "coffee",
        "addr:state": "VA",
        "addr:country": "US",
        "name": "Liberty University - The Grid",
        "opening_hours": "Mo-Tu 07:30-23:00; We 07:30-22:00; Th-Fr 07:30-23:00; Sa 12:00-21:00; Su 14:00-22:00",
        "brand": "Smart Caf\u00e9",
        "brand:wikidata": "Q117448428",
        "addr:housenumber": "1971",
        "addr:street": "University Boulevard",
        "addr:city": "Lynchburg",
        "addr:postcode": "24515"
      },
      "geometry": { "type": "Point", "coordinates": [-79.17600062, 37.3532294] }
    },
    {
      "type": "Feature",
      "id": "bLOvs-YUDSsDH66HUDflnYf9N60=",
      "properties": {
        "ref": "7vDf11cWr0t20j3HABWAbj",
        "amenity": "vending_machine",
        "vending": "coffee",
        "addr:state": "GA",
        "addr:country": "US",
        "name": "Emory University - Campus Life Office",
        "opening_hours": "Mo-Fr 07:00-20:00; Sa-Su 10:00-20:00",
        "brand": "Smart Caf\u00e9",
        "brand:wikidata": "Q117448428",
        "addr:housenumber": "201",
        "addr:street": "Dowman Drive",
        "addr:city": "Atlanta",
        "addr:postcode": "30322"
      },
      "geometry": {
        "type": "Point",
        "coordinates": [-84.32611714, 33.78968645]
      }
    },
    {
      "type": "Feature",
      "id": "qJ-aL9zx3oRL4kjhBH4OgBdo_Bc=",
      "properties": {
        "ref": "5ClHJi2GOYLIzpjm2YUJay",
        "amenity": "vending_machine",
        "vending": "coffee",
        "addr:state": "CT",
        "addr:country": "US",
        "name": "Quinnipiac University Law School",
        "opening_hours": "Mo-Th 09:00-17:00",
        "brand": "Smart Caf\u00e9",
        "brand:wikidata": "Q117448428",
        "addr:housenumber": "370",
        "addr:street": "Bassett Road",
        "addr:city": "North Haven",
        "addr:postcode": "06473"
      },
      "geometry": {
        "type": "Point",
        "coordinates": [-72.83836792, 41.41398188]
      }
    },
    {
      "type": "Feature",
      "id": "ETI9rEpAQSzCob0jb8vj2fI6Eak=",
      "properties": {
        "ref": "5gQYAwAcNvziDyBiaavslL",
        "amenity": "vending_machine",
        "vending": "coffee",
        "addr:state": "MA",
        "addr:country": "US",
        "name": "Babson College - Olin",
        "opening_hours": "24/7",
        "brand": "Smart Caf\u00e9",
        "brand:wikidata": "Q117448428",
        "addr:housenumber": "231",
        "addr:street": "Forest Street",
        "addr:city": "Wellesley",
        "addr:postcode": "02481"
      },
      "geometry": { "type": "Point", "coordinates": [-71.26167531, 42.2992127] }
    },
    {
      "type": "Feature",
      "id": "hCJZiXTMNmzHzcnD0mZrOK8A_UE=",
      "properties": {
        "ref": "14z5Xh7Uoyirlvb6jSoncS",
        "amenity": "vending_machine",
        "vending": "coffee",
        "addr:state": "PA",
        "addr:country": "US",
        "name": "University of Scranton Campus Library",
        "opening_hours": "Mo-Fr 08:00-22:00; Sa 12:00-20:00; Su 12:00-22:00",
        "brand": "Smart Caf\u00e9",
        "brand:wikidata": "Q117448428",
        "addr:housenumber": "900",
        "addr:street": "Mulberry Street",
        "addr:city": "Scranton",
        "addr:postcode": "18510"
      },
      "geometry": { "type": "Point", "coordinates": [-75.65558944, 41.4069019] }
    },
    {
      "type": "Feature",
      "id": "5M5Bldi-jIgF3GHuQLu94LEw29o=",
      "properties": {
        "ref": "4yjU9vPyXN7sw5ISois6L8",
        "amenity": "vending_machine",
        "vending": "coffee",
        "addr:state": "CT",
        "addr:country": "US",
        "name": "University of Hartford: POD Market - Dana Hall",
        "opening_hours": "24/7",
        "brand": "Smart Caf\u00e9",
        "brand:wikidata": "Q117448428",
        "addr:housenumber": "200",
        "addr:street": "Bloomfield Avenue",
        "addr:city": "West Hartford",
        "addr:postcode": "06117"
      },
      "geometry": {
        "type": "Point",
        "coordinates": [-72.71539039, 41.79502006]
      }
    },
    {
      "type": "Feature",
      "id": "1yN6xEE_2P0WTJJHa-5EigSDHu4=",
      "properties": {
        "ref": "70c95ZP5bVcMrriw7qAeUH",
        "amenity": "vending_machine",
        "vending": "coffee",
        "addr:state": "AZ",
        "addr:country": "US",
        "name": "Arizona State - Tooker Market",
        "opening_hours": "Mo-Fr 08:00-02:00; Sa-Su 10:00-02:00",
        "brand": "Smart Caf\u00e9",
        "brand:wikidata": "Q117448428",
        "addr:housenumber": "525",
        "addr:street": "East University Drive",
        "addr:city": "Tempe",
        "addr:postcode": "85281"
      },
      "geometry": {
        "type": "Point",
        "coordinates": [-111.9316417, 33.42185842]
      }
    },
    {
      "type": "Feature",
      "id": "cbitCI_hjxFxhMZF325FZyxEP1M=",
      "properties": {
        "ref": "XDjrhgIL9NaOW03GGXnFn",
        "amenity": "vending_machine",
        "vending": "coffee",
        "addr:state": "AZ",
        "addr:country": "US",
        "name": "Arizona State - West Campus",
        "opening_hours": "Mo-Fr 08:00-17:00",
        "brand": "Smart Caf\u00e9",
        "brand:wikidata": "Q117448428",
        "addr:housenumber": "4701",
        "addr:street": "West Thunderbird Road",
        "addr:city": "Glendale",
        "addr:postcode": "85306"
      },
      "geometry": {
        "type": "Point",
        "coordinates": [-112.1592739, 33.60888421]
      }
    },
    {
      "type": "Feature",
      "id": "6AOI_fh6ZJWgkrGy9FwY4_qhZnk=",
      "properties": {
        "ref": "6PBDRd1xQwXtOba34O54LJ",
        "amenity": "vending_machine",
        "vending": "coffee",
        "addr:state": "FL",
        "addr:country": "US",
        "name": "University of South Florida - JPH Juniper-Corner Market",
        "opening_hours": "Mo-Sa 10:00-02:00; Su 10:00-24:00",
        "brand": "Smart Caf\u00e9",
        "brand:wikidata": "Q117448428",
        "addr:housenumber": "12030",
        "addr:street": "USF Beard Drive",
        "addr:city": "Tampa",
        "addr:postcode": "33620"
      },
      "geometry": { "type": "Point", "coordinates": [-82.418636, 28.06000161] }
    },
    {
      "type": "Feature",
      "id": "hUJ-tNHZ25kO8nK0Ajz1AfCEeGM=",
      "properties": {
        "ref": "6kolNnrbIgd5JBfpXwc2Nw",
        "amenity": "vending_machine",
        "vending": "coffee",
        "addr:state": "GA",
        "addr:country": "US",
        "name": "Abraham Baldwin Agricultural College",
        "opening_hours": "Mo-Th 08:00-17:30; Fr 08:00-15:00",
        "brand": "Smart Caf\u00e9",
        "brand:wikidata": "Q117448428",
        "addr:housenumber": "2802",
        "addr:street": "Moore Highway",
        "addr:city": "Tifton",
        "addr:postcode": "31793"
      },
      "geometry": {
        "type": "Point",
        "coordinates": [-83.52782428, 31.48209749]
      }
    },
    {
      "type": "Feature",
      "id": "zJhKvRvqjzMW6x3SdFv9nti8noI=",
      "properties": {
        "ref": "2BbsORuZmbbUVkRqSHBegc",
        "amenity": "vending_machine",
        "vending": "coffee",
        "addr:state": "MA",
        "addr:country": "US",
        "name": "Lesley University - Lunder Arts Center",
        "brand": "Smart Caf\u00e9",
        "brand:wikidata": "Q117448428",
        "addr:housenumber": "1801",
        "addr:street": "Massachusetts Avenue",
        "addr:city": "Cambridge",
        "addr:postcode": "02140"
      },
      "geometry": {
        "type": "Point",
        "coordinates": [-71.11858178601291, 42.38676127031354]
      }
    },
    {
      "type": "Feature",
      "id": "pEBNhKX3ep-ez4aMPfflgOP0iQ8=",
      "properties": {
        "ref": "46c6kyh7R6sk7V74IZjoX9",
        "amenity": "vending_machine",
        "vending": "coffee",
        "addr:state": "MA",
        "addr:country": "US",
        "name": "Lesley University - Sherrill Library",
        "opening_hours": "Mo 11:00-19:00; Tu 10:00-18:00; We 11:00-19:00; Th-Fr 10:00-18:00",
        "brand": "Smart Caf\u00e9",
        "brand:wikidata": "Q117448428",
        "addr:housenumber": "89",
        "addr:street": "Brattle Street",
        "addr:city": "Cambridge",
        "addr:postcode": "02138"
      },
      "geometry": {
        "type": "Point",
        "coordinates": [-71.12409900135674, 42.376508568267305]
      }
    },
    {
      "type": "Feature",
      "id": "SXjhlSFLojVEZNXVxhRsoMWpgXQ=",
      "properties": {
        "ref": "6XS50M5BVhK2Yl0cXu8F8a",
        "amenity": "vending_machine",
        "vending": "coffee",
        "addr:state": "MA",
        "addr:country": "US",
        "name": "Lesley University - Porter Caf\u00e9",
        "opening_hours": "Mo-Th 08:00-20:00",
        "brand": "Smart Caf\u00e9",
        "brand:wikidata": "Q117448428",
        "addr:housenumber": "1815",
        "addr:street": "Massachusetts Avenue",
        "addr:city": "Cambridge",
        "addr:postcode": "02140"
      },
      "geometry": {
        "type": "Point",
        "coordinates": [-71.11866770135654, 42.387487166302826]
      }
    },
    {
      "type": "Feature",
      "id": "WyJtTnDrbR-iOQ-75hE7v5UA2AA=",
      "properties": {
        "ref": "63GuH2UQfBeJvvoZhlnVLl",
        "amenity": "vending_machine",
        "vending": "coffee",
        "addr:state": "MA",
        "addr:country": "US",
        "name": "Suffolk University - Sargent Caf\u00e9",
        "opening_hours": "07:00-20:00",
        "brand": "Smart Caf\u00e9",
        "brand:wikidata": "Q117448428",
        "addr:housenumber": "120",
        "addr:street": "Tremont Street",
        "addr:city": "Boston",
        "addr:postcode": "02108"
      },
      "geometry": {
        "type": "Point",
        "coordinates": [-71.06140068601358, 42.35689599997077]
      }
    },
    {
      "type": "Feature",
      "id": "nycuRowsMkm0SEZ8AhXq7wE8xFg=",
      "properties": {
        "ref": "6pNpLddGKg8FsHJrUxrRVb",
        "amenity": "vending_machine",
        "vending": "coffee",
        "addr:state": "PA",
        "addr:country": "US",
        "name": "Lackenau Healthcare",
        "opening_hours": "24/7",
        "brand": "Smart Caf\u00e9",
        "brand:wikidata": "Q117448428",
        "addr:housenumber": "100",
        "addr:street": "East Lancaster Avenue",
        "addr:city": "Wynnewood",
        "addr:postcode": "19096"
      },
      "geometry": {
        "type": "Point",
        "coordinates": [-75.26279538791398, 39.987321066685546]
      }
    },
    {
      "type": "Feature",
      "id": "a81asKb7pFuXIIGTKTWyVjU2oTc=",
      "properties": {
        "ref": "1G7Z9CSobayYuR40Gmxy6p",
        "amenity": "vending_machine",
        "vending": "coffee",
        "addr:state": "CT",
        "addr:country": "US",
        "name": "Trinity College",
        "opening_hours": "24/7",
        "brand": "Smart Caf\u00e9",
        "brand:wikidata": "Q117448428",
        "addr:housenumber": "114",
        "addr:street": "Vernon Street",
        "addr:city": "Hartford",
        "addr:postcode": "06106"
      },
      "geometry": { "type": "Point", "coordinates": [-72.6915, 41.75129] }
    },
    {
      "type": "Feature",
      "id": "qg96KN9m267Xq0NYtmN3tRzM7_k=",
      "properties": {
        "ref": "1VZ6e6KSclcIuQ0RAlf9K0",
        "amenity": "vending_machine",
        "vending": "coffee",
        "addr:state": "MA",
        "addr:country": "US",
        "name": "Simmons University - LaFavour Library",
        "opening_hours": "Mo-Fr 07:30-22:00; Sa-Su 10:00-22:00",
        "brand": "Smart Caf\u00e9",
        "brand:wikidata": "Q117448428",
        "addr:housenumber": "300",
        "addr:street": "The Fenway",
        "addr:city": "Boston",
        "addr:postcode": "02115"
      },
      "geometry": {
        "type": "Point",
        "coordinates": [-71.1001898363442, 42.3392459814966]
      }
    },
    {
      "type": "Feature",
      "id": "4--jPTm1WlUsXei7-zS87oUQy8I=",
      "properties": {
        "ref": "5aPCqofNzvKaFLP3G0JGwy",
        "amenity": "vending_machine",
        "vending": "coffee",
        "addr:state": "TN",
        "addr:country": "US",
        "name": "University of Tennessee Hospital",
        "opening_hours": "24/7",
        "brand": "Smart Caf\u00e9",
        "brand:wikidata": "Q117448428",
        "addr:housenumber": "1924",
        "addr:street": "Alcoa Highway",
        "addr:city": "Knoxville",
        "addr:postcode": "37920"
      },
      "geometry": {
        "type": "Point",
        "coordinates": [-83.94344056, 35.94126154]
      }
    },
    {
      "type": "Feature",
      "id": "51TCj9q81qa2tfNTdvfNPdlYzy0=",
      "properties": {
        "ref": "6mbCiHVWnoyxpgBlrSzboU",
        "amenity": "vending_machine",
        "vending": "coffee",
        "addr:state": "TX",
        "addr:country": "US",
        "name": "Texas Tech - El Paso",
        "opening_hours": "Mo-Th 08:00-17:30",
        "brand": "Smart Caf\u00e9",
        "brand:wikidata": "Q117448428",
        "addr:housenumber": "137",
        "addr:street": "Rick Francis Street",
        "addr:city": "El Paso",
        "addr:postcode": "79905"
      },
      "geometry": {
        "type": "Point",
        "coordinates": [-106.4316925, 31.77131607]
      }
    },
    {
      "type": "Feature",
      "id": "uAb0qRwp2s6BlZwADh3z0AhAhgI=",
      "properties": {
        "ref": "1mMBUq9XCt6VPqIcRZ67RF",
        "amenity": "vending_machine",
        "vending": "coffee",
        "addr:state": "GA",
        "addr:country": "US",
        "name": "Pace Academy",
        "opening_hours": "Mo-Fr 08:00-16:00",
        "brand": "Smart Caf\u00e9",
        "brand:wikidata": "Q117448428",
        "addr:housenumber": "966",
        "addr:street": "West Paces Ferry Road Northwest",
        "addr:city": "Atlanta",
        "addr:postcode": "30327"
      },
      "geometry": {
        "type": "Point",
        "coordinates": [-84.41708094, 33.84917044]
      }
    },
    {
      "type": "Feature",
      "id": "IX739yTGWw-Qb_Mj_xTDVe425kM=",
      "properties": {
        "ref": "2KNU3JiLtwsBhXb34HYRXi",
        "amenity": "vending_machine",
        "vending": "coffee",
        "addr:state": "TX",
        "addr:country": "US",
        "name": "Concordia University",
        "opening_hours": "Mo-Fr 08:00-17:00",
        "brand": "Smart Caf\u00e9",
        "brand:wikidata": "Q117448428",
        "addr:housenumber": "11400",
        "addr:street": "Concordia University Drive",
        "addr:city": "Austin",
        "addr:postcode": "78726"
      },
      "geometry": { "type": "Point", "coordinates": [-97.836139, 30.42094717] }
    },
    {
      "type": "Feature",
      "id": "EN20tpDMeZX6dRyKYr8QQfXwzLo=",
      "properties": {
        "ref": "3EbrhpsBhCu8CgQoqAGjKh",
        "amenity": "vending_machine",
        "vending": "coffee",
        "addr:state": "GA",
        "addr:country": "US",
        "name": "Bottle Cap Caf\u00e9",
        "opening_hours": "10:30-17:00",
        "brand": "Smart Caf\u00e9",
        "brand:wikidata": "Q117448428",
        "addr:housenumber": "121",
        "addr:street": "Baker Street Northwest",
        "addr:city": "Atlanta",
        "addr:postcode": "30313"
      },
      "geometry": { "type": "Point", "coordinates": [-84.39455119, 33.7644188] }
    },
    {
      "type": "Feature",
      "id": "nVjrQGQgelOzWjd0mOxrr9qG6ug=",
      "properties": {
        "ref": "3ofWdIcPugeVAkQgg1IYBc",
        "amenity": "vending_machine",
        "vending": "coffee",
        "addr:state": "PA",
        "addr:country": "US",
        "name": "Thomas Jefferson University Hospital",
        "opening_hours": "24/7",
        "brand": "Smart Caf\u00e9",
        "brand:wikidata": "Q117448428",
        "addr:housenumber": "111",
        "addr:street": "South 11th Street",
        "addr:city": "Philadelphia",
        "addr:postcode": "19107"
      },
      "geometry": {
        "type": "Point",
        "coordinates": [-75.15753988, 39.95001512]
      }
    },
    {
      "type": "Feature",
      "id": "L4AwVJgg2B9G2PZ3w8m4jmgOk_U=",
      "properties": {
        "ref": "3hEhNoNKBGCsYjxw9d3erg",
        "amenity": "vending_machine",
        "vending": "coffee",
        "addr:state": "WA",
        "addr:country": "US",
        "name": "SEATAC Airport",
        "opening_hours": "24/7",
        "brand": "Smart Caf\u00e9",
        "brand:wikidata": "Q117448428",
        "addr:housenumber": "17801",
        "addr:street": "International Boulevard",
        "addr:city": "Seattle, North Satellite Terminal",
        "addr:postcode": "98158"
      },
      "geometry": {
        "type": "Point",
        "coordinates": [-122.3027598, 47.44248612]
      }
    },
    {
      "type": "Feature",
      "id": "opNeWA2PUyKFzkPJxcYsBq7OYd0=",
      "properties": {
        "ref": "5njv4WifOtvXvATJtPWVCR",
        "amenity": "vending_machine",
        "vending": "coffee",
        "addr:state": "NY",
        "addr:country": "US",
        "name": "MacArthur Airport",
        "opening_hours": "24/7",
        "brand": "Smart Caf\u00e9",
        "brand:wikidata": "Q117448428",
        "addr:housenumber": "100",
        "addr:street": "Arrivals Avenue",
        "addr:city": "Ronkonkoma",
        "addr:postcode": "11779"
      },
      "geometry": {
        "type": "Point",
        "coordinates": [-73.09779263, 40.78932619]
      }
    },
    {
      "type": "Feature",
      "id": "QJv1lew3cfeFl_qozFf0hEdC1Xo=",
      "properties": {
        "ref": "688RhW31FTXIWhiUrxgtQU",
        "amenity": "vending_machine",
        "vending": "coffee",
        "addr:state": "NH",
        "addr:country": "US",
        "name": "Manchester - Boston Regional Airport",
        "opening_hours": "24/7",
        "brand": "Smart Caf\u00e9",
        "brand:wikidata": "Q117448428",
        "addr:housenumber": "1",
        "addr:street": "Airport Road",
        "addr:city": "Manchester",
        "addr:postcode": "03103"
      },
      "geometry": {
        "type": "Point",
        "coordinates": [-71.43705236, 42.92795933]
      }
    },
    {
      "type": "Feature",
      "id": "MwAU0S0QIeje-ulRjiQAQt7zcbc=",
      "properties": {
        "ref": "8QzbwMS506YjQoSubyYVh",
        "amenity": "vending_machine",
        "vending": "coffee",
        "addr:state": "IL",
        "addr:country": "US",
        "name": "Springfield Airport",
        "opening_hours": "24/7",
        "brand": "Smart Caf\u00e9",
        "brand:wikidata": "Q117448428",
        "addr:housenumber": "1200",
        "addr:street": "Capital Airport Drive",
        "addr:city": "Springfield",
        "addr:postcode": "62707"
      },
      "geometry": {
        "type": "Point",
        "coordinates": [-89.67112737, 39.84431097]
      }
    },
    {
      "type": "Feature",
      "id": "s1A_tygWQSrDKzCjzBGothcdG8U=",
      "properties": {
        "ref": "4DcV85gMdJO25UG8eQrLgQ",
        "amenity": "vending_machine",
        "vending": "coffee",
        "addr:state": "TX",
        "addr:country": "US",
        "name": "Harris Methodist Hospital",
        "opening_hours": "24/7",
        "brand": "Smart Caf\u00e9",
        "brand:wikidata": "Q117448428",
        "addr:housenumber": "1600",
        "addr:street": "Hospital Parkway",
        "addr:city": "Bedford",
        "addr:postcode": "76022"
      },
      "geometry": { "type": "Point", "coordinates": [-97.12327649, 32.8355374] }
    },
    {
      "type": "Feature",
      "id": "ugrtVHQlQzxvR5KpqHOW8a3hR60=",
      "properties": {
        "ref": "kceGxTunGC8rf6OPKSihF",
        "amenity": "vending_machine",
        "vending": "coffee",
        "addr:state": "FL",
        "addr:country": "US",
        "name": "Doubletree by Hilton Rocky Point",
        "opening_hours": "24/7",
        "brand": "Smart Caf\u00e9",
        "brand:wikidata": "Q117448428",
        "addr:housenumber": "3050",
        "addr:street": "North Rocky Point Drive West",
        "addr:city": "Tampa",
        "addr:postcode": "33607"
      },
      "geometry": {
        "type": "Point",
        "coordinates": [-82.56937479, 27.97065745]
      }
    },
    {
      "type": "Feature",
      "id": "Wu_Pdxx4j_ipcvCsalC6sC5CobQ=",
      "properties": {
        "ref": "33WqLDPlUnXLL18FUv6U21",
        "amenity": "vending_machine",
        "vending": "coffee",
        "addr:state": "WI",
        "addr:country": "US",
        "name": "Appleton Airport",
        "opening_hours": "24/7",
        "brand": "Smart Caf\u00e9",
        "brand:wikidata": "Q117448428",
        "addr:housenumber": "W6390",
        "addr:street": "Challenger Drive",
        "addr:city": "Appleton",
        "addr:postcode": "54914"
      },
      "geometry": { "type": "Point", "coordinates": [-88.5111504, 44.26051512] }
    },
    {
      "type": "Feature",
      "id": "m2bmghV0t--Yfe9sJXLg9v6OqxM=",
      "properties": {
        "ref": "11wwIQH0h9vvAAwcE17jW8",
        "amenity": "vending_machine",
        "vending": "coffee",
        "addr:state": "TX",
        "addr:country": "US",
        "name": "El Paso International Airport",
        "opening_hours": "24/7",
        "brand": "Smart Caf\u00e9",
        "brand:wikidata": "Q117448428",
        "addr:housenumber": "6701",
        "addr:street": "Convair Road",
        "addr:city": "El Paso",
        "addr:postcode": "79925"
      },
      "geometry": {
        "type": "Point",
        "coordinates": [-106.3955376, 31.79944742]
      }
    },
    {
      "type": "Feature",
      "id": "8iHxJvs61IEWlz4BIfFpUIgpoX0=",
      "properties": {
        "ref": "3SRQHVeeoitzv16PhaRUzO",
        "amenity": "vending_machine",
        "vending": "coffee",
        "addr:state": "TX",
        "addr:country": "US",
        "name": "Lubbock International Airport",
        "opening_hours": "24/7",
        "brand": "Smart Caf\u00e9",
        "brand:wikidata": "Q117448428",
        "addr:housenumber": "5401",
        "addr:street": "North MLK Boulevard",
        "addr:city": "Lubbock",
        "addr:postcode": "79403"
      },
      "geometry": {
        "type": "Point",
        "coordinates": [-101.8220453, 33.65667565]
      }
    },
    {
      "type": "Feature",
      "id": "vjUD302t0YvSgr6vhcuOtsPes4w=",
      "properties": {
        "ref": "4mtXBKauQ0z9rjH8ihlQhN",
        "amenity": "vending_machine",
        "vending": "coffee",
        "addr:state": "PA",
        "addr:country": "US",
        "name": "Flying J Travel Center",
        "opening_hours": "24/7",
        "brand": "Smart Caf\u00e9",
        "brand:wikidata": "Q117448428",
        "addr:housenumber": "2210",
        "addr:street": "Camp Swatara Road",
        "addr:city": "Myerstown",
        "addr:postcode": "17067"
      },
      "geometry": {
        "type": "Point",
        "coordinates": [-76.33947787, 40.46345766]
      }
    },
    {
      "type": "Feature",
      "id": "w0Icnl30CAUun10-kaNjwkvUPeM=",
      "properties": {
        "ref": "jcLnZ9BIP1AA8ybBJrTIU",
        "amenity": "vending_machine",
        "vending": "coffee",
        "addr:state": "VA",
        "addr:country": "US",
        "name": "Flying J Travel Center",
        "opening_hours": "24/7",
        "brand": "Smart Caf\u00e9",
        "brand:wikidata": "Q117448428",
        "addr:housenumber": "1530",
        "addr:street": "Rest Church Road",
        "addr:city": "Clear Brook",
        "addr:postcode": "22624"
      },
      "geometry": {
        "type": "Point",
        "coordinates": [-78.08670977, 39.29025152]
      }
    },
    {
      "type": "Feature",
      "id": "sqEaOXTQv000UZQDFR1q7PnqKts=",
      "properties": {
        "ref": "1P7e4lJqR55ikmYWtz6Lni",
        "amenity": "vending_machine",
        "vending": "coffee",
        "addr:state": "GA",
        "addr:country": "US",
        "name": "Bear Market",
        "opening_hours": "Mo-Fr 07:30-16:00",
        "brand": "Smart Caf\u00e9",
        "brand:wikidata": "Q117448428",
        "addr:housenumber": "2845",
        "addr:street": "Bethany Bend",
        "addr:city": "Milton",
        "addr:postcode": "30004"
      },
      "geometry": {
        "type": "Point",
        "coordinates": [-84.27439818, 34.11758682]
      }
    },
    {
      "type": "Feature",
      "id": "308JQKLxgeTCBeNQAFwTbpASsQE=",
      "properties": {
        "ref": "5Da9AdAkUtL2GF6zDrE3k9",
        "amenity": "vending_machine",
        "vending": "coffee",
        "addr:state": "GA",
        "addr:country": "US",
        "name": "Lake Lanier Islands Butler's Pantry",
        "opening_hours": "24/7",
        "brand": "Smart Caf\u00e9",
        "brand:wikidata": "Q117448428",
        "addr:housenumber": "7000",
        "addr:street": "Lanier Islands Parkway",
        "addr:city": "Buford",
        "addr:postcode": "30518"
      },
      "geometry": {
        "type": "Point",
        "coordinates": [-84.03662011, 34.17403483]
      }
    },
    {
      "type": "Feature",
      "id": "tefU7t-BE0giISil6DcbpG-0xjs=",
      "properties": {
        "ref": "6k1IjvUIQOjkfXUU3q0rMC",
        "amenity": "vending_machine",
        "vending": "coffee",
        "addr:state": "GA",
        "addr:country": "US",
        "name": "Foothills IGA Market",
        "opening_hours": "07:00-21:00",
        "brand": "Smart Caf\u00e9",
        "brand:wikidata": "Q117448428",
        "addr:housenumber": "70",
        "addr:street": "Foothills Parkway",
        "addr:city": "Marble Hill",
        "addr:postcode": "30148"
      },
      "geometry": {
        "type": "Point",
        "coordinates": [-84.28186394, 34.41409924]
      }
    },
    {
      "type": "Feature",
      "id": "W8VZyZkVKUZTPC7c_jewAHe8Hbo=",
      "properties": {
        "ref": "1kJj3oGFKzZeOYOCghPwzL",
        "amenity": "vending_machine",
        "vending": "coffee",
        "addr:state": "GA",
        "addr:country": "US",
        "name": "Tanner Medical Center - Villa Rica",
        "opening_hours": "24/7",
        "brand": "Smart Caf\u00e9",
        "brand:wikidata": "Q117448428",
        "addr:housenumber": "601",
        "addr:street": "Dallas Highway",
        "addr:city": "Villa Rica",
        "addr:postcode": "30180"
      },
      "geometry": {
        "type": "Point",
        "coordinates": [-84.91612457, 33.74446362]
      }
    },
    {
      "type": "Feature",
      "id": "prNIkmXk7-wl0TmZ3J1PwR2KIb8=",
      "properties": {
        "ref": "5XzrGtmR69WFULY3SiEBmD",
        "amenity": "vending_machine",
        "vending": "coffee",
        "addr:state": "GA",
        "addr:country": "US",
        "name": "Fairfield Clubhouse",
        "opening_hours": "Mo-Th 11:00-21:00; Fr-Sa 11:00-22:00; Su 11:00-21:00",
        "brand": "Smart Caf\u00e9",
        "brand:wikidata": "Q117448428",
        "addr:housenumber": "7500",
        "addr:street": "Monticello Drive",
        "addr:city": "Villa Rica",
        "addr:postcode": "30180"
      },
      "geometry": {
        "type": "Point",
        "coordinates": [-84.92547371, 33.64387573]
      }
    },
    {
      "type": "Feature",
      "id": "Sc3zdnYVUOhoyE8OsBv3zJlWX44=",
      "properties": {
        "ref": "1EiXKCP9TMlzOaMseyKDzV",
        "amenity": "vending_machine",
        "vending": "coffee",
        "addr:state": "DE",
        "addr:country": "US",
        "name": "Subway",
        "opening_hours": "Mo-Fr 08:30-16:30",
        "brand": "Smart Caf\u00e9",
        "brand:wikidata": "Q117448428",
        "addr:housenumber": "500",
        "addr:street": "North King Street",
        "addr:city": "Wilmington",
        "addr:postcode": "19801"
      },
      "geometry": {
        "type": "Point",
        "coordinates": [-75.54835177, 39.74077748]
      }
    },
    {
      "type": "Feature",
      "id": "Yz-PghDoM3Z6_E3ZhvP--jgcHM8=",
      "properties": {
        "ref": "1z8m0UBFpjzcHCqcNQNaq6",
        "amenity": "vending_machine",
        "vending": "coffee",
        "addr:state": "CO",
        "addr:country": "US",
        "name": "Robo Cafe #4284",
        "opening_hours": "06:00-23:00",
        "brand": "Smart Caf\u00e9",
        "brand:wikidata": "Q117448428",
        "addr:housenumber": "440",
        "addr:street": "Wadsworth Boulevard",
        "addr:city": "Lakewood",
        "addr:postcode": "80226"
      },
      "geometry": {
        "type": "Point",
        "coordinates": [-105.0801334, 39.72237426]
      }
    },
    {
      "type": "Feature",
      "id": "nPtIRbfIl_kAlmtxQ-h8ce0zuic=",
      "properties": {
        "ref": "BdNpTJhhW4A6MO6Qa8uCM",
        "amenity": "vending_machine",
        "vending": "coffee",
        "addr:state": "GA",
        "addr:country": "US",
        "name": "Pilot Travel Center",
        "opening_hours": "24/7",
        "brand": "Smart Caf\u00e9",
        "brand:wikidata": "Q117448428",
        "addr:housenumber": "491",
        "addr:street": "Saint Mary's Road Street",
        "addr:city": "Mary's",
        "addr:postcode": "31558"
      },
      "geometry": { "type": "Point", "coordinates": [-81.64873433, 30.7604951] }
    },
    {
      "type": "Feature",
      "id": "5KG1vY6LlUJBjDkv3i6RkolgCJc=",
      "properties": {
        "ref": "2tTIN0apNLCcLTJBLfgrhY",
        "amenity": "vending_machine",
        "vending": "coffee",
        "addr:state": "ID",
        "addr:country": "US",
        "name": "Holiday Inn",
        "opening_hours": "24/7",
        "brand": "Smart Caf\u00e9",
        "brand:wikidata": "Q117448428",
        "addr:housenumber": "16245",
        "addr:street": "North Merchant Way",
        "addr:city": "Nampa",
        "addr:postcode": "83687"
      },
      "geometry": {
        "type": "Point",
        "coordinates": [-116.5937967, 43.60956559]
      }
    },
    {
      "type": "Feature",
      "id": "4mrmFniDcUInw0eUPT5g921GyhE=",
      "properties": {
        "ref": "1lGjLDnvFOzNT9euJYV71e",
        "amenity": "vending_machine",
        "vending": "coffee",
        "addr:state": "GA",
        "addr:country": "US",
        "name": "Tanner Medical Center - Carrollton",
        "opening_hours": "24/7",
        "brand": "Smart Caf\u00e9",
        "brand:wikidata": "Q117448428",
        "addr:housenumber": "705",
        "addr:street": "Dixie Street",
        "addr:city": "Carrollton",
        "addr:postcode": "30117"
      },
      "geometry": {
        "type": "Point",
        "coordinates": [-85.07447624, 33.56966554]
      }
    },
    {
      "type": "Feature",
      "id": "No3Wsn2Bh_0LbzOkRIOi0iudFdU=",
      "properties": {
        "ref": "OUCA5incIGJmgxlk5V7ZW",
        "amenity": "vending_machine",
        "vending": "coffee",
        "addr:state": "TX",
        "addr:country": "US",
        "name": "Methodist Willowbrook Hospital",
        "opening_hours": "24/7",
        "brand": "Smart Caf\u00e9",
        "brand:wikidata": "Q117448428",
        "addr:housenumber": "18220",
        "addr:street": "State Highway 249",
        "addr:city": "Houston",
        "addr:postcode": "77070"
      },
      "geometry": { "type": "Point", "coordinates": [-95.55076787, 29.9673035] }
    }
  ]
}
