{
  "type": "FeatureCollection",
  "dataset_attributes": {
    "@spider": "quiznos",
    "spider:collection_time": "2024-04-14T08:28:21.082686",
    "cleaning": { "version": "0.2.0", "datetime": "2024-04-17" }
  },
  "features": [
    {
      "type": "Feature",
      "id": "O6mSMdocaDG0mPb9zE04_fXzYzg=",
      "properties": {
        "ref": "4016",
        "amenity": "fast_food",
        "cuisine": "sandwich",
        "takeaway": "yes",
        "addr:city": "Chicago",
        "addr:state": "IL",
        "addr:postcode": "60610",
        "name": "Quiznos",
        "phone": "+1 312-642-3355",
        "website": "https://order.quiznos.com/menu/1212-n-lasalle-2?handoff=delivery",
        "opening_hours": "Mo-Fr 10:00-21:00; Sa 11:00-21:00; Su 11:00-20:00",
        "brand": "Quiznos",
        "brand:wikidata": "Q1936229",
        "addr:housenumber": "164",
        "addr:street": "West Division Street",
        "branch": "1212 North LaSalle"
      },
      "geometry": {
        "type": "Point",
        "coordinates": [-87.633669383024, 41.903868042386]
      }
    },
    {
      "type": "Feature",
      "id": "mfr5NtgDrj9pZ9r_5R9dFu-Q6tc=",
      "properties": {
        "ref": "648",
        "amenity": "fast_food",
        "cuisine": "sandwich",
        "takeaway": "yes",
        "addr:city": "Torrance",
        "addr:state": "CA",
        "addr:postcode": "90501",
        "name": "Quiznos",
        "phone": "+1 310-320-0939",
        "website": "https://order.quiznos.com/menu/190th-normandie-2?handoff=delivery",
        "opening_hours": "Mo-Fr 10:00-20:00; Sa 10:00-16:00; Su 11:00-16:00",
        "brand": "Quiznos",
        "brand:wikidata": "Q1936229",
        "addr:housenumber": "1441",
        "addr:street": "West Knox Street",
        "branch": "190th and Normandie"
      },
      "geometry": { "type": "Point", "coordinates": [-118.30123, 33.85404] }
    },
    {
      "type": "Feature",
      "id": "FiY1lk7tp8boas6wjZcwexKue-Y=",
      "properties": {
        "ref": "10810",
        "amenity": "fast_food",
        "cuisine": "sandwich",
        "takeaway": "yes",
        "addr:city": "Denver",
        "addr:state": "CO",
        "addr:postcode": "80239",
        "name": "Quiznos",
        "phone": "+1 303-362-1088",
        "website": "https://order.quiznos.com/menu/45th-peoria-street-2?handoff=delivery",
        "opening_hours": "Mo-Fr 10:00-19:00; Sa 10:30-17:00",
        "brand": "Quiznos",
        "brand:wikidata": "Q1936229",
        "addr:housenumber": "4505",
        "addr:street": "Peoria Street",
        "addr:unit": "102",
        "branch": "45th and Peoria Street"
      },
      "geometry": { "type": "Point", "coordinates": [-104.84725, 39.778179] }
    },
    {
      "type": "Feature",
      "id": "6tAl1vxG4q0cO5vQnbIcBtauHsI=",
      "properties": {
        "ref": "2440",
        "amenity": "fast_food",
        "cuisine": "sandwich",
        "takeaway": "yes",
        "addr:city": "Vancouver",
        "addr:state": "WA",
        "addr:postcode": "98665",
        "name": "Quiznos",
        "phone": "+1 360-546-5396",
        "website": "https://order.quiznos.com/menu/99-street-crossing-2?handoff=delivery",
        "opening_hours": "10:00-20:00",
        "brand": "Quiznos",
        "brand:wikidata": "Q1936229",
        "addr:housenumber": "1217",
        "addr:street": "Northeast 99th Street",
        "addr:unit": "103",
        "branch": "99 Street Crossing"
      },
      "geometry": {
        "type": "Point",
        "coordinates": [-122.65928588773, 45.692987226532]
      }
    },
    {
      "type": "Feature",
      "id": "YA1QVUsOOPQcdVkNdspC8bMljx8=",
      "properties": {
        "ref": "14987",
        "addr:suite": "Bldg 752",
        "amenity": "fast_food",
        "cuisine": "sandwich",
        "takeaway": "yes",
        "addr:city": "Schofield Barracks",
        "addr:state": "HI",
        "addr:postcode": "96857",
        "name": "Quiznos",
        "phone": "+1 808-861-5403",
        "website": "https://order.quiznos.com/menu/aafes-schofield-barracks-bldg-752-2?handoff=delivery",
        "opening_hours": "Mo-Fr 08:00-19:00; Sa 10:30-16:00",
        "brand": "Quiznos",
        "brand:wikidata": "Q1936229",
        "addr:housenumber": "1",
        "addr:street": "Schofield Barracks",
        "branch": "AAFES - Schofield Barracks, Building 752"
      },
      "geometry": { "type": "Point", "coordinates": [-158.06535, 21.50139] }
    },
    {
      "type": "Feature",
      "id": "h0n9T9EArviQbnS9Y2K0xwt_AVE=",
      "properties": {
        "ref": "5278",
        "amenity": "fast_food",
        "cuisine": "sandwich",
        "takeaway": "yes",
        "addr:city": "Lorain",
        "addr:state": "OH",
        "addr:postcode": "44053",
        "name": "Quiznos",
        "phone": "+1 440-282-3382",
        "website": "https://order.quiznos.com/menu/amherst-4?handoff=delivery",
        "opening_hours": "Mo-Sa 10:00-19:00; Su 11:00-18:00",
        "brand": "Quiznos",
        "brand:wikidata": "Q1936229",
        "addr:housenumber": "1980",
        "addr:street": "Cooper Foster Park Road West",
        "branch": "Amherst"
      },
      "geometry": { "type": "Point", "coordinates": [-82.20151, 41.41855] }
    },
    {
      "type": "Feature",
      "id": "-W6YNXvFJzyVc1e9Fp-3TBeTKw0=",
      "properties": {
        "ref": "14811",
        "amenity": "fast_food",
        "cuisine": "sandwich",
        "takeaway": "yes",
        "addr:city": "Fremont",
        "addr:state": "CA",
        "addr:postcode": "94538",
        "name": "Quiznos",
        "phone": "+1 510-991-6732",
        "website": "https://order.quiznos.com/menu/auto-mall-2?handoff=delivery",
        "opening_hours": "Mo-Fr 10:00-19:00; Sa 10:00-17:00; Su 11:00-16:00",
        "brand": "Quiznos",
        "brand:wikidata": "Q1936229",
        "addr:housenumber": "43937",
        "addr:street": "Hugo Terrace",
        "branch": "Auto Mall"
      },
      "geometry": { "type": "Point", "coordinates": [-121.947722, 37.511503] }
    },
    {
      "type": "Feature",
      "id": "_fDYqcY5rhLjZi7nbWOfUZmfPzA=",
      "properties": {
        "ref": "576",
        "amenity": "fast_food",
        "cuisine": "sandwich",
        "takeaway": "yes",
        "addr:city": "Salt Lake City",
        "addr:state": "UT",
        "addr:postcode": "84104",
        "name": "Quiznos",
        "phone": "+1 801-973-6300",
        "website": "https://order.quiznos.com/menu/bangerter-pointe-2?handoff=delivery",
        "opening_hours": "Mo-Fr 07:00-18:00",
        "brand": "Quiznos",
        "brand:wikidata": "Q1936229",
        "addr:housenumber": "1775",
        "addr:street": "South 4130 West",
        "addr:unit": "D",
        "branch": "Bangerter Pointe"
      },
      "geometry": {
        "type": "Point",
        "coordinates": [-111.99004334894, 40.729691775611]
      }
    },
    {
      "type": "Feature",
      "id": "VxltmAlJThqEO_6HF3l84RV4eUA=",
      "properties": {
        "ref": "6170",
        "amenity": "fast_food",
        "cuisine": "sandwich",
        "takeaway": "yes",
        "addr:city": "Marrero",
        "addr:state": "LA",
        "addr:postcode": "70072",
        "name": "Quiznos",
        "phone": "+1 504-340-0887",
        "website": "https://order.quiznos.com/menu/barataria-2?handoff=delivery",
        "opening_hours": "Mo-Sa 10:00-21:00; Su 11:00-20:00",
        "brand": "Quiznos",
        "brand:wikidata": "Q1936229",
        "addr:housenumber": "1855",
        "addr:street": "Barataria Boulevard",
        "addr:unit": "C1",
        "branch": "Barataria"
      },
      "geometry": { "type": "Point", "coordinates": [-90.09864, 29.87721] }
    },
    {
      "type": "Feature",
      "id": "zl_X0kFhMxxRUyzKV59rHlRm4v4=",
      "properties": {
        "ref": "298",
        "amenity": "fast_food",
        "cuisine": "sandwich",
        "takeaway": "yes",
        "addr:city": "Cedar Rapids",
        "addr:state": "IA",
        "addr:postcode": "52402",
        "name": "Quiznos",
        "phone": "+1 319-294-8524",
        "website": "https://order.quiznos.com/menu/blairs-place-shopping-center-2?handoff=delivery",
        "opening_hours": "Mo-Sa 10:00-21:00; Su 11:00-20:00",
        "brand": "Quiznos",
        "brand:wikidata": "Q1936229",
        "addr:housenumber": "600",
        "addr:street": "Blairs Ferry Road Northeast",
        "addr:unit": "E",
        "branch": "Blairs Place Shopping Center"
      },
      "geometry": { "type": "Point", "coordinates": [-91.64308, 42.03491] }
    },
    {
      "type": "Feature",
      "id": "SCtFxeYjHYtTRmbzABaoparU35I=",
      "properties": {
        "ref": "14294",
        "amenity": "fast_food",
        "cuisine": "sandwich",
        "takeaway": "yes",
        "addr:city": "Miami",
        "addr:state": "FL",
        "addr:postcode": "33155",
        "name": "Quiznos",
        "phone": "+1 305-661-2890",
        "website": "https://order.quiznos.com/menu/bms-bird-east-2?handoff=delivery",
        "opening_hours": "Mo-Sa 10:00-21:00; Su 11:00-19:00",
        "brand": "Quiznos",
        "brand:wikidata": "Q1936229",
        "addr:housenumber": "7100",
        "addr:street": "Southwest Bird Road",
        "branch": "BMS Bird East"
      },
      "geometry": { "type": "Point", "coordinates": [-80.30948, 25.73296] }
    },
    {
      "type": "Feature",
      "id": "R6yVtdocKzWwRF2sqoi7835e7W4=",
      "properties": {
        "ref": "14421",
        "amenity": "fast_food",
        "cuisine": "sandwich",
        "takeaway": "yes",
        "addr:city": "Tomah",
        "addr:state": "WI",
        "addr:postcode": "54660",
        "name": "Quiznos",
        "phone": "+1 608-372-4677",
        "website": "https://order.quiznos.com/menu/bp-highway-12-16-2?handoff=delivery",
        "opening_hours": "Mo-Sa 10:00-16:00; Su 10:00-14:00",
        "brand": "Quiznos",
        "brand:wikidata": "Q1936229",
        "addr:housenumber": "1030",
        "addr:street": "East CLifton Street",
        "branch": "BP - Highway 12 and 16"
      },
      "geometry": { "type": "Point", "coordinates": [-90.49898, 43.97233] }
    },
    {
      "type": "Feature",
      "id": "xK7KLvV-bofDv9EyckqMhOML6zY=",
      "properties": {
        "ref": "11125",
        "amenity": "fast_food",
        "cuisine": "sandwich",
        "takeaway": "yes",
        "addr:city": "Portland",
        "addr:state": "TN",
        "addr:postcode": "37148",
        "name": "Quiznos",
        "phone": "+1 615-325-1159",
        "opening_hours": "Mo-Sa 10:00-21:00; Su 11:00-20:00",
        "brand": "Quiznos",
        "brand:wikidata": "Q1936229",
        "addr:housenumber": "5500",
        "addr:street": "Highway 31 West",
        "branch": "BP - Highway 31 West"
      },
      "geometry": { "type": "Point", "coordinates": [-86.59207, 36.59101] }
    },
    {
      "type": "Feature",
      "id": "5pwtUwSTUptgz3bjuaLHSeMLlFA=",
      "properties": {
        "ref": "6620",
        "amenity": "fast_food",
        "cuisine": "sandwich",
        "takeaway": "yes",
        "addr:city": "Metropolis",
        "addr:state": "IL",
        "addr:postcode": "62960",
        "name": "Quiznos",
        "phone": "+1 618-524-5907",
        "website": "https://order.quiznos.com/menu/bp-highway-45-dever-road-2?handoff=delivery",
        "opening_hours": "Mo-Sa 10:00-21:00; Su 11:00-20:00",
        "brand": "Quiznos",
        "brand:wikidata": "Q1936229",
        "addr:housenumber": "2105",
        "addr:street": "East 5th Street",
        "branch": "BP - Highway 45 and Dever Road"
      },
      "geometry": { "type": "Point", "coordinates": [-88.68964, 37.16156] }
    },
    {
      "type": "Feature",
      "id": "lSqcr-cFVehu9R1Ov5bpscto4Yg=",
      "properties": {
        "ref": "14245",
        "addr:suite": "W Washington/Vilas Avenue",
        "amenity": "fast_food",
        "cuisine": "sandwich",
        "takeaway": "yes",
        "addr:city": "Madison",
        "addr:state": "WI",
        "addr:postcode": "53715",
        "name": "Quiznos",
        "phone": "+1 608-268-1010",
        "website": "https://order.quiznos.com/menu/bp-park-street-madison-2?handoff=delivery",
        "opening_hours": "Mo-Fr 10:00-18:00; Sa-Su 11:00-15:00",
        "brand": "Quiznos",
        "brand:wikidata": "Q1936229",
        "addr:housenumber": "318",
        "addr:street": "South Park Street",
        "branch": "BP - Park Street Madison"
      },
      "geometry": { "type": "Point", "coordinates": [-89.40083, 43.06433] }
    },
    {
      "type": "Feature",
      "id": "xaJPpLV95dPtXfas2ZL19xaA_KM=",
      "properties": {
        "ref": "1994",
        "amenity": "fast_food",
        "cuisine": "sandwich",
        "takeaway": "yes",
        "addr:city": "Houston",
        "addr:state": "TX",
        "addr:postcode": "77025",
        "name": "Quiznos",
        "phone": "+1 832-778-8014",
        "website": "https://order.quiznos.com/menu/braesmain-2?handoff=delivery",
        "opening_hours": "Mo-Sa 09:30-21:00; Su 11:00-20:00",
        "brand": "Quiznos",
        "brand:wikidata": "Q1936229",
        "addr:housenumber": "8502",
        "addr:street": "Main Street",
        "addr:unit": "A",
        "branch": "Braesmain"
      },
      "geometry": {
        "type": "Point",
        "coordinates": [-95.417449589709, 29.690584356783]
      }
    },
    {
      "type": "Feature",
      "id": "rC6pAFMlFaG44PTFzTG5l0E0DWA=",
      "properties": {
        "ref": "5538",
        "amenity": "fast_food",
        "cuisine": "sandwich",
        "takeaway": "yes",
        "addr:city": "Phoenix",
        "addr:state": "AZ",
        "addr:postcode": "85040",
        "name": "Quiznos",
        "phone": "+1 602-431-5754",
        "website": "https://order.quiznos.com/menu/broadway-commerce-park-2?handoff=delivery",
        "opening_hours": "Mo-Fr 09:00-18:00; Sa 10:00-15:00",
        "brand": "Quiznos",
        "brand:wikidata": "Q1936229",
        "addr:housenumber": "4001",
        "addr:street": "East Broadway Road",
        "addr:unit": "B12A",
        "branch": "Broadway Commerce Park"
      },
      "geometry": {
        "type": "Point",
        "coordinates": [-111.99527261378, 33.407192250091]
      }
    },
    {
      "type": "Feature",
      "id": "rMa9As9QYgIr9GltjVGvlv65oJw=",
      "properties": {
        "ref": "4960",
        "amenity": "fast_food",
        "cuisine": "sandwich",
        "takeaway": "yes",
        "addr:city": "San Antonio",
        "addr:state": "TX",
        "addr:postcode": "78229",
        "name": "Quiznos",
        "phone": "+1 210-308-5525",
        "website": "https://order.quiznos.com/menu/callaghan-road-center-2?handoff=delivery",
        "opening_hours": "Mo-Sa 10:00-21:00; Su 11:00-20:00",
        "brand": "Quiznos",
        "brand:wikidata": "Q1936229",
        "addr:housenumber": "6408",
        "addr:street": "Callaghan Road",
        "branch": "Callaghan Road Center"
      },
      "geometry": {
        "type": "Point",
        "coordinates": [-98.572509936515, 29.491187290043]
      }
    },
    {
      "type": "Feature",
      "id": "gEt3gMIu50lZygQ7q0uFaOpJN_U=",
      "properties": {
        "ref": "2469",
        "amenity": "fast_food",
        "cuisine": "sandwich",
        "takeaway": "yes",
        "addr:city": "Plainfield",
        "addr:state": "IN",
        "addr:postcode": "46168",
        "name": "Quiznos",
        "phone": "+1 317-838-7433",
        "website": "https://order.quiznos.com/menu/cambridge-place-shopping-center-2?handoff=delivery",
        "opening_hours": "10:00-18:00",
        "brand": "Quiznos",
        "brand:wikidata": "Q1936229",
        "addr:housenumber": "5971",
        "addr:street": "Cambridge Way",
        "branch": "Cambridge Place Shopping Center"
      },
      "geometry": { "type": "Point", "coordinates": [-86.36969, 39.67721] }
    },
    {
      "type": "Feature",
      "id": "5tD77XjwGSh1WftKcQVvVPqs3U4=",
      "properties": {
        "ref": "14615",
        "amenity": "fast_food",
        "cuisine": "sandwich",
        "takeaway": "yes",
        "addr:city": "Camp Douglas",
        "addr:state": "WI",
        "addr:postcode": "54618",
        "name": "Quiznos",
        "phone": "+1 608-427-3115",
        "opening_hours": "Mo-Sa 07:00-21:00; Su 08:00-20:00",
        "brand": "Quiznos",
        "brand:wikidata": "Q1936229",
        "addr:housenumber": "200",
        "addr:street": "Highway 12/16",
        "branch": "Camp Douglas"
      },
      "geometry": { "type": "Point", "coordinates": [-90.36889, 43.99144] }
    },
    {
      "type": "Feature",
      "id": "B7DK9YDW05WuLg2_G59zTI9Ips8=",
      "properties": {
        "ref": "5011",
        "amenity": "fast_food",
        "cuisine": "sandwich",
        "takeaway": "yes",
        "addr:city": "Rochester Hills",
        "addr:state": "MI",
        "addr:postcode": "48309",
        "name": "Quiznos",
        "phone": "+1 248-853-4268",
        "website": "https://order.quiznos.com/menu/campus-at-auburn-crooks-2?handoff=delivery",
        "opening_hours": "Mo-Fr 10:00-20:00; Sa 11:00-18:00; Su 11:00-17:00",
        "brand": "Quiznos",
        "brand:wikidata": "Q1936229",
        "addr:housenumber": "2933",
        "addr:street": "Crooks Road",
        "branch": "Campus at Auburn and Crooks"
      },
      "geometry": {
        "type": "Point",
        "coordinates": [-83.170568155592, 42.636957911402]
      }
    },
    {
      "type": "Feature",
      "id": "KgwwEztBkQe2O09AZiTbEfoETYc=",
      "properties": {
        "ref": "4148",
        "addr:suite": "Suite 2",
        "amenity": "fast_food",
        "cuisine": "sandwich",
        "takeaway": "yes",
        "addr:city": "Goodlettsville",
        "addr:state": "TN",
        "addr:postcode": "37072",
        "name": "Quiznos",
        "phone": "+1 615-705-1198",
        "opening_hours": "Mo-Fr 10:30-19:30; Sa 11:00-17:00",
        "brand": "Quiznos",
        "brand:wikidata": "Q1936229",
        "addr:housenumber": "919",
        "addr:street": "Conference Drive",
        "branch": "Carousel Plaza"
      },
      "geometry": { "type": "Point", "coordinates": [-86.70103, 36.32352] }
    },
    {
      "type": "Feature",
      "id": "xrUWvtpjR7NXBu1biSY85CK-ozc=",
      "properties": {
        "ref": "4372",
        "amenity": "fast_food",
        "cuisine": "sandwich",
        "takeaway": "yes",
        "addr:city": "Centralia",
        "addr:state": "WA",
        "addr:postcode": "98531",
        "name": "Quiznos",
        "phone": "+1 360-330-5100",
        "website": "https://order.quiznos.com/menu/central-timeia-factory-outlets-2?handoff=delivery",
        "opening_hours": "10:00-20:00",
        "brand": "Quiznos",
        "brand:wikidata": "Q1936229",
        "addr:housenumber": "136",
        "addr:street": "West High Street",
        "branch": "Centralia Factory Outlets"
      },
      "geometry": {
        "type": "Point",
        "coordinates": [-122.9748771484, 46.725374814593]
      }
    },
    {
      "type": "Feature",
      "id": "s3b22YlKfExdZaYIzCv51FmTwKE=",
      "properties": {
        "ref": "9814",
        "amenity": "fast_food",
        "cuisine": "sandwich",
        "takeaway": "yes",
        "addr:city": "Yakima",
        "addr:state": "WA",
        "addr:postcode": "98908",
        "name": "Quiznos",
        "phone": "+1 509-469-7111",
        "website": "https://order.quiznos.com/menu/chalet-place-shopping-center-2?handoff=delivery",
        "opening_hours": "Mo-Sa 10:00-21:00; Su 11:00-20:00",
        "brand": "Quiznos",
        "brand:wikidata": "Q1936229",
        "addr:housenumber": "5603",
        "addr:street": "Summitview Avenue",
        "addr:unit": "102",
        "branch": "Chalet Place Shopping Center"
      },
      "geometry": {
        "type": "Point",
        "coordinates": [-120.5831551, 46.59990836]
      }
    },
    {
      "type": "Feature",
      "id": "itIvITDqAL1V-T8AAAhCOg95blw=",
      "properties": {
        "ref": "3813",
        "amenity": "fast_food",
        "cuisine": "sandwich",
        "takeaway": "yes",
        "addr:city": "New Albany",
        "addr:state": "IN",
        "addr:postcode": "47150",
        "name": "Quiznos",
        "phone": "+1 812-981-7849",
        "website": "https://order.quiznos.com/menu/charlestown-road-2?handoff=delivery",
        "opening_hours": "Mo-Sa 10:00-21:00; Su 11:00-20:00",
        "brand": "Quiznos",
        "brand:wikidata": "Q1936229",
        "addr:housenumber": "4212",
        "addr:street": "Charlestown Road",
        "addr:unit": "1",
        "branch": "Charlestown Road"
      },
      "geometry": { "type": "Point", "coordinates": [-85.79423, 38.35212] }
    },
    {
      "type": "Feature",
      "id": "3nZYlkKXyr6dnYfgqXaJAcFGEQk=",
      "properties": {
        "ref": "13805",
        "amenity": "fast_food",
        "cuisine": "sandwich",
        "takeaway": "yes",
        "addr:city": "Chaska",
        "addr:state": "MN",
        "addr:postcode": "55318",
        "name": "Quiznos",
        "phone": "+1 952-448-7827",
        "website": "https://order.quiznos.com/menu/chaska-commons-2?handoff=delivery",
        "opening_hours": "Mo-Sa 10:00-21:00; Su 11:00-20:00",
        "brand": "Quiznos",
        "brand:wikidata": "Q1936229",
        "addr:housenumber": "232",
        "addr:street": "Pioneer Trail",
        "branch": "Chaska Commons"
      },
      "geometry": {
        "type": "Point",
        "coordinates": [-93.600987862732, 44.82851106666]
      }
    },
    {
      "type": "Feature",
      "id": "TQsCfBc2P4zXOg4WE-QlWWSV-mI=",
      "properties": {
        "ref": "7008",
        "amenity": "fast_food",
        "cuisine": "sandwich",
        "takeaway": "yes",
        "addr:city": "Belmont",
        "addr:state": "OH",
        "addr:postcode": "43718",
        "name": "Quiznos",
        "phone": "+1 740-782-0015",
        "website": "https://order.quiznos.com/menu/marathon-bel-morr-market-2?handoff=delivery",
        "opening_hours": "Mo-Fr 10:00-20:00",
        "brand": "Quiznos",
        "brand:wikidata": "Q1936229",
        "addr:housenumber": "66440",
        "addr:street": "Belmont Morristown Road",
        "branch": "Marathon - Bel-Morr Market"
      },
      "geometry": { "type": "Point", "coordinates": [-81.05336, 40.06081] }
    },
    {
      "type": "Feature",
      "id": "Ov02gUgmZrb8VdOuYx7olgeUxLw=",
      "properties": {
        "ref": "13198",
        "amenity": "fast_food",
        "cuisine": "sandwich",
        "takeaway": "yes",
        "addr:city": "Houston",
        "addr:state": "TX",
        "addr:postcode": "77041",
        "name": "Quiznos",
        "phone": "+1 713-937-6154",
        "opening_hours": "Mo-We 10:00-18:00; Th 10:00-06:00; Fr-Sa 10:00-18:00",
        "brand": "Quiznos",
        "brand:wikidata": "Q1936229",
        "addr:housenumber": "10920",
        "addr:street": "West Little York Road",
        "branch": "Chevron - Fuel Depot"
      },
      "geometry": { "type": "Point", "coordinates": [-95.56926, 29.8672] }
    },
    {
      "type": "Feature",
      "id": "5sMk2f_gujpZjcmwCCD_YhuBW24=",
      "properties": {
        "ref": "3741",
        "amenity": "fast_food",
        "cuisine": "sandwich",
        "takeaway": "yes",
        "addr:city": "Russellville",
        "addr:state": "AR",
        "addr:postcode": "72801",
        "name": "Quiznos",
        "phone": "+1 479-968-7827",
        "website": "https://order.quiznos.com/menu/city-mall-2?handoff=delivery",
        "opening_hours": "Mo-Sa 10:00-21:00; Su 11:00-20:00",
        "brand": "Quiznos",
        "brand:wikidata": "Q1936229",
        "addr:housenumber": "407",
        "addr:street": "North Arkansas Avenue",
        "addr:unit": "3",
        "branch": "City Mall"
      },
      "geometry": { "type": "Point", "coordinates": [-93.13363, 35.28133] }
    },
    {
      "type": "Feature",
      "id": "UP6-DId1rrz3B0r4W-CiI5qbjOk=",
      "properties": {
        "ref": "9124",
        "amenity": "fast_food",
        "cuisine": "sandwich",
        "takeaway": "yes",
        "addr:city": "Woodbury",
        "addr:state": "MN",
        "addr:postcode": "55129",
        "name": "Quiznos",
        "phone": "+1 651-738-1100",
        "website": "https://order.quiznos.com/menu/city-walk-2?handoff=delivery",
        "opening_hours": "Mo-Th 10:00-20:00; Fr-Sa 10:00-21:00; Su 10:00-20:00",
        "brand": "Quiznos",
        "brand:wikidata": "Q1936229",
        "addr:housenumber": "10075",
        "addr:street": "City Walk Drive",
        "addr:unit": "F",
        "branch": "City Walk"
      },
      "geometry": { "type": "Point", "coordinates": [-92.90249, 44.9429] }
    },
    {
      "type": "Feature",
      "id": "sIP66p1-RoLa33jezkjzKY7Zz6Q=",
      "properties": {
        "ref": "10924",
        "amenity": "fast_food",
        "cuisine": "sandwich",
        "takeaway": "yes",
        "addr:city": "Dodge City",
        "addr:state": "KS",
        "addr:postcode": "67801",
        "name": "Quiznos",
        "phone": "+1 620-338-8345",
        "website": "https://order.quiznos.com/menu/conoco-gary-avenue-hwy-50-2?handoff=delivery",
        "opening_hours": "Mo-Sa 10:00-21:00; Su 11:00-20:00",
        "brand": "Quiznos",
        "brand:wikidata": "Q1936229",
        "addr:housenumber": "2615",
        "addr:street": "Gary Avenue",
        "branch": "Conoco - Gary Avenue and Highway 50"
      },
      "geometry": { "type": "Point", "coordinates": [-100.0195, 37.77955] }
    },
    {
      "type": "Feature",
      "id": "Oao3nQPIi3_fK7w072Wue_9csWI=",
      "properties": {
        "ref": "14922",
        "amenity": "fast_food",
        "cuisine": "sandwich",
        "takeaway": "yes",
        "addr:city": "Conroe",
        "addr:state": "TX",
        "addr:postcode": "77304",
        "name": "Quiznos",
        "phone": "+1 936-703-5008",
        "opening_hours": "Mo-Fr 09:00-22:00; Sa 10:00-22:00; Su 11:00-22:00",
        "brand": "Quiznos",
        "brand:wikidata": "Q1936229",
        "addr:housenumber": "504",
        "addr:street": "Medical Center Boulevard",
        "branch": "Conroe Regional Medical Center"
      },
      "geometry": { "type": "Point", "coordinates": [-95.46741, 30.28504] }
    },
    {
      "type": "Feature",
      "id": "ZpmKW7QxEDJnKuxiHyCsf-ckDjc=",
      "properties": {
        "ref": "2839",
        "amenity": "fast_food",
        "cuisine": "sandwich",
        "takeaway": "yes",
        "addr:city": "San Clemente",
        "addr:state": "CA",
        "addr:postcode": "92673",
        "name": "Quiznos",
        "phone": "+1 949-218-1930",
        "website": "https://order.quiznos.com/menu/courtyards-at-talega-2?handoff=delivery",
        "opening_hours": "Mo-Fr 10:00-20:00; Sa 10:00-17:00; Su 10:00-16:00",
        "brand": "Quiznos",
        "brand:wikidata": "Q1936229",
        "addr:housenumber": "1001",
        "addr:street": "Avenida Pico",
        "addr:unit": "F",
        "branch": "Courtyards at Talega"
      },
      "geometry": { "type": "Point", "coordinates": [-117.60498, 33.45404] }
    },
    {
      "type": "Feature",
      "id": "-nJoyUF5-oA5ExiJ7T-tIB4SDBc=",
      "properties": {
        "ref": "15049",
        "addr:suite": "Suite D",
        "amenity": "fast_food",
        "cuisine": "sandwich",
        "takeaway": "yes",
        "addr:city": "Branson",
        "addr:state": "MO",
        "addr:postcode": "65616",
        "name": "Quiznos",
        "phone": "+1 417-231-4558",
        "opening_hours": "08:00-20:00",
        "brand": "Quiznos",
        "brand:wikidata": "Q1936229",
        "addr:housenumber": "225",
        "addr:street": "Cross Creek Boulevard",
        "branch": "Cross Creek Center"
      },
      "geometry": { "type": "Point", "coordinates": [-93.18827, 36.64341] }
    },
    {
      "type": "Feature",
      "id": "KWJtEcY-hVb-BCp1kCeeb6ptIHc=",
      "properties": {
        "ref": "4494",
        "amenity": "fast_food",
        "cuisine": "sandwich",
        "takeaway": "yes",
        "addr:city": "Orange",
        "addr:state": "CT",
        "addr:postcode": "06477",
        "name": "Quiznos",
        "phone": "+1 203-795-7000",
        "website": "https://order.quiznos.com/menu/crossroads-plaza-2?handoff=delivery",
        "opening_hours": "Mo-Sa 10:30-20:00; Su 11:00-19:00",
        "brand": "Quiznos",
        "brand:wikidata": "Q1936229",
        "addr:housenumber": "263",
        "addr:street": "Boston Post Road",
        "addr:unit": "2",
        "branch": "Crossroads Plaza"
      },
      "geometry": {
        "type": "Point",
        "coordinates": [-73.00096116786, 41.267229329184]
      }
    },
    {
      "type": "Feature",
      "id": "iucTltZwlf27Am6gah8Uug1Zsx8=",
      "properties": {
        "ref": "46",
        "amenity": "fast_food",
        "cuisine": "sandwich",
        "takeaway": "yes",
        "addr:city": "Denver",
        "addr:state": "CO",
        "addr:postcode": "80249",
        "name": "Quiznos",
        "phone": "+1 303-342-7396",
        "opening_hours": "Mo-Sa 10:00-21:00; Su 11:00-20:00",
        "brand": "Quiznos",
        "brand:wikidata": "Q1936229",
        "addr:housenumber": "8400",
        "addr:street": "Pena Boulevard",
        "branch": "DIA Concourse A"
      },
      "geometry": { "type": "Point", "coordinates": [-104.67415, 39.85323] }
    },
    {
      "type": "Feature",
      "id": "g1IaZJ_kSSvzKIZzGmaV69tbF0c=",
      "properties": {
        "ref": "2119",
        "amenity": "fast_food",
        "cuisine": "sandwich",
        "takeaway": "yes",
        "addr:city": "Jacksonville",
        "addr:state": "FL",
        "addr:postcode": "32202",
        "name": "Quiznos",
        "phone": "+1 904-798-8889",
        "website": "https://order.quiznos.com/menu/downtown-2?handoff=delivery",
        "opening_hours": "Mo-Th 09:00-19:00; Fr 09:00-17:00",
        "brand": "Quiznos",
        "brand:wikidata": "Q1936229",
        "addr:housenumber": "224",
        "addr:street": "North Hogan Street",
        "branch": "Downtown"
      },
      "geometry": {
        "type": "Point",
        "coordinates": [-81.660112659015, 30.328561546488]
      }
    },
    {
      "type": "Feature",
      "id": "R6rKOVjftg5zgFB7TU_h6MqgoMM=",
      "properties": {
        "ref": "3972",
        "amenity": "fast_food",
        "cuisine": "sandwich",
        "takeaway": "yes",
        "addr:city": "Dupont",
        "addr:state": "WA",
        "addr:postcode": "98327",
        "name": "Quiznos",
        "phone": "+1 253-964-4700",
        "website": "https://order.quiznos.com/menu/dupont-station-2?handoff=delivery",
        "opening_hours": "Mo-Fr 10:00-19:30; Sa-Su 11:00-17:30",
        "brand": "Quiznos",
        "brand:wikidata": "Q1936229",
        "addr:housenumber": "1520",
        "addr:street": "Wilmington Drive",
        "addr:unit": "C2",
        "branch": "Dupont Station"
      },
      "geometry": { "type": "Point", "coordinates": [-122.64399, 47.09152] }
    },
    {
      "type": "Feature",
      "id": "OoZfHCdNxDLH2FGfjZD8iQDZNTE=",
      "properties": {
        "ref": "4376",
        "amenity": "fast_food",
        "cuisine": "sandwich",
        "takeaway": "yes",
        "addr:city": "Duvall",
        "addr:state": "WA",
        "addr:postcode": "98019",
        "name": "Quiznos",
        "phone": "+1 425-844-0755",
        "website": "https://order.quiznos.com/menu/duvall-safeway-plaza-2?handoff=delivery",
        "opening_hours": "10:00-20:00",
        "brand": "Quiznos",
        "brand:wikidata": "Q1936229",
        "addr:housenumber": "14110",
        "addr:street": "Main Street Northeast",
        "addr:unit": "C",
        "branch": "Duvall Safeway Plaza"
      },
      "geometry": { "type": "Point", "coordinates": [-121.98703, 47.72713] }
    },
    {
      "type": "Feature",
      "id": "gOB1txGLOBJnT74qpIItuabZAbI=",
      "properties": {
        "ref": "6608",
        "amenity": "fast_food",
        "cuisine": "sandwich",
        "takeaway": "yes",
        "addr:city": "Weatherford",
        "addr:state": "OK",
        "addr:postcode": "73096",
        "name": "Quiznos",
        "phone": "+1 580-772-7849",
        "website": "https://order.quiznos.com/menu/east-main-2?handoff=delivery",
        "opening_hours": "Mo-Sa 10:00-21:00; Su 11:00-20:00",
        "brand": "Quiznos",
        "brand:wikidata": "Q1936229",
        "addr:housenumber": "701",
        "addr:street": "East Main Street",
        "addr:unit": "A",
        "branch": "East Main"
      },
      "geometry": {
        "type": "Point",
        "coordinates": [-98.69953598382, 35.526027504045]
      }
    },
    {
      "type": "Feature",
      "id": "iy64wTRSblekfn_TmfdAv1r-EhE=",
      "properties": {
        "ref": "4892",
        "amenity": "fast_food",
        "cuisine": "sandwich",
        "takeaway": "yes",
        "addr:city": "Harahan",
        "addr:state": "LA",
        "addr:postcode": "70123",
        "name": "Quiznos",
        "phone": "+1 504-729-4111",
        "website": "https://order.quiznos.com/menu/elmwood-village-plaza-2?handoff=delivery",
        "opening_hours": "Mo-Sa 10:00-21:00; Su 11:00-20:00",
        "brand": "Quiznos",
        "brand:wikidata": "Q1936229",
        "addr:housenumber": "1130",
        "addr:street": "South Clearview Parkway",
        "addr:unit": "D",
        "branch": "Elmwood Village Plaza"
      },
      "geometry": {
        "type": "Point",
        "coordinates": [-90.183848327519, 29.959770846035]
      }
    },
    {
      "type": "Feature",
      "id": "dwJc8P4xGIkyWUiuU8ZEK_erKZw=",
      "properties": {
        "ref": "91",
        "amenity": "fast_food",
        "cuisine": "sandwich",
        "takeaway": "yes",
        "addr:city": "Raleigh",
        "addr:state": "NC",
        "addr:postcode": "27615",
        "name": "Quiznos",
        "phone": "+1 919-676-1909",
        "website": "https://order.quiznos.com/menu/falls-village-2?handoff=delivery",
        "opening_hours": "Mo-Sa 10:00-20:00; Su 11:00-20:00",
        "brand": "Quiznos",
        "brand:wikidata": "Q1936229",
        "addr:housenumber": "6605",
        "addr:street": "Falls of Neuse Road",
        "branch": "Falls Village"
      },
      "geometry": { "type": "Point", "coordinates": [-78.622443, 35.873111] }
    },
    {
      "type": "Feature",
      "id": "Vx9Skf6zyPxDAP8G1oDPVY_y580=",
      "properties": {
        "ref": "3621",
        "amenity": "fast_food",
        "cuisine": "sandwich",
        "takeaway": "yes",
        "addr:city": "Jamestown",
        "addr:state": "ND",
        "addr:postcode": "58401",
        "name": "Quiznos",
        "phone": "+1 701-251-9348",
        "website": "https://order.quiznos.com/menu/first-avenue-eighth-street-2?handoff=delivery",
        "opening_hours": "Mo-Sa 11:00-21:00; Su 11:00-20:00",
        "brand": "Quiznos",
        "brand:wikidata": "Q1936229",
        "addr:housenumber": "721",
        "addr:street": "1st Avenue South",
        "branch": "First Avenue and Eighth Street"
      },
      "geometry": {
        "type": "Point",
        "coordinates": [-98.708034259427, 46.901676424353]
      }
    },
    {
      "type": "Feature",
      "id": "3M6R4XBR9kqVqIGMev_9veczB-w=",
      "properties": {
        "ref": "13678",
        "amenity": "fast_food",
        "cuisine": "sandwich",
        "takeaway": "yes",
        "addr:city": "Sioux Falls",
        "addr:state": "SD",
        "addr:postcode": "57104",
        "name": "Quiznos",
        "phone": "+1 605-334-5550",
        "opening_hours": "Mo-Fr 10:30-19:00; Sa 11:00-15:00",
        "brand": "Quiznos",
        "brand:wikidata": "Q1936229",
        "addr:housenumber": "2505",
        "addr:street": "West Russell Street",
        "branch": "Food and Fuel"
      },
      "geometry": { "type": "Point", "coordinates": [-96.7595, 43.56416] }
    },
    {
      "type": "Feature",
      "id": "Jy5xUcPypOOgMagwoJ7HSPkIKXY=",
      "properties": {
        "ref": "12927",
        "amenity": "fast_food",
        "cuisine": "sandwich",
        "takeaway": "yes",
        "addr:city": "Fort Liberty",
        "addr:state": "NC",
        "addr:postcode": "28310",
        "name": "Quiznos",
        "phone": "+1 910-495-1471",
        "website": "https://order.quiznos.com/menu/fort-bragg-army-base-building-2?handoff=delivery",
        "opening_hours": "Mo-Fr 08:00-20:00; Sa-Su 11:00-16:00",
        "brand": "Quiznos",
        "brand:wikidata": "Q1936229",
        "addr:housenumber": "3587",
        "addr:street": "Butner Road",
        "branch": "Fort Liberty Army Base - Building A"
      },
      "geometry": { "type": "Point", "coordinates": [-79.01765, 35.15238] }
    },
    {
      "type": "Feature",
      "id": "0_viyCiNNPYJu6nS5KGUvRn1guQ=",
      "properties": {
        "ref": "11649",
        "addr:suite": "Ste 8630",
        "amenity": "fast_food",
        "cuisine": "sandwich",
        "takeaway": "yes",
        "addr:city": "Fort Myers",
        "addr:state": "FL",
        "addr:postcode": "33913",
        "name": "Quiznos",
        "phone": "+1 239-482-3507",
        "opening_hours": "09:00-18:00",
        "brand": "Quiznos",
        "brand:wikidata": "Q1936229",
        "addr:housenumber": "11000",
        "addr:street": "Terminal Axis Road",
        "branch": "Fort Myers Int'l Airport"
      },
      "geometry": { "type": "Point", "coordinates": [-81.75528, 26.53363] }
    },
    {
      "type": "Feature",
      "id": "YZLUj9FmUz7ROAP3-zAKo3_nXyU=",
      "properties": {
        "ref": "2152",
        "amenity": "fast_food",
        "cuisine": "sandwich",
        "takeaway": "yes",
        "addr:city": "Stafford",
        "addr:state": "TX",
        "addr:postcode": "77477",
        "name": "Quiznos",
        "phone": "+1 281-277-2444",
        "website": "https://order.quiznos.com/menu/fountains-2?handoff=delivery",
        "opening_hours": "Mo-Sa 10:00-21:00; Su 11:00-20:00",
        "brand": "Quiznos",
        "brand:wikidata": "Q1936229",
        "addr:housenumber": "11339",
        "addr:street": "Fountain Lake Drive",
        "branch": "Fountains"
      },
      "geometry": {
        "type": "Point",
        "coordinates": [-95.58464182683, 29.639228181149]
      }
    },
    {
      "type": "Feature",
      "id": "T-5Ajf962cRoO4vG_RQ_DJ6ydd0=",
      "properties": {
        "ref": "12951",
        "amenity": "fast_food",
        "cuisine": "sandwich",
        "takeaway": "yes",
        "addr:city": "Fowler",
        "addr:state": "CA",
        "addr:postcode": "93625",
        "name": "Quiznos",
        "phone": "+1 559-834-6284",
        "website": "https://order.quiznos.com/menu/fowler-crossroads-2?handoff=delivery",
        "opening_hours": "Mo-Sa 10:00-21:00; Su 11:00-20:00",
        "brand": "Quiznos",
        "brand:wikidata": "Q1936229",
        "addr:housenumber": "216",
        "addr:street": "West Merced Street",
        "addr:unit": "104",
        "branch": "Fowler Crossroads"
      },
      "geometry": { "type": "Point", "coordinates": [-119.68312, 36.62797] }
    },
    {
      "type": "Feature",
      "id": "gNaAG9-JDpMhShMc7D07NtEIku0=",
      "properties": {
        "ref": "14972",
        "amenity": "fast_food",
        "cuisine": "sandwich",
        "takeaway": "yes",
        "addr:city": "Port Orchard",
        "addr:state": "WA",
        "addr:postcode": "98366",
        "name": "Quiznos",
        "phone": "+1 360-874-9612",
        "website": "https://order.quiznos.com/menu/fred-meyer-sedgwick-road-2?handoff=delivery",
        "opening_hours": "Mo-Sa 10:00-21:00; Su 11:00-20:00",
        "brand": "Quiznos",
        "brand:wikidata": "Q1936229",
        "addr:housenumber": "1888",
        "addr:street": "Southeast Sedgwick Road",
        "addr:unit": "103",
        "branch": "Fred Meyer - Sedgwick Road"
      },
      "geometry": { "type": "Point", "coordinates": [-122.62926, 47.5046] }
    },
    {
      "type": "Feature",
      "id": "LMqDrB244jOi1Hb9IHgE593OG0M=",
      "properties": {
        "ref": "7063",
        "addr:suite": "Ste 240",
        "amenity": "fast_food",
        "cuisine": "sandwich",
        "takeaway": "yes",
        "addr:city": "Sacramento",
        "addr:state": "CA",
        "addr:postcode": "95841",
        "name": "Quiznos",
        "phone": "+1 916-334-0284",
        "website": "https://order.quiznos.com/menu/garfield-corner-2?handoff=delivery",
        "opening_hours": "Mo-Sa 10:00-21:00; Su 11:00-20:00",
        "brand": "Quiznos",
        "brand:wikidata": "Q1936229",
        "addr:housenumber": "6306",
        "addr:street": "Garfield Avenue",
        "branch": "Garfield Corner"
      },
      "geometry": { "type": "Point", "coordinates": [-121.3339, 38.68006] }
    },
    {
      "type": "Feature",
      "id": "WtKTC204qr77EpV94cVSVTLa0jI=",
      "properties": {
        "ref": "2915",
        "amenity": "fast_food",
        "cuisine": "sandwich",
        "takeaway": "yes",
        "addr:city": "Glendale",
        "addr:state": "AZ",
        "addr:postcode": "85305",
        "name": "Quiznos",
        "phone": "+1 623-772-0220",
        "website": "https://order.quiznos.com/menu/glendale-2?handoff=delivery",
        "opening_hours": "Mo-Sa 10:00-20:00; Su 11:00-20:00",
        "brand": "Quiznos",
        "brand:wikidata": "Q1936229",
        "addr:housenumber": "9230",
        "addr:street": "West Northern Avenue",
        "addr:unit": "107",
        "branch": "Glendale"
      },
      "geometry": {
        "type": "Point",
        "coordinates": [-112.25790889418, 33.551639915685]
      }
    },
    {
      "type": "Feature",
      "id": "PHWu1ujx_5ivcAuUWC1EZoWD0XM=",
      "properties": {
        "ref": "13117",
        "amenity": "fast_food",
        "cuisine": "sandwich",
        "takeaway": "yes",
        "addr:city": "Plano",
        "addr:state": "TX",
        "addr:postcode": "75023",
        "name": "Quiznos",
        "phone": "+1 972-575-8700",
        "website": "https://order.quiznos.com/menu/golden-plaza-2?handoff=delivery",
        "opening_hours": "Mo-Sa 10:00-17:00; Su 11:00-17:00",
        "brand": "Quiznos",
        "brand:wikidata": "Q1936229",
        "addr:housenumber": "280",
        "addr:street": "Legacy Parkway",
        "addr:unit": "200",
        "branch": "Golden Plaza"
      },
      "geometry": { "type": "Point", "coordinates": [-96.69806, 33.06752] }
    },
    {
      "type": "Feature",
      "id": "mHKbiKReypVMsMa7eFawpiGjHFA=",
      "properties": {
        "ref": "1612",
        "amenity": "fast_food",
        "cuisine": "sandwich",
        "takeaway": "yes",
        "addr:city": "Goldsboro",
        "addr:state": "NC",
        "addr:postcode": "27534",
        "name": "Quiznos",
        "phone": "+1 919-731-7315",
        "website": "https://order.quiznos.com/menu/goldsboro-2?handoff=delivery",
        "opening_hours": "Mo-Sa 10:00-20:00; Su 11:00-18:00",
        "brand": "Quiznos",
        "brand:wikidata": "Q1936229",
        "addr:housenumber": "1813",
        "addr:street": "Wayne Memorial Drive",
        "branch": "Goldsboro"
      },
      "geometry": { "type": "Point", "coordinates": [-77.97143, 35.39459] }
    },
    {
      "type": "Feature",
      "id": "qHH73FIrwip2kbKluMKz-C2Wqfw=",
      "properties": {
        "ref": "2362",
        "amenity": "fast_food",
        "cuisine": "sandwich",
        "takeaway": "yes",
        "addr:city": "Round Rock",
        "addr:state": "TX",
        "addr:postcode": "78664",
        "name": "Quiznos",
        "phone": "+1 512-248-2929",
        "website": "https://order.quiznos.com/menu/greenlawn-crossing-2?handoff=delivery",
        "opening_hours": "Mo-Sa 10:00-21:00",
        "brand": "Quiznos",
        "brand:wikidata": "Q1936229",
        "addr:housenumber": "603",
        "addr:street": "Louis Henna Boulevard",
        "addr:unit": "B120",
        "branch": "Greenlawn Crossing"
      },
      "geometry": {
        "type": "Point",
        "coordinates": [-97.660433118391, 30.482755836284]
      }
    },
    {
      "type": "Feature",
      "id": "k6f4c0xasEaEJy7TSW5mQU1liog=",
      "properties": {
        "ref": "1492",
        "amenity": "fast_food",
        "cuisine": "sandwich",
        "takeaway": "yes",
        "addr:city": "Hagerstown",
        "addr:state": "MD",
        "addr:postcode": "21740",
        "name": "Quiznos",
        "phone": "+1 301-665-1006",
        "website": "https://order.quiznos.com/menu/hagerstown-shopping-center-2?handoff=delivery",
        "opening_hours": "Mo-Sa 11:00-20:00",
        "brand": "Quiznos",
        "brand:wikidata": "Q1936229",
        "addr:housenumber": "55",
        "addr:street": "Eastern Boulevard North",
        "branch": "Hagerstown Shopping Center"
      },
      "geometry": { "type": "Point", "coordinates": [-77.69954, 39.63296] }
    },
    {
      "type": "Feature",
      "id": "NR0UfBFYVuw7x6ZKHf6GWwzae68=",
      "properties": {
        "ref": "14309",
        "amenity": "fast_food",
        "cuisine": "sandwich",
        "takeaway": "yes",
        "addr:city": "Richmond",
        "addr:state": "CA",
        "addr:postcode": "94804",
        "name": "Quiznos",
        "phone": "+1 510-620-1930",
        "website": "https://order.quiznos.com/menu/harbor-gate-2?handoff=delivery",
        "opening_hours": "Mo-Fr 10:00-19:00; Sa 10:00-16:00; Su 11:00-15:00",
        "brand": "Quiznos",
        "brand:wikidata": "Q1936229",
        "addr:housenumber": "2175",
        "addr:street": "Meeker Avenue",
        "branch": "Harbor Gate"
      },
      "geometry": {
        "type": "Point",
        "coordinates": [-122.34674373762, 37.919672645178]
      }
    },
    {
      "type": "Feature",
      "id": "_UNuKQ9Ooorkut4sqB7xhaKCYnA=",
      "properties": {
        "ref": "6500",
        "addr:suite": "Suite 106",
        "amenity": "fast_food",
        "cuisine": "sandwich",
        "takeaway": "yes",
        "addr:city": "Hastings",
        "addr:state": "NE",
        "addr:postcode": "68901",
        "name": "Quiznos",
        "phone": "+1 402-461-3800",
        "website": "https://order.quiznos.com/menu/hastings-2?handoff=delivery",
        "opening_hours": "Mo-Sa 10:00-21:00; Su 11:00-20:00",
        "brand": "Quiznos",
        "brand:wikidata": "Q1936229",
        "addr:housenumber": "320",
        "addr:street": "South Burlington Avenue",
        "branch": "Hastings"
      },
      "geometry": {
        "type": "Point",
        "coordinates": [-98.392385550528, 40.581309528081]
      }
    },
    {
      "type": "Feature",
      "id": "HnA4zr0ysig2CHfb0xn5f4aywpw=",
      "properties": {
        "ref": "7371",
        "amenity": "fast_food",
        "cuisine": "sandwich",
        "takeaway": "yes",
        "addr:city": "Hawthorne",
        "addr:state": "CA",
        "addr:postcode": "90250",
        "name": "Quiznos",
        "phone": "+1 323-779-9007",
        "website": "https://order.quiznos.com/menu/hawthorne-commercial-center-2?handoff=delivery",
        "opening_hours": "Mo-Sa 10:00-21:00; Su 11:00-20:00",
        "brand": "Quiznos",
        "brand:wikidata": "Q1936229",
        "addr:housenumber": "2909",
        "addr:street": "West 120th Street",
        "branch": "Hawthorne Commercial Center"
      },
      "geometry": {
        "type": "Point",
        "coordinates": [-118.32581698499, 33.92361960378]
      }
    },
    {
      "type": "Feature",
      "id": "8u3MmcZXAbVUaaVexM3ce0_riO0=",
      "properties": {
        "ref": "3623",
        "amenity": "fast_food",
        "cuisine": "sandwich",
        "takeaway": "yes",
        "addr:city": "Mitchell",
        "addr:state": "SD",
        "addr:postcode": "57301",
        "name": "Quiznos",
        "phone": "+1 605-995-1010",
        "website": "https://order.quiznos.com/menu/highland-mall-2?handoff=delivery",
        "opening_hours": "Mo-Sa 10:00-21:00; Su 11:00-20:00",
        "brand": "Quiznos",
        "brand:wikidata": "Q1936229",
        "addr:housenumber": "2100",
        "addr:street": "Highland Way",
        "branch": "Highland Mall"
      },
      "geometry": { "type": "Point", "coordinates": [-98.00863, 43.69045] }
    },
    {
      "type": "Feature",
      "id": "xcLnYnatXMjvP9YkyKEBU4xeTGw=",
      "properties": {
        "ref": "11907",
        "addr:suite": "300 Rodgers Blvd",
        "amenity": "fast_food",
        "cuisine": "sandwich",
        "takeaway": "yes",
        "addr:city": "Honolulu",
        "addr:state": "HI",
        "addr:postcode": "96819",
        "name": "Quiznos",
        "phone": "+1 808-833-9939",
        "opening_hours": "08:00-22:30",
        "brand": "Quiznos",
        "brand:wikidata": "Q1936229",
        "branch": "Honolulu International Airport"
      },
      "geometry": { "type": "Point", "coordinates": [-157.92163, 21.33311] }
    },
    {
      "type": "Feature",
      "id": "RBm9w3CKOCQBuM0oC9OFjUgerjg=",
      "properties": {
        "ref": "4063",
        "amenity": "fast_food",
        "cuisine": "sandwich",
        "takeaway": "yes",
        "addr:city": "Dyersville",
        "addr:state": "IA",
        "addr:postcode": "52040",
        "name": "Quiznos",
        "phone": "+1 563-875-2434",
        "website": "https://order.quiznos.com/menu/hwy-136-9th-street-2?handoff=delivery",
        "opening_hours": "Mo-Sa 10:00-21:00; Su 11:00-20:00",
        "brand": "Quiznos",
        "brand:wikidata": "Q1936229",
        "addr:housenumber": "1426",
        "addr:street": "9th Street Southeast",
        "branch": "Highway 136 - 9th Street"
      },
      "geometry": { "type": "Point", "coordinates": [-91.11431, 42.47195] }
    },
    {
      "type": "Feature",
      "id": "t0OONr3jAIM7dhOKa7DH8wPzH7k=",
      "properties": {
        "ref": "15080",
        "amenity": "fast_food",
        "cuisine": "sandwich",
        "takeaway": "yes",
        "addr:city": "Bradenton",
        "addr:state": "FL",
        "addr:postcode": "34208",
        "name": "Quiznos",
        "phone": "+1 941-909-7757",
        "opening_hours": "06:00-21:00",
        "brand": "Quiznos",
        "brand:wikidata": "Q1936229",
        "addr:housenumber": "575",
        "addr:street": "66th Street Court East",
        "branch": "Highway 64 and 66th St Court East"
      },
      "geometry": { "type": "Point", "coordinates": [-82.47825, 27.49289] }
    },
    {
      "type": "Feature",
      "id": "xMtWhoFFZHwSBbaxoTds5y37FOo=",
      "properties": {
        "ref": "11308",
        "amenity": "fast_food",
        "cuisine": "sandwich",
        "takeaway": "yes",
        "addr:city": "Denver",
        "addr:state": "CO",
        "addr:postcode": "80211",
        "name": "Quiznos",
        "phone": "+1 303-433-0895",
        "website": "https://order.quiznos.com/menu/interstate-70-pecos-street-2?handoff=delivery",
        "opening_hours": "Mo-Fr 10:00-19:00; Sa 10:00-15:00",
        "brand": "Quiznos",
        "brand:wikidata": "Q1936229",
        "addr:housenumber": "4640",
        "addr:street": "Pecos Street",
        "addr:unit": "A",
        "branch": "Interstate 70 and Pecos Street"
      },
      "geometry": { "type": "Point", "coordinates": [-105.00622, 39.780934] }
    },
    {
      "type": "Feature",
      "id": "UhqCll0b2ZTM1fN4rL8XP7VYGLM=",
      "properties": {
        "ref": "7186",
        "amenity": "fast_food",
        "cuisine": "sandwich",
        "takeaway": "yes",
        "addr:city": "Tukwila",
        "addr:state": "WA",
        "addr:postcode": "98168",
        "name": "Quiznos",
        "phone": "+1 206-444-6119",
        "website": "https://order.quiznos.com/menu/interurban-retail-center-2?handoff=delivery",
        "opening_hours": "Mo-Sa 10:00-21:00; Su 11:00-20:00",
        "brand": "Quiznos",
        "brand:wikidata": "Q1936229",
        "addr:housenumber": "13038",
        "addr:street": "Interurban Avenue South",
        "addr:unit": "140",
        "branch": "Interurban Retail Center"
      },
      "geometry": {
        "type": "Point",
        "coordinates": [-122.2742900888, 47.485809129757]
      }
    },
    {
      "type": "Feature",
      "id": "_eoG7uUYWNOZTdnJ2vgknhOdacY=",
      "properties": {
        "ref": "7124",
        "amenity": "fast_food",
        "cuisine": "sandwich",
        "takeaway": "yes",
        "addr:city": "Jackson Hole",
        "addr:state": "WY",
        "addr:postcode": "83001",
        "name": "Quiznos",
        "phone": "+1 307-733-0201",
        "website": "https://order.quiznos.com/menu/jackson-hole-2?handoff=delivery",
        "opening_hours": "Mo-Fr 11:00-19:30; Sa-Su 11:00-17:00",
        "brand": "Quiznos",
        "brand:wikidata": "Q1936229",
        "addr:housenumber": "1325",
        "addr:street": "South Highway 89",
        "branch": "Jackson Hole"
      },
      "geometry": { "type": "Point", "coordinates": [-110.80653, 43.46479] }
    },
    {
      "type": "Feature",
      "id": "X6iVwVrQ5x-nxid-bcz5v9FRPZs=",
      "properties": {
        "ref": "8814",
        "amenity": "fast_food",
        "cuisine": "sandwich",
        "takeaway": "yes",
        "addr:city": "Mathews",
        "addr:state": "LA",
        "addr:postcode": "70375",
        "name": "Quiznos",
        "phone": "+1 985-532-0777",
        "website": "https://order.quiznos.com/menu/jesters-court-too-truck-stop-highway-308-2?handoff=delivery",
        "opening_hours": "09:00-21:00",
        "brand": "Quiznos",
        "brand:wikidata": "Q1936229",
        "addr:housenumber": "5375",
        "addr:street": "Highway 308",
        "branch": "Jester's Court Too Truck Stop - Highway 308"
      },
      "geometry": { "type": "Point", "coordinates": [-90.53831, 29.67247] }
    },
    {
      "type": "Feature",
      "id": "Nl_RzhyQi_JKas60HKZi2noCNf8=",
      "properties": {
        "ref": "1529",
        "amenity": "fast_food",
        "cuisine": "sandwich",
        "takeaway": "yes",
        "addr:city": "Carrollton",
        "addr:state": "TX",
        "addr:postcode": "75006",
        "name": "Quiznos",
        "phone": "+1 972-446-2852",
        "website": "https://order.quiznos.com/menu/kellerjosey-2?handoff=delivery",
        "opening_hours": "Mo-Sa 10:00-18:00",
        "brand": "Quiznos",
        "brand:wikidata": "Q1936229",
        "addr:housenumber": "2150",
        "addr:street": "North Josey Lane",
        "addr:unit": "122",
        "branch": "Keller/Josey"
      },
      "geometry": {
        "type": "Point",
        "coordinates": [-96.889902705627, 32.973903151693]
      }
    },
    {
      "type": "Feature",
      "id": "RfX4Zduqtj8J0LckSQgzA0-ed44=",
      "properties": {
        "ref": "15113",
        "amenity": "fast_food",
        "cuisine": "sandwich",
        "takeaway": "yes",
        "addr:city": "Pittsburg",
        "addr:state": "TX",
        "addr:postcode": "75686",
        "name": "Quiznos",
        "phone": "+1 903-856-7700",
        "opening_hours": "11:00-20:00",
        "brand": "Quiznos",
        "brand:wikidata": "Q1936229",
        "addr:housenumber": "310",
        "addr:street": "South Greer Boulevard",
        "branch": "Lafayette St & Highland Avenue"
      },
      "geometry": { "type": "Point", "coordinates": [-94.96222, 32.9917] }
    },
    {
      "type": "Feature",
      "id": "R8rhwoeqdwprydZI54cVCCzWFWE=",
      "properties": {
        "ref": "15032",
        "amenity": "fast_food",
        "cuisine": "sandwich",
        "takeaway": "yes",
        "addr:city": "Kingsland",
        "addr:state": "GA",
        "addr:postcode": "31548",
        "name": "Quiznos",
        "phone": "+1 912-576-2702",
        "opening_hours": "Mo-Sa 10:00-21:00; Su 11:00-20:00",
        "brand": "Quiznos",
        "brand:wikidata": "Q1936229",
        "addr:housenumber": "5289",
        "addr:street": "Laurel Island Parkway",
        "branch": "Laurel Island & Brazell Road"
      },
      "geometry": { "type": "Point", "coordinates": [-81.6608, 30.82739] }
    },
    {
      "type": "Feature",
      "id": "psjwtHPGNW-FKyMCfXNVOgUMc0I=",
      "properties": {
        "ref": "15022",
        "amenity": "fast_food",
        "cuisine": "sandwich",
        "takeaway": "yes",
        "addr:city": "Springfield",
        "addr:state": "IL",
        "addr:postcode": "62794",
        "name": "Quiznos",
        "phone": "+1 217-786-2400",
        "website": "https://order.quiznos.com/menu/lincoln-land-community-college-2?handoff=delivery",
        "opening_hours": "Mo-Fr 09:00-14:00",
        "brand": "Quiznos",
        "brand:wikidata": "Q1936229",
        "addr:housenumber": "5250",
        "addr:street": "Shepherd Road",
        "branch": "Lincoln Land Community College"
      },
      "geometry": { "type": "Point", "coordinates": [-89.61073, 39.72145] }
    },
    {
      "type": "Feature",
      "id": "Aoh6Ge_2HQXRJv5dbRK2W8h4sos=",
      "properties": {
        "ref": "12890",
        "amenity": "fast_food",
        "cuisine": "sandwich",
        "takeaway": "yes",
        "addr:city": "Lolo",
        "addr:state": "MT",
        "addr:postcode": "59847",
        "name": "Quiznos",
        "phone": "+1 406-273-3800",
        "opening_hours": "Mo 10:00-19:00; Tu-Th 10:00-20:00; Fr-Sa 10:00-21:00; Su 10:00-19:00",
        "brand": "Quiznos",
        "brand:wikidata": "Q1936229",
        "addr:housenumber": "12011",
        "addr:street": "Highway 93 South",
        "branch": "Lolo Super Stop - Highway 93 South"
      },
      "geometry": { "type": "Point", "coordinates": [-114.08264, 46.74712] }
    },
    {
      "type": "Feature",
      "id": "3wZIeWBSn92yi_tOh3IvqO2WTZ0=",
      "properties": {
        "ref": "6068",
        "amenity": "fast_food",
        "cuisine": "sandwich",
        "takeaway": "yes",
        "addr:city": "Los Angeles",
        "addr:state": "CA",
        "addr:postcode": "90012",
        "name": "Quiznos",
        "phone": "+1 213-995-3100",
        "website": "https://order.quiznos.com/menu/los-angeles-city-mall-2?handoff=delivery",
        "opening_hours": "Mo-Fr 08:00-16:00",
        "brand": "Quiznos",
        "brand:wikidata": "Q1936229",
        "addr:housenumber": "201",
        "addr:street": "North Los Angeles Street",
        "addr:unit": "22",
        "branch": "Los Angeles City Mall"
      },
      "geometry": {
        "type": "Point",
        "coordinates": [-118.24165785965, 34.052418772268]
      }
    },
    {
      "type": "Feature",
      "id": "poe4T77L7brY20x8fEpdfq458xw=",
      "properties": {
        "ref": "14973",
        "amenity": "fast_food",
        "cuisine": "sandwich",
        "takeaway": "yes",
        "addr:city": "Commerce Township",
        "addr:state": "MI",
        "addr:postcode": "48390",
        "name": "Quiznos",
        "phone": "+1 248-669-4267",
        "website": "https://order.quiznos.com/menu/maple-benstein-2?handoff=delivery",
        "opening_hours": "Mo-Sa 10:00-21:00; Su 11:00-20:00",
        "brand": "Quiznos",
        "brand:wikidata": "Q1936229",
        "addr:housenumber": "760",
        "addr:street": "Benstein Road",
        "branch": "Maple and Benstein"
      },
      "geometry": {
        "type": "Point",
        "coordinates": [-83.502237387642, 42.533679627115]
      }
    },
    {
      "type": "Feature",
      "id": "KW-FAikmYWBF576z9dA6daNlcsU=",
      "properties": {
        "ref": "4562",
        "amenity": "fast_food",
        "cuisine": "sandwich",
        "takeaway": "yes",
        "addr:city": "Atlanta",
        "addr:state": "GA",
        "addr:postcode": "30303",
        "name": "Quiznos",
        "phone": "+1 404-589-8025",
        "website": "https://order.quiznos.com/menu/marietta-street-2?handoff=delivery",
        "opening_hours": "Mo-Th 07:00-19:30; Fr 07:00-19:00; Sa 11:00-18:30",
        "brand": "Quiznos",
        "brand:wikidata": "Q1936229",
        "addr:housenumber": "29",
        "addr:street": "Marietta Street Northwest",
        "branch": "Marietta Street"
      },
      "geometry": {
        "type": "Point",
        "coordinates": [-84.390502291939, 33.755034445808]
      }
    },
    {
      "type": "Feature",
      "id": "FUEdHUHTrUrLsn_FOXdOZE0ON-0=",
      "properties": {
        "ref": "12750",
        "amenity": "fast_food",
        "cuisine": "sandwich",
        "takeaway": "yes",
        "addr:city": "Alcoa",
        "addr:state": "TN",
        "addr:postcode": "37701",
        "name": "Quiznos",
        "phone": "+1 865-342-2969",
        "opening_hours": "Mo-Fr 04:30-19:30; Sa 04:30-18:30; Su 04:30-19:30",
        "brand": "Quiznos",
        "brand:wikidata": "Q1936229",
        "addr:housenumber": "2055",
        "addr:street": "Alcoa Highway",
        "branch": "Mc Ghee Tyson Airport"
      },
      "geometry": { "type": "Point", "coordinates": [-83.98703, 35.805518] }
    },
    {
      "type": "Feature",
      "id": "rhZZwDKnD-13b8jdrX_gEYCzJL8=",
      "properties": {
        "ref": "1344",
        "addr:suite": "D Gate Terminal 1",
        "amenity": "fast_food",
        "cuisine": "sandwich",
        "takeaway": "yes",
        "addr:city": "Las Vegas",
        "addr:state": "NV",
        "addr:postcode": "89119",
        "name": "Quiznos",
        "phone": "+1 702-261-7330",
        "opening_hours": "04:30-01:00",
        "brand": "Quiznos",
        "brand:wikidata": "Q1936229",
        "addr:housenumber": "5757",
        "addr:street": "Wayne Newton Boulevard",
        "branch": "McCarran International Airport"
      },
      "geometry": { "type": "Point", "coordinates": [-115.14958, 36.08484] }
    },
    {
      "type": "Feature",
      "id": "vSGyUGBSNtDw-H0skns2QvV6aHk=",
      "properties": {
        "ref": "6739",
        "amenity": "fast_food",
        "cuisine": "sandwich",
        "takeaway": "yes",
        "addr:city": "Fresno",
        "addr:state": "CA",
        "addr:postcode": "93727",
        "name": "Quiznos",
        "phone": "+1 559-454-8477",
        "website": "https://order.quiznos.com/menu/mckinley-peach-2?handoff=delivery",
        "opening_hours": "Mo-Sa 10:00-21:00; Su 11:00-20:00",
        "brand": "Quiznos",
        "brand:wikidata": "Q1936229",
        "addr:housenumber": "1595",
        "addr:street": "North Peach Avenue",
        "addr:unit": "101",
        "branch": "McKinley and Peach"
      },
      "geometry": {
        "type": "Point",
        "coordinates": [-119.7183684049, 36.765025559062]
      }
    },
    {
      "type": "Feature",
      "id": "uymcF1rnePlsJIIUgTyqoPQ_ZIw=",
      "properties": {
        "ref": "8109",
        "amenity": "fast_food",
        "cuisine": "sandwich",
        "takeaway": "yes",
        "addr:city": "Miami",
        "addr:state": "FL",
        "addr:postcode": "33122",
        "name": "Quiznos",
        "phone": "+1 305-876-0815",
        "opening_hours": "09:30-19:00",
        "brand": "Quiznos",
        "brand:wikidata": "Q1936229",
        "addr:housenumber": "4250",
        "addr:street": "Northwest 20th Street",
        "branch": "Miami Int'l Airport - Concourse H"
      },
      "geometry": { "type": "Point", "coordinates": [-80.2747, 25.7929] }
    },
    {
      "type": "Feature",
      "id": "Iivpqdf3gYdikPCYGSJu6JN-0zM=",
      "properties": {
        "ref": "865",
        "amenity": "fast_food",
        "cuisine": "sandwich",
        "takeaway": "yes",
        "addr:city": "Tulsa",
        "addr:state": "OK",
        "addr:postcode": "74133",
        "name": "Quiznos",
        "phone": "+1 918-459-7966",
        "opening_hours": "Mo-Sa 10:00-21:00; Su 11:00-20:00",
        "brand": "Quiznos",
        "brand:wikidata": "Q1936229",
        "addr:housenumber": "10031",
        "addr:street": "East 71st Street",
        "addr:unit": "F",
        "branch": "Mingo Marketplace"
      },
      "geometry": {
        "type": "Point",
        "coordinates": [-95.864903802287, 36.060771324783]
      }
    },
    {
      "type": "Feature",
      "id": "n9ueZGI9kNwvuVBfIc8j-e4t5Xo=",
      "properties": {
        "ref": "3709",
        "amenity": "fast_food",
        "cuisine": "sandwich",
        "takeaway": "yes",
        "addr:city": "Huntsville",
        "addr:state": "AL",
        "addr:postcode": "35811",
        "name": "Quiznos",
        "phone": "+1 256-852-7676",
        "website": "https://order.quiznos.com/menu/moores-mill-2?handoff=delivery",
        "opening_hours": "Mo-Sa 10:00-20:00; Su 11:00-20:00",
        "brand": "Quiznos",
        "brand:wikidata": "Q1936229",
        "addr:housenumber": "5095 A",
        "addr:street": "Moores Mill Road",
        "branch": "Moores Mill"
      },
      "geometry": { "type": "Point", "coordinates": [-86.53611, 34.79374] }
    },
    {
      "type": "Feature",
      "id": "zwi6ffgY_mDa9zeeqFtcKBxLOg8=",
      "properties": {
        "ref": "2392",
        "amenity": "fast_food",
        "cuisine": "sandwich",
        "takeaway": "yes",
        "addr:city": "Mundelein",
        "addr:state": "IL",
        "addr:postcode": "60060",
        "name": "Quiznos",
        "phone": "+1 847-837-0500",
        "website": "https://order.quiznos.com/menu/mundelein-2?handoff=delivery",
        "opening_hours": "Mo-Sa 10:00-20:00; Su 10:30-20:00",
        "brand": "Quiznos",
        "brand:wikidata": "Q1936229",
        "addr:housenumber": "1156",
        "addr:street": "West Maple Avenue",
        "branch": "Mundelein"
      },
      "geometry": { "type": "Point", "coordinates": [-88.02191, 42.27735] }
    },
    {
      "type": "Feature",
      "id": "r0Cu6R_s9LYDr9dBr0QMnkSstL4=",
      "properties": {
        "ref": "12721",
        "amenity": "fast_food",
        "cuisine": "sandwich",
        "takeaway": "yes",
        "addr:city": "Grafton",
        "addr:state": "WI",
        "addr:postcode": "53024",
        "name": "Quiznos",
        "phone": "+1 262-375-4664",
        "website": "https://order.quiznos.com/menu/n-port-washington-road-washington-street-2?handoff=delivery",
        "opening_hours": "10:00-20:00",
        "brand": "Quiznos",
        "brand:wikidata": "Q1936229",
        "addr:housenumber": "1231",
        "addr:street": "North Port Washington Road",
        "branch": "North Port Washington Road and Washington Street"
      },
      "geometry": { "type": "Point", "coordinates": [-87.92532, 43.32161] }
    },
    {
      "type": "Feature",
      "id": "BGfYZIkugO2Xv7X-IxSsLnumFUI=",
      "properties": {
        "ref": "12175",
        "amenity": "fast_food",
        "cuisine": "sandwich",
        "takeaway": "yes",
        "addr:city": "North Salt Lake",
        "addr:state": "UT",
        "addr:postcode": "84054",
        "name": "Quiznos",
        "phone": "+1 801-294-3384",
        "website": "https://order.quiznos.com/menu/n-redwood-road-cambridge-drive-2?handoff=delivery",
        "opening_hours": "Mo-Fr 10:00-17:00; Sa 10:00-15:00",
        "brand": "Quiznos",
        "brand:wikidata": "Q1936229",
        "addr:housenumber": "420",
        "addr:street": "North Redwood Road",
        "addr:unit": "A",
        "branch": "North Redwood Road and Cambridge Drive"
      },
      "geometry": { "type": "Point", "coordinates": [-111.92978, 40.84927] }
    },
    {
      "type": "Feature",
      "id": "LC8Vw2henqe4HZxLy0_D-pO3nGU=",
      "properties": {
        "ref": "13570",
        "amenity": "fast_food",
        "cuisine": "sandwich",
        "takeaway": "yes",
        "addr:city": "Houston",
        "addr:state": "TX",
        "addr:postcode": "77049",
        "name": "Quiznos",
        "phone": "+1 281-458-9696",
        "opening_hours": "Mo-Sa 10:00-21:00; Su 11:00-20:00",
        "brand": "Quiznos",
        "brand:wikidata": "Q1936229",
        "addr:housenumber": "5805",
        "addr:street": "East Sam Houston Parkway North",
        "addr:unit": "H",
        "branch": "New Forest Crossing"
      },
      "geometry": { "type": "Point", "coordinates": [-95.16263, 29.81153] }
    },
    {
      "type": "Feature",
      "id": "P0nWrbhIDTBVPXnU216RlPUO7Sk=",
      "properties": {
        "ref": "5437",
        "addr:suite": "Suite 100",
        "amenity": "fast_food",
        "cuisine": "sandwich",
        "takeaway": "yes",
        "addr:city": "Windsor",
        "addr:state": "CO",
        "addr:postcode": "80550",
        "name": "Quiznos",
        "phone": "+1 970-674-3377",
        "website": "https://order.quiznos.com/menu/new-windsor-marketplace-2",
        "opening_hours": "Mo-Sa 10:00-21:00; Su 10:30-20:00",
        "brand": "Quiznos",
        "brand:wikidata": "Q1936229",
        "addr:housenumber": "1550",
        "addr:street": "Main Street",
        "branch": "New Windsor Marketplace"
      },
      "geometry": { "type": "Point", "coordinates": [-104.928587, 40.479577] }
    },
    {
      "type": "Feature",
      "id": "tAHS2Nm8zaJJtdrr7L8VLzORqVY=",
      "properties": {
        "ref": "14481",
        "amenity": "fast_food",
        "cuisine": "sandwich",
        "takeaway": "yes",
        "addr:city": "Lakeland",
        "addr:state": "FL",
        "addr:postcode": "33810",
        "name": "Quiznos",
        "phone": "+1 863-858-0928",
        "opening_hours": "06:00-21:00",
        "brand": "Quiznos",
        "brand:wikidata": "Q1936229",
        "addr:housenumber": "4410",
        "addr:street": "Kathleen Road",
        "branch": "Nick & Moes #1"
      },
      "geometry": { "type": "Point", "coordinates": [-82.00663, 28.09863] }
    },
    {
      "type": "Feature",
      "id": "R8bH87u-MjDvfksvNhQPPE9mhxA=",
      "properties": {
        "ref": "12007",
        "amenity": "fast_food",
        "cuisine": "sandwich",
        "takeaway": "yes",
        "addr:city": "Barrington",
        "addr:state": "IL",
        "addr:postcode": "60010",
        "name": "Quiznos",
        "phone": "+1 847-842-0584",
        "website": "https://order.quiznos.com/menu/northwest-highway-2?handoff=delivery",
        "opening_hours": "Mo-Fr 10:00-20:00; Sa-Su 10:00-19:00",
        "brand": "Quiznos",
        "brand:wikidata": "Q1936229",
        "addr:housenumber": "115",
        "addr:street": "North Northwest Highway",
        "branch": "Northwest Highway"
      },
      "geometry": {
        "type": "Point",
        "coordinates": [-88.128274157962, 42.154252979146]
      }
    },
    {
      "type": "Feature",
      "id": "QpmW3_lqUjArwBoE6p6LJJBjj_I=",
      "properties": {
        "ref": "11744",
        "addr:suite": "Unit 8",
        "amenity": "fast_food",
        "cuisine": "sandwich",
        "takeaway": "yes",
        "addr:city": "Rochester",
        "addr:state": "WA",
        "addr:postcode": "98579",
        "name": "Quiznos",
        "phone": "+1 360-273-0102",
        "website": "https://order.quiznos.com/menu/old-highway-99-198th-ave-sw-2?handoff=delivery",
        "opening_hours": "Mo-Sa 10:00-21:00; Su 10:30-21:00",
        "brand": "Quiznos",
        "brand:wikidata": "Q1936229",
        "addr:housenumber": "19810",
        "addr:street": "Old Highway 99 Southwest",
        "branch": "Old Highway 99 and 198th Avenue Southwest"
      },
      "geometry": { "type": "Point", "coordinates": [-123.01216, 46.79793] }
    },
    {
      "type": "Feature",
      "id": "vEl2egk9YViBGYSlI9k18vxRBAs=",
      "properties": {
        "ref": "560",
        "amenity": "fast_food",
        "cuisine": "sandwich",
        "takeaway": "yes",
        "addr:city": "Lamar",
        "addr:state": "CO",
        "addr:postcode": "81052",
        "name": "Quiznos",
        "phone": "+1 719-336-3040",
        "website": "https://order.quiznos.com/menu/olive-2?handoff=delivery",
        "opening_hours": "Mo-Sa 10:00-21:00; Su 11:00-20:00",
        "brand": "Quiznos",
        "brand:wikidata": "Q1936229",
        "addr:housenumber": "113",
        "addr:street": "East Olive Street",
        "branch": "Olive"
      },
      "geometry": {
        "type": "Point",
        "coordinates": [-102.61913676418, 38.088096108003]
      }
    },
    {
      "type": "Feature",
      "id": "xKRzjXIKvh48b1nw-kvCnX1fjQM=",
      "properties": {
        "ref": "3697",
        "amenity": "fast_food",
        "cuisine": "sandwich",
        "takeaway": "yes",
        "addr:city": "Vancouver",
        "addr:state": "WA",
        "addr:postcode": "98682",
        "name": "Quiznos",
        "phone": "+1 360-944-0906",
        "website": "https://order.quiznos.com/menu/orchards-green-plaza-2?handoff=delivery",
        "opening_hours": "11:00-19:00",
        "brand": "Quiznos",
        "brand:wikidata": "Q1936229",
        "addr:housenumber": "7620",
        "addr:street": "Northeast 119th Place",
        "addr:unit": "102",
        "branch": "Orchards Green Plaza"
      },
      "geometry": { "type": "Point", "coordinates": [-122.551095, 45.67794] }
    },
    {
      "type": "Feature",
      "id": "nBsPjv8KcLC06YFUzKoaYoZbaro=",
      "properties": {
        "ref": "11962",
        "amenity": "fast_food",
        "cuisine": "sandwich",
        "takeaway": "yes",
        "addr:city": "Nashville",
        "addr:state": "TN",
        "addr:postcode": "37210",
        "name": "Quiznos",
        "phone": "+1 615-988-8848",
        "website": "https://order.quiznos.com/menu/peabody-corner-marketplace-2?handoff=delivery",
        "opening_hours": "Mo-Fr 09:00-17:00; Sa 10:00-15:00",
        "brand": "Quiznos",
        "brand:wikidata": "Q1936229",
        "addr:housenumber": "319",
        "addr:street": "Peabody Street",
        "branch": "Peabody Corner Marketplace"
      },
      "geometry": { "type": "Point", "coordinates": [-86.77384, 36.156] }
    },
    {
      "type": "Feature",
      "id": "076G8Vh2fRbgRHeXIQlwbXZtbGQ=",
      "properties": {
        "ref": "3253",
        "amenity": "fast_food",
        "cuisine": "sandwich",
        "takeaway": "yes",
        "addr:city": "Hayward",
        "addr:state": "CA",
        "addr:postcode": "94541",
        "name": "Quiznos",
        "phone": "+1 510-733-5881",
        "website": "https://order.quiznos.com/menu/plaza-center-2?handoff=delivery",
        "opening_hours": "Mo-Fr 10:00-20:00; Sa 10:00-18:00; Su 11:00-18:00",
        "brand": "Quiznos",
        "brand:wikidata": "Q1936229",
        "addr:housenumber": "22312",
        "addr:street": "Foothill Boulevard",
        "branch": "Plaza Center"
      },
      "geometry": {
        "type": "Point",
        "coordinates": [-122.08420835429, 37.67874687458]
      }
    },
    {
      "type": "Feature",
      "id": "N7WKgy8jC2FVUZY2knUobhK10J0=",
      "properties": {
        "ref": "13787",
        "amenity": "fast_food",
        "cuisine": "sandwich",
        "takeaway": "yes",
        "addr:city": "Livonia",
        "addr:state": "MI",
        "addr:postcode": "48150",
        "name": "Quiznos",
        "phone": "+1 734-338-9704",
        "website": "https://order.quiznos.com/menu/plymouth-road-2?handoff=delivery",
        "opening_hours": "Mo-Fr 10:00-18:00; Sa 11:00-17:00",
        "brand": "Quiznos",
        "brand:wikidata": "Q1936229",
        "addr:housenumber": "36171",
        "addr:street": "Plymouth Road",
        "branch": "Plymouth Road"
      },
      "geometry": {
        "type": "Point",
        "coordinates": [-83.400227810331, 42.367744472958]
      }
    },
    {
      "type": "Feature",
      "id": "mJc6pH-oMXeUcD8D8C4C4ZAa-JQ=",
      "properties": {
        "ref": "11584",
        "amenity": "fast_food",
        "cuisine": "sandwich",
        "takeaway": "yes",
        "addr:city": "Brighton",
        "addr:state": "CO",
        "addr:postcode": "80601",
        "name": "Quiznos",
        "phone": "+1 303-945-4307",
        "website": "https://order.quiznos.com/menu/prairie-center-2?handoff=delivery",
        "opening_hours": "Mo-Sa 10:00-19:00; Su 11:00-19:00",
        "brand": "Quiznos",
        "brand:wikidata": "Q1936229",
        "addr:housenumber": "2237",
        "addr:street": "Prairie Center Parkway",
        "addr:unit": "E",
        "branch": "Prairie Center"
      },
      "geometry": { "type": "Point", "coordinates": [-104.7729, 39.9576] }
    },
    {
      "type": "Feature",
      "id": "HyeHiiw6HrNudVyBS7KETmNNn7Y=",
      "properties": {
        "ref": "178",
        "amenity": "fast_food",
        "cuisine": "sandwich",
        "takeaway": "yes",
        "addr:city": "Kearney",
        "addr:state": "NE",
        "addr:postcode": "68845",
        "name": "Quiznos",
        "phone": "+1 308-234-6554",
        "opening_hours": "Mo-Fr 08:00-20:00; Sa-Su 10:30-20:00",
        "brand": "Quiznos",
        "brand:wikidata": "Q1936229",
        "addr:housenumber": "3004",
        "addr:street": "Highway 30 West",
        "branch": "Pump & Pantry - Highway 30 West"
      },
      "geometry": { "type": "Point", "coordinates": [-99.12254, 40.69938] }
    },
    {
      "type": "Feature",
      "id": "4fl0LK77T-Ha7IGl2O0oFsx8IgM=",
      "properties": {
        "ref": "15194",
        "amenity": "fast_food",
        "cuisine": "sandwich",
        "takeaway": "yes",
        "addr:city": "Grand Island",
        "addr:state": "NE",
        "addr:postcode": "68803",
        "name": "Quiznos",
        "opening_hours": "11:00-19:00",
        "brand": "Quiznos",
        "brand:wikidata": "Q1936229",
        "addr:housenumber": "2511",
        "addr:street": "Diers Avenue",
        "branch": "Pump & Pantry #3"
      },
      "geometry": { "type": "Point", "coordinates": [-98.38449, 40.94658] }
    },
    {
      "type": "Feature",
      "id": "ZgZHAXS6TL3Vq2JjYPs7YDcsf00=",
      "properties": {
        "ref": "15171",
        "amenity": "fast_food",
        "cuisine": "sandwich",
        "takeaway": "yes",
        "addr:city": "Grand Island",
        "addr:state": "NE",
        "addr:postcode": "68801",
        "name": "Quiznos",
        "phone": "+1 308-382-7411",
        "opening_hours": "11:00-19:00",
        "brand": "Quiznos",
        "brand:wikidata": "Q1936229",
        "addr:housenumber": "3436",
        "addr:street": "South Locust",
        "branch": "Pump & Pantry #54"
      },
      "geometry": { "type": "Point", "coordinates": [-98.34076, 40.8858] }
    },
    {
      "type": "Feature",
      "id": "BSiPgBRQlDe9QJfvFZa9sAwP1YY=",
      "properties": {
        "ref": "15173",
        "amenity": "fast_food",
        "cuisine": "sandwich",
        "takeaway": "yes",
        "addr:city": "Columbus",
        "addr:state": "NE",
        "addr:postcode": "68601",
        "name": "Quiznos",
        "phone": "+1 402-564-8007",
        "opening_hours": "Mo-Fr 11:00-19:00; Sa 10:00-19:00; Su 11:00-19:00",
        "brand": "Quiznos",
        "brand:wikidata": "Q1936229",
        "addr:housenumber": "3208",
        "addr:street": "42nd Street",
        "branch": "Pump & Pantry #57"
      },
      "geometry": { "type": "Point", "coordinates": [-97.39289, 41.45627] }
    },
    {
      "type": "Feature",
      "id": "zO6mcO9xQPj-az2B5rcHqqW1feU=",
      "properties": {
        "ref": "1062",
        "amenity": "fast_food",
        "cuisine": "sandwich",
        "takeaway": "yes",
        "addr:city": "Las Vegas",
        "addr:state": "NV",
        "addr:postcode": "89106",
        "name": "Quiznos",
        "phone": "+1 702-384-1911",
        "website": "https://order.quiznos.com/menu/rancho-plaza-2?handoff=delivery",
        "opening_hours": "Mo-Fr 10:00-19:00; Sa 11:00-17:00",
        "brand": "Quiznos",
        "brand:wikidata": "Q1936229",
        "addr:housenumber": "901",
        "addr:street": "South Rancho Drive",
        "branch": "Rancho Plaza"
      },
      "geometry": {
        "type": "Point",
        "coordinates": [-115.17266082496, 36.160707909343]
      }
    },
    {
      "type": "Feature",
      "id": "3YzAm_2PM5cmjiMevqEf5FKvQno=",
      "properties": {
        "ref": "2646",
        "amenity": "fast_food",
        "cuisine": "sandwich",
        "takeaway": "yes",
        "addr:city": "Oxon Hill",
        "addr:state": "MD",
        "addr:postcode": "20745",
        "name": "Quiznos",
        "phone": "+1 301-839-0920",
        "opening_hours": "Mo-Sa 10:00-21:00; Su 11:00-20:00",
        "brand": "Quiznos",
        "brand:wikidata": "Q1936229",
        "addr:housenumber": "6215",
        "addr:street": "Oxon Hill Road",
        "branch": "Rivertown Commons"
      },
      "geometry": { "type": "Point", "coordinates": [-76.9799, 38.804636] }
    },
    {
      "type": "Feature",
      "id": "53SXdYJYemyjKvOxmGqGk2K6-ow=",
      "properties": {
        "ref": "4590",
        "amenity": "fast_food",
        "cuisine": "sandwich",
        "takeaway": "yes",
        "addr:city": "Rock Springs",
        "addr:state": "WY",
        "addr:postcode": "82901",
        "name": "Quiznos",
        "phone": "+1 307-362-6485",
        "website": "https://order.quiznos.com/menu/rock-springs-2?handoff=delivery",
        "opening_hours": "Mo-Sa 10:00-21:00; Su 11:00-20:00",
        "brand": "Quiznos",
        "brand:wikidata": "Q1936229",
        "addr:housenumber": "101",
        "addr:street": "Gateway Boulevard",
        "addr:unit": "A",
        "branch": "Rock Springs"
      },
      "geometry": { "type": "Point", "coordinates": [-109.24942, 41.57736] }
    },
    {
      "type": "Feature",
      "id": "tkM4knwIQtjGeELQspxKPx4eRNg=",
      "properties": {
        "ref": "3031",
        "amenity": "fast_food",
        "cuisine": "sandwich",
        "takeaway": "yes",
        "addr:city": "Plymouth",
        "addr:state": "MN",
        "addr:postcode": "55442",
        "name": "Quiznos",
        "phone": "+1 763-559-8100",
        "website": "https://order.quiznos.com/menu/rockford-square-2?handoff=delivery",
        "opening_hours": "Mo-Sa 10:00-21:00; Su 11:00-20:00",
        "brand": "Quiznos",
        "brand:wikidata": "Q1936229",
        "addr:housenumber": "4406",
        "addr:street": "Nathan Lane North",
        "branch": "Rockford Square"
      },
      "geometry": { "type": "Point", "coordinates": [-93.40806, 45.0351] }
    },
    {
      "type": "Feature",
      "id": "0Hq4um1uHaRidKZGC07mXuSzV2o=",
      "properties": {
        "ref": "13066",
        "amenity": "fast_food",
        "cuisine": "sandwich",
        "takeaway": "yes",
        "addr:city": "Phoenix",
        "addr:state": "AZ",
        "addr:postcode": "85024",
        "name": "Quiznos",
        "phone": "+1 602-765-0535",
        "opening_hours": "10:30-15:00",
        "brand": "Quiznos",
        "brand:wikidata": "Q1936229",
        "addr:housenumber": "21043",
        "addr:street": "North Cave Creek Road",
        "addr:unit": "A2",
        "branch": "Rose Garden Plaza"
      },
      "geometry": {
        "type": "Point",
        "coordinates": [-112.0310700662, 33.677627385209]
      }
    },
    {
      "type": "Feature",
      "id": "PAMfyp_RRcSJBbyeVwDYEUpCg5M=",
      "properties": {
        "ref": "7092",
        "amenity": "fast_food",
        "cuisine": "sandwich",
        "takeaway": "yes",
        "addr:city": "Emporia",
        "addr:state": "VA",
        "addr:postcode": "23847",
        "name": "Quiznos",
        "phone": "+1 434-348-7827",
        "website": "https://order.quiznos.com/menu/sadler-texaco-atlantic-street-2?handoff=delivery",
        "opening_hours": "Mo-Sa 10:00-21:00; Su 11:00-20:00",
        "brand": "Quiznos",
        "brand:wikidata": "Q1936229",
        "addr:housenumber": "932",
        "addr:street": "West Atlantic Street",
        "branch": "Sadler Texaco - Atlantic Street"
      },
      "geometry": { "type": "Point", "coordinates": [-77.55212, 36.70353] }
    },
    {
      "type": "Feature",
      "id": "LT_cn8XHSOxCYHrYjyLUnSDql9U=",
      "properties": {
        "ref": "7938",
        "amenity": "fast_food",
        "cuisine": "sandwich",
        "takeaway": "yes",
        "addr:city": "Dunn",
        "addr:state": "NC",
        "addr:postcode": "28334",
        "name": "Quiznos",
        "phone": "+1 910-891-2782",
        "website": "https://order.quiznos.com/menu/sadlers-travel-plaza-2?handoff=delivery",
        "opening_hours": "24/7",
        "brand": "Quiznos",
        "brand:wikidata": "Q1936229",
        "addr:housenumber": "65",
        "addr:street": "Sadler Road",
        "branch": "Sadler's Travel Plaza"
      },
      "geometry": { "type": "Point", "coordinates": [-78.57059, 35.32164] }
    },
    {
      "type": "Feature",
      "id": "Motv1Ystlre7EVRwONJPqnBT904=",
      "properties": {
        "ref": "3122",
        "amenity": "fast_food",
        "cuisine": "sandwich",
        "takeaway": "yes",
        "addr:city": "Bremerton",
        "addr:state": "WA",
        "addr:postcode": "98311",
        "name": "Quiznos",
        "phone": "+1 360-698-7210",
        "website": "https://order.quiznos.com/menu/saint-charles-place-2?handoff=delivery",
        "opening_hours": "Mo-Sa 10:00-21:00; Su 11:00-20:00",
        "brand": "Quiznos",
        "brand:wikidata": "Q1936229",
        "addr:housenumber": "7058",
        "addr:street": "State Highway 303 Northeast",
        "addr:unit": "B",
        "branch": "Saint Charles Place"
      },
      "geometry": { "type": "Point", "coordinates": [-122.628695, 47.62784] }
    },
    {
      "type": "Feature",
      "id": "WZ-d03UyXDsXH9cAXLOi6ST-NFU=",
      "properties": {
        "ref": "5161",
        "amenity": "fast_food",
        "cuisine": "sandwich",
        "takeaway": "yes",
        "addr:city": "Conway",
        "addr:state": "AR",
        "addr:postcode": "72034",
        "name": "Quiznos",
        "phone": "+1 501-329-7827",
        "website": "https://order.quiznos.com/menu/salem-place-center-2?handoff=delivery",
        "opening_hours": "Mo-Sa 10:00-21:00; Su 11:00-21:00",
        "brand": "Quiznos",
        "brand:wikidata": "Q1936229",
        "addr:housenumber": "2850",
        "addr:street": "Prince Street",
        "addr:unit": "9",
        "branch": "Salem Place Center"
      },
      "geometry": {
        "type": "Point",
        "coordinates": [-92.470199807566, 35.092316201649]
      }
    },
    {
      "type": "Feature",
      "id": "omJf4S112eeb8FfpzCje-YcV5XY=",
      "properties": {
        "ref": "8425",
        "amenity": "fast_food",
        "cuisine": "sandwich",
        "takeaway": "yes",
        "addr:city": "Wheatfield",
        "addr:state": "IN",
        "addr:postcode": "46392",
        "name": "Quiznos",
        "phone": "+1 219-956-4181",
        "website": "https://order.quiznos.com/menu/school-crossing-market-place-2?handoff=delivery",
        "opening_hours": "Mo-Sa 09:00-20:00; Su 10:00-20:00",
        "brand": "Quiznos",
        "brand:wikidata": "Q1936229",
        "addr:housenumber": "3840",
        "addr:street": "West State Road 10",
        "branch": "School Crossing Market Place"
      },
      "geometry": { "type": "Point", "coordinates": [-87.118764, 41.187637] }
    },
    {
      "type": "Feature",
      "id": "p5Eps0-V6v0aYBsH_kA-i3OQTmc=",
      "properties": {
        "ref": "7729",
        "amenity": "fast_food",
        "cuisine": "sandwich",
        "takeaway": "yes",
        "addr:city": "Bracey",
        "addr:state": "VA",
        "addr:postcode": "23919",
        "name": "Quiznos",
        "phone": "+1 434-689-5000",
        "website": "https://order.quiznos.com/menu/shell-station-highway-9-2?handoff=delivery",
        "opening_hours": "Mo-Sa 10:00-21:00; Su 11:00-20:00",
        "brand": "Quiznos",
        "brand:wikidata": "Q1936229",
        "addr:housenumber": "2883",
        "addr:street": "Highway 903",
        "branch": "Shell Station - Highway 9"
      },
      "geometry": { "type": "Point", "coordinates": [-78.153999, 36.60169] }
    },
    {
      "type": "Feature",
      "id": "F-6ZYu_RWNVZADfSwFJstapHCOs=",
      "properties": {
        "ref": "2805",
        "amenity": "fast_food",
        "cuisine": "sandwich",
        "takeaway": "yes",
        "addr:city": "Shoreview",
        "addr:state": "MN",
        "addr:postcode": "55126",
        "name": "Quiznos",
        "phone": "+1 651-784-7931",
        "website": "https://order.quiznos.com/menu/shoreview-2?handoff=delivery",
        "opening_hours": "Mo-Fr 10:00-19:00; Sa 10:00-17:00; Su 11:00-17:00",
        "brand": "Quiznos",
        "brand:wikidata": "Q1936229",
        "addr:housenumber": "5999",
        "addr:street": "Rice Creek Parkway",
        "addr:unit": "106",
        "branch": "Shoreview"
      },
      "geometry": { "type": "Point", "coordinates": [-93.18505, 45.1239] }
    },
    {
      "type": "Feature",
      "id": "bsBmkkfu-8L2tFU8V72F2jj95fI=",
      "properties": {
        "ref": "11778",
        "addr:suite": "Bldg A Suite 1",
        "amenity": "fast_food",
        "cuisine": "sandwich",
        "takeaway": "yes",
        "addr:city": "Gillette",
        "addr:state": "WY",
        "addr:postcode": "82718",
        "name": "Quiznos",
        "phone": "+1 307-682-9548",
        "website": "https://order.quiznos.com/menu/silverado-center-2?handoff=delivery",
        "opening_hours": "Mo-Sa 10:00-21:00; Su 11:00-20:00",
        "brand": "Quiznos",
        "brand:wikidata": "Q1936229",
        "addr:housenumber": "1103",
        "addr:street": "East Boxelder Road",
        "branch": "Silverado Center"
      },
      "geometry": { "type": "Point", "coordinates": [-105.48939, 44.27659] }
    },
    {
      "type": "Feature",
      "id": "FuQfi-KA4E3sxSDFhTUnNM_u8kA=",
      "properties": {
        "ref": "3696",
        "amenity": "fast_food",
        "cuisine": "sandwich",
        "takeaway": "yes",
        "addr:city": "West Des Moines",
        "addr:state": "IA",
        "addr:postcode": "50265",
        "name": "Quiznos",
        "phone": "+1 515-222-1213",
        "website": "https://order.quiznos.com/menu/somerfield-village-center-2?handoff=delivery",
        "opening_hours": "Mo-Sa 11:00-20:00; Su 11:00-19:00",
        "brand": "Quiznos",
        "brand:wikidata": "Q1936229",
        "addr:housenumber": "4800",
        "addr:street": "Mills Civic Parkway",
        "addr:unit": "103",
        "branch": "Somerfield Village Center"
      },
      "geometry": { "type": "Point", "coordinates": [-93.76703, 41.55915] }
    },
    {
      "type": "Feature",
      "id": "7U-vdZuFhDqQW2H2enm8ZQB4CVY=",
      "properties": {
        "ref": "23",
        "amenity": "fast_food",
        "cuisine": "sandwich",
        "takeaway": "yes",
        "addr:city": "Littleton",
        "addr:state": "CO",
        "addr:postcode": "80122",
        "name": "Quiznos",
        "phone": "+1 303-993-4354",
        "website": "https://order.quiznos.com/menu/south-broadway-car-care-center-2?handoff=delivery",
        "opening_hours": "Mo-Sa 10:00-21:00; Su 11:00-20:00",
        "brand": "Quiznos",
        "brand:wikidata": "Q1936229",
        "addr:housenumber": "8053",
        "addr:street": "South Broadway",
        "branch": "South Broadway Car Care Center"
      },
      "geometry": { "type": "Point", "coordinates": [-104.98871, 39.56966] }
    },
    {
      "type": "Feature",
      "id": "JLhwSJVru4X8HR0vkJUI4HSYEyI=",
      "properties": {
        "ref": "3607",
        "amenity": "fast_food",
        "cuisine": "sandwich",
        "takeaway": "yes",
        "addr:city": "Mesa",
        "addr:state": "AZ",
        "addr:postcode": "85206",
        "name": "Quiznos",
        "phone": "+1 480-832-1604",
        "website": "https://order.quiznos.com/menu/southern-promenade-2?handoff=delivery",
        "opening_hours": "Mo-Sa 10:00-20:00; Su 10:00-19:00",
        "brand": "Quiznos",
        "brand:wikidata": "Q1936229",
        "addr:housenumber": "5110",
        "addr:street": "East Southern Avenue",
        "addr:unit": "112",
        "branch": "Southern Promenade"
      },
      "geometry": {
        "type": "Point",
        "coordinates": [-111.72115720711, 33.393870366505]
      }
    },
    {
      "type": "Feature",
      "id": "Ff7DuNOso4BIF5kT0ZnofNRtkV0=",
      "properties": {
        "ref": "10822",
        "amenity": "fast_food",
        "cuisine": "sandwich",
        "takeaway": "yes",
        "addr:city": "Spokane",
        "addr:state": "WA",
        "addr:postcode": "99224",
        "name": "Quiznos",
        "phone": "+1 509-624-3400",
        "opening_hours": "04:30-19:00",
        "brand": "Quiznos",
        "brand:wikidata": "Q1936229",
        "addr:housenumber": "9000",
        "addr:street": "West Airport Drive",
        "addr:unit": "401",
        "branch": "Spokane Int'l Airport- Rotunda Food Court"
      },
      "geometry": { "type": "Point", "coordinates": [-117.507072, 47.641063] }
    },
    {
      "type": "Feature",
      "id": "EUJCf_jNxg59ijpZW7xAM162LlY=",
      "properties": {
        "ref": "7553",
        "amenity": "fast_food",
        "cuisine": "sandwich",
        "takeaway": "yes",
        "addr:city": "Everett",
        "addr:state": "WA",
        "addr:postcode": "98201",
        "name": "Quiznos",
        "phone": "+1 425-258-9496",
        "website": "https://order.quiznos.com/menu/stadium-center-2?handoff=delivery",
        "opening_hours": "Mo-Sa 10:00-21:00; Su 11:00-20:00",
        "brand": "Quiznos",
        "brand:wikidata": "Q1936229",
        "addr:housenumber": "3625",
        "addr:street": "Broadway",
        "addr:unit": "B",
        "branch": "Stadium Center"
      },
      "geometry": {
        "type": "Point",
        "coordinates": [-122.2011946194, 47.969735758687]
      }
    },
    {
      "type": "Feature",
      "id": "br8BTaNGJD-vJDW14ODJtqS2Ckw=",
      "properties": {
        "ref": "14996",
        "amenity": "fast_food",
        "cuisine": "sandwich",
        "takeaway": "yes",
        "addr:city": "Lakewood Ranch",
        "addr:state": "FL",
        "addr:postcode": "34202",
        "name": "Quiznos",
        "phone": "+1 941-755-1455",
        "opening_hours": "06:00-21:00",
        "brand": "Quiznos",
        "brand:wikidata": "Q1936229",
        "addr:housenumber": "14315",
        "addr:street": "East State Road 70",
        "branch": "State Road 70 & Lorraine Road"
      },
      "geometry": { "type": "Point", "coordinates": [-82.39689, 27.43255] }
    },
    {
      "type": "Feature",
      "id": "u1Rx4F08LSX6XOj8O9HM9v2wm4Q=",
      "properties": {
        "ref": "15190",
        "amenity": "fast_food",
        "cuisine": "sandwich",
        "takeaway": "yes",
        "addr:city": "Bradenton",
        "addr:state": "FL",
        "addr:postcode": "34207",
        "name": "Quiznos",
        "phone": "+1 941-202-0808",
        "website": "https://order.quiznos.com/menu/nick-moes-4",
        "opening_hours": "Mo-Fr 06:00-20:00; Sa 07:00-20:00; Su 08:00-19:00",
        "brand": "Quiznos",
        "brand:wikidata": "Q1936229",
        "addr:housenumber": "5410",
        "addr:street": "14th Street West",
        "branch": "Sunshine #484"
      },
      "geometry": { "type": "Point", "coordinates": [-82.57708, 27.4457] }
    },
    {
      "type": "Feature",
      "id": "nmkSjuk5HgKqM5u_Bk0YMf4yMy8=",
      "properties": {
        "ref": "15165",
        "amenity": "fast_food",
        "cuisine": "sandwich",
        "takeaway": "yes",
        "addr:city": "Miami Gardens",
        "addr:state": "FL",
        "addr:postcode": "33169",
        "name": "Quiznos",
        "phone": "+1 305-655-1932",
        "opening_hours": "Mo-Sa 10:00-20:00; Su 10:00-19:00",
        "brand": "Quiznos",
        "brand:wikidata": "Q1936229",
        "addr:housenumber": "17080",
        "addr:street": "Northwest 7th Avenue",
        "branch": "Sunshine 274"
      },
      "geometry": { "type": "Point", "coordinates": [-80.20944, 25.93019] }
    },
    {
      "type": "Feature",
      "id": "U7cDJqCCTBqiLabzNGNXB7zyELA=",
      "properties": {
        "ref": "15162",
        "amenity": "fast_food",
        "cuisine": "sandwich",
        "takeaway": "yes",
        "addr:city": "Cape Coral",
        "addr:state": "FL",
        "addr:postcode": "33990",
        "name": "Quiznos",
        "phone": "+1 239-242-0818",
        "opening_hours": "Mo-Sa 07:00-20:00; Su 10:00-18:00",
        "brand": "Quiznos",
        "brand:wikidata": "Q1936229",
        "addr:housenumber": "314",
        "addr:street": "Del Prado Boulevard North",
        "branch": "Sunshine 481"
      },
      "geometry": { "type": "Point", "coordinates": [-81.94111, 26.64556] }
    },
    {
      "type": "Feature",
      "id": "uDmLmxiqob3w4XrgGu_wns64nYw=",
      "properties": {
        "ref": "15164",
        "amenity": "fast_food",
        "cuisine": "sandwich",
        "takeaway": "yes",
        "addr:city": "Venice",
        "addr:state": "FL",
        "addr:postcode": "34293",
        "name": "Quiznos",
        "phone": "+1 941-218-6143",
        "opening_hours": "Mo-Fr 06:00-19:00; Sa 10:00-18:00",
        "brand": "Quiznos",
        "brand:wikidata": "Q1936229",
        "addr:housenumber": "110",
        "addr:street": "Pointe Loop Drive",
        "branch": "Sunshine 485"
      },
      "geometry": { "type": "Point", "coordinates": [-82.40076, 27.05039] }
    },
    {
      "type": "Feature",
      "id": "nMpC_OA5KAuDziFnDxc5f_UQ96Q=",
      "properties": {
        "ref": "15177",
        "amenity": "fast_food",
        "cuisine": "sandwich",
        "takeaway": "yes",
        "addr:city": "Orlando",
        "addr:state": "FL",
        "addr:postcode": "32839",
        "name": "Quiznos",
        "phone": "+1 407-203-5828",
        "opening_hours": "Mo-Fr 10:00-20:00; Sa 10:30-20:00; Su 10:00-18:00",
        "brand": "Quiznos",
        "brand:wikidata": "Q1936229",
        "addr:housenumber": "3600",
        "addr:street": "South John Young Parkway",
        "branch": "Sunshine 487"
      },
      "geometry": { "type": "Point", "coordinates": [-81.41811, 28.50568] }
    },
    {
      "type": "Feature",
      "id": "zfvjGePilphtNAdBJ3xYD9GZhY8=",
      "properties": {
        "ref": "12717",
        "addr:suite": "T. Truck Plaza - Swifties Food Mart",
        "amenity": "fast_food",
        "cuisine": "sandwich",
        "takeaway": "yes",
        "addr:city": "Hammond",
        "addr:state": "LA",
        "addr:postcode": "70403",
        "name": "Quiznos",
        "phone": "+1 985-542-2220",
        "website": "https://order.quiznos.com/menu/t-truck-plaza-2?handoff=delivery",
        "opening_hours": "10:30-19:30",
        "brand": "Quiznos",
        "brand:wikidata": "Q1936229",
        "addr:housenumber": "43106",
        "addr:street": "South Airport Road",
        "branch": "T Truck Plaza"
      },
      "geometry": { "type": "Point", "coordinates": [-90.41462, 30.48344] }
    },
    {
      "type": "Feature",
      "id": "ORemj7YQEjoiHnhivezASaH9OkM=",
      "properties": {
        "ref": "11790",
        "amenity": "fast_food",
        "cuisine": "sandwich",
        "takeaway": "yes",
        "addr:city": "Ottumwa",
        "addr:state": "IA",
        "addr:postcode": "52501",
        "name": "Quiznos",
        "phone": "+1 641-684-5661",
        "website": "https://order.quiznos.com/menu/terrace-hill-plaza-shopping-center-2?handoff=delivery",
        "opening_hours": "Mo-Sa 10:30-21:00; Su 11:00-21:00",
        "brand": "Quiznos",
        "brand:wikidata": "Q1936229",
        "addr:housenumber": "627",
        "addr:street": "East Pennsylvania Avenue",
        "branch": "Terrace Hill Plaza Shopping Center"
      },
      "geometry": { "type": "Point", "coordinates": [-92.40027, 41.02786] }
    },
    {
      "type": "Feature",
      "id": "iAT5FUyPGXy5u2Nh1j_dyiDk4E0=",
      "properties": {
        "ref": "12737",
        "addr:suite": "Plaza Drive at Hwy 198/Hwy 99",
        "amenity": "fast_food",
        "cuisine": "sandwich",
        "takeaway": "yes",
        "addr:city": "Visalia",
        "addr:state": "CA",
        "addr:postcode": "93291",
        "name": "Quiznos",
        "phone": "+1 559-651-1665",
        "website": "https://order.quiznos.com/menu/barn-at-plaza-drive-2?handoff=delivery",
        "opening_hours": "Mo-Fr 09:00-21:00; Sa 10:00-18:00",
        "brand": "Quiznos",
        "brand:wikidata": "Q1936229",
        "addr:housenumber": "202",
        "addr:street": "North Plaza Drive",
        "branch": "The Barn at Plaza Drive"
      },
      "geometry": { "type": "Point", "coordinates": [-119.391, 36.33044] }
    },
    {
      "type": "Feature",
      "id": "-tl-xgIn2n0ahdVvu7IZIgVPJOM=",
      "properties": {
        "ref": "6751",
        "amenity": "fast_food",
        "cuisine": "sandwich",
        "takeaway": "yes",
        "addr:city": "Thornton",
        "addr:state": "CO",
        "addr:postcode": "80229",
        "name": "Quiznos",
        "phone": "+1 303-288-3211",
        "website": "https://order.quiznos.com/menu/thornton-gateway-plaza-2?handoff=delivery",
        "opening_hours": "Mo-Fr 10:00-19:30; Sa-Su 11:00-19:00",
        "brand": "Quiznos",
        "brand:wikidata": "Q1936229",
        "addr:housenumber": "8426",
        "addr:street": "Pearl Street",
        "branch": "Thornton Gateway Plaza"
      },
      "geometry": {
        "type": "Point",
        "coordinates": [-104.9791969382, 39.849594067824]
      }
    },
    {
      "type": "Feature",
      "id": "e9BQw4VTd7XDyGpKPDz8uAcKnHM=",
      "properties": {
        "ref": "1043",
        "amenity": "fast_food",
        "cuisine": "sandwich",
        "takeaway": "yes",
        "addr:city": "Houston",
        "addr:state": "TX",
        "addr:postcode": "77024",
        "name": "Quiznos",
        "phone": "+1 713-647-9966",
        "website": "https://order.quiznos.com/menu/town-country-village-2?handoff=delivery",
        "opening_hours": "Mo-Sa 10:00-21:00; Su 11:00-20:00",
        "brand": "Quiznos",
        "brand:wikidata": "Q1936229",
        "addr:housenumber": "650",
        "addr:street": "West Bough Lane",
        "addr:unit": "130",
        "branch": "Town and Country Village"
      },
      "geometry": {
        "type": "Point",
        "coordinates": [-95.558447380206, 29.773632781436]
      }
    },
    {
      "type": "Feature",
      "id": "xJhByyy1I_sj764N_WOfaGSgMVQ=",
      "properties": {
        "ref": "6319",
        "amenity": "fast_food",
        "cuisine": "sandwich",
        "takeaway": "yes",
        "addr:city": "Kansas City",
        "addr:state": "MO",
        "addr:postcode": "64116",
        "name": "Quiznos",
        "phone": "+1 816-421-3444",
        "website": "https://order.quiznos.com/menu/two-ten-center-2?handoff=delivery",
        "opening_hours": "Mo-Sa 10:00-21:00",
        "brand": "Quiznos",
        "brand:wikidata": "Q1936229",
        "addr:housenumber": "2384",
        "addr:street": "Armour Road",
        "branch": "Two Ten Center"
      },
      "geometry": { "type": "Point", "coordinates": [-94.5566, 39.14563] }
    },
    {
      "type": "Feature",
      "id": "0fFBMOZna6dOtmFZqFzX8sg3FSo=",
      "properties": {
        "ref": "11239",
        "amenity": "fast_food",
        "cuisine": "sandwich",
        "takeaway": "yes",
        "addr:city": "Conway",
        "addr:state": "AR",
        "addr:postcode": "72032",
        "name": "Quiznos",
        "phone": "+1 501-450-3226",
        "opening_hours": "Mo-Fr 10:00-16:00",
        "brand": "Quiznos",
        "brand:wikidata": "Q1936229",
        "addr:housenumber": "201",
        "addr:street": "South Donaghey",
        "branch": "University of Central Arkansas"
      },
      "geometry": { "type": "Point", "coordinates": [-92.45415, 35.07933] }
    },
    {
      "type": "Feature",
      "id": "l2HUXByElqN7ZzkKic6AU6JxqmM=",
      "properties": {
        "ref": "7572",
        "addr:suite": "Oklahoma Memorial Union",
        "amenity": "fast_food",
        "cuisine": "sandwich",
        "takeaway": "yes",
        "addr:city": "Norman",
        "addr:state": "OK",
        "addr:postcode": "73019",
        "name": "Quiznos",
        "phone": "+1 405-325-3763",
        "opening_hours": "Mo-Fr 10:00-17:00",
        "brand": "Quiznos",
        "brand:wikidata": "Q1936229",
        "addr:housenumber": "900",
        "addr:street": "Asp Avenue",
        "branch": "University of Oklahoma"
      },
      "geometry": {
        "type": "Point",
        "coordinates": [-97.443727482598, 35.209814675901]
      }
    },
    {
      "type": "Feature",
      "id": "uEkYL4T0ngZIAjD26rA3_xq1hDE=",
      "properties": {
        "ref": "5982",
        "amenity": "fast_food",
        "cuisine": "sandwich",
        "takeaway": "yes",
        "addr:city": "Edwardsville",
        "addr:state": "IL",
        "addr:postcode": "62025",
        "name": "Quiznos",
        "phone": "+1 618-692-9256",
        "website": "https://order.quiznos.com/menu/university-pointe-2?handoff=delivery",
        "opening_hours": "Mo-Sa 10:30-20:00; Su 11:00-20:00",
        "brand": "Quiznos",
        "brand:wikidata": "Q1936229",
        "addr:housenumber": "1053",
        "addr:street": "Century Drive",
        "branch": "University Pointe"
      },
      "geometry": { "type": "Point", "coordinates": [-89.98101, 38.78826] }
    },
    {
      "type": "Feature",
      "id": "_Y9y_V1mQwW1v05aHz7upODJRIs=",
      "properties": {
        "ref": "1955",
        "amenity": "fast_food",
        "cuisine": "sandwich",
        "takeaway": "yes",
        "addr:city": "Urbandale",
        "addr:state": "IA",
        "addr:postcode": "50322",
        "name": "Quiznos",
        "phone": "+1 515-309-0591",
        "website": "https://order.quiznos.com/menu/urbandale-marketplace-2?handoff=delivery",
        "opening_hours": "Mo-Sa 11:00-20:00; Su 11:00-19:00",
        "brand": "Quiznos",
        "brand:wikidata": "Q1936229",
        "addr:housenumber": "11123",
        "addr:street": "Plum Drive",
        "branch": "Urbandale Marketplace"
      },
      "geometry": { "type": "Point", "coordinates": [-93.77089, 41.64791] }
    },
    {
      "type": "Feature",
      "id": "ubS7jeqsvCx-riPsf_xc5qyi8iE=",
      "properties": {
        "ref": "2959",
        "amenity": "fast_food",
        "cuisine": "sandwich",
        "takeaway": "yes",
        "addr:city": "Valparaiso",
        "addr:state": "IN",
        "addr:postcode": "46383",
        "name": "Quiznos",
        "phone": "+1 219-548-2900",
        "website": "https://order.quiznos.com/menu/valparaiso-marketplace-2?handoff=delivery",
        "opening_hours": "Mo-Sa 10:00-21:00; Su 11:00-20:00",
        "brand": "Quiznos",
        "brand:wikidata": "Q1936229",
        "addr:housenumber": "2620",
        "addr:street": "Laporte Avenue",
        "addr:unit": "130",
        "branch": "Valparaiso Marketplace"
      },
      "geometry": { "type": "Point", "coordinates": [-87.02813, 41.46887] }
    },
    {
      "type": "Feature",
      "id": "WFD6sBLS3ea1e4ZhxM0b29BztcM=",
      "properties": {
        "ref": "5608",
        "amenity": "fast_food",
        "cuisine": "sandwich",
        "takeaway": "yes",
        "addr:city": "Hollywood",
        "addr:state": "CA",
        "addr:postcode": "90027",
        "name": "Quiznos",
        "phone": "+1 323-805-2200",
        "website": "https://order.quiznos.com/menu/vermont-avenue-2?handoff=delivery",
        "opening_hours": "Mo-Fr 09:00-20:00; Sa 11:00-17:00; Su 11:00-16:00",
        "brand": "Quiznos",
        "brand:wikidata": "Q1936229",
        "addr:housenumber": "1528",
        "addr:street": "North Vermont Avenue",
        "addr:unit": "A",
        "branch": "Vermont Avenue"
      },
      "geometry": {
        "type": "Point",
        "coordinates": [-118.29176306973, 34.098960025716]
      }
    },
    {
      "type": "Feature",
      "id": "Rew4HGbRs1zsXhdsJWKHRVPmqpo=",
      "properties": {
        "ref": "12913",
        "amenity": "fast_food",
        "cuisine": "sandwich",
        "takeaway": "yes",
        "addr:city": "Roseville",
        "addr:state": "CA",
        "addr:postcode": "95747",
        "name": "Quiznos",
        "phone": "+1 916-788-3031",
        "website": "https://order.quiznos.com/menu/vineyard-pointe-center-2?handoff=delivery",
        "opening_hours": "Mo-Fr 10:00-21:00; Sa 11:00-20:00; Su 11:00-19:00",
        "brand": "Quiznos",
        "brand:wikidata": "Q1936229",
        "addr:housenumber": "3031",
        "addr:street": "Foothills Boulevard",
        "addr:unit": "100",
        "branch": "Vineyard Pointe Center"
      },
      "geometry": {
        "type": "Point",
        "coordinates": [-121.30915417492, 38.744434680076]
      }
    },
    {
      "type": "Feature",
      "id": "kK29zQp5S__ZWqGL2RBxHRSvFp0=",
      "properties": {
        "ref": "744",
        "amenity": "fast_food",
        "cuisine": "sandwich",
        "takeaway": "yes",
        "addr:city": "West Des Moines",
        "addr:state": "IA",
        "addr:postcode": "50266",
        "name": "Quiznos",
        "phone": "+1 515-267-0328",
        "website": "https://order.quiznos.com/menu/vista-centre-2?handoff=delivery",
        "opening_hours": "Mo-Sa 11:00-20:00; Su 11:00-19:00",
        "brand": "Quiznos",
        "brand:wikidata": "Q1936229",
        "addr:housenumber": "7205",
        "addr:street": "Vista Drive",
        "addr:unit": "120",
        "branch": "Vista Centre"
      },
      "geometry": { "type": "Point", "coordinates": [-93.80825, 41.58893] }
    },
    {
      "type": "Feature",
      "id": "JszgDHhydjl8WrRJZKDuoG8zKUs=",
      "properties": {
        "ref": "14969",
        "amenity": "fast_food",
        "cuisine": "sandwich",
        "takeaway": "yes",
        "addr:city": "Georgetown",
        "addr:state": "TX",
        "addr:postcode": "78626",
        "name": "Quiznos",
        "phone": "+1 512-688-5152",
        "opening_hours": "Mo-Sa 09:00-21:00; Su 10:00-21:00",
        "brand": "Quiznos",
        "brand:wikidata": "Q1936229",
        "addr:housenumber": "4610",
        "addr:street": "North Interstate 35",
        "branch": "Walburg Travel Center"
      },
      "geometry": { "type": "Point", "coordinates": [-97.6481, 30.71093] }
    },
    {
      "type": "Feature",
      "id": "8Qh9vasFkqByZh6F1S4xnOH0MW4=",
      "properties": {
        "ref": "3287",
        "amenity": "fast_food",
        "cuisine": "sandwich",
        "takeaway": "yes",
        "addr:city": "Lynnwood",
        "addr:state": "WA",
        "addr:postcode": "98087",
        "name": "Quiznos",
        "phone": "+1 425-745-7718",
        "website": "https://order.quiznos.com/menu/walmart-center-2?handoff=delivery",
        "opening_hours": "Mo-Sa 11:00-20:00; Su 11:00-18:00",
        "brand": "Quiznos",
        "brand:wikidata": "Q1936229",
        "addr:housenumber": "1330",
        "addr:street": "164th Street Southwest",
        "addr:unit": "110",
        "branch": "Walmart Center"
      },
      "geometry": {
        "type": "Point",
        "coordinates": [-122.25186558503, 47.849793891087]
      }
    },
    {
      "type": "Feature",
      "id": "aMZqqHY0Xd_wBA8Dsjha7B4SvYs=",
      "properties": {
        "ref": "2267",
        "amenity": "fast_food",
        "cuisine": "sandwich",
        "takeaway": "yes",
        "addr:city": "Wayne",
        "addr:state": "MI",
        "addr:postcode": "48184",
        "name": "Quiznos",
        "phone": "+1 734-721-5555",
        "website": "https://order.quiznos.com/menu/wayne-2?handoff=delivery",
        "opening_hours": "Mo-Sa 10:00-21:00; Su 11:00-20:00",
        "brand": "Quiznos",
        "brand:wikidata": "Q1936229",
        "addr:housenumber": "39345",
        "addr:street": "Michigan Avenue",
        "branch": "Wayne"
      },
      "geometry": {
        "type": "Point",
        "coordinates": [-83.426773342482, 42.278812141529]
      }
    },
    {
      "type": "Feature",
      "id": "ni6Ey43n03DoJz8iczHq8LeIigQ=",
      "properties": {
        "ref": "15188",
        "amenity": "fast_food",
        "cuisine": "sandwich",
        "takeaway": "yes",
        "addr:city": "Lakeland",
        "addr:state": "FL",
        "addr:postcode": "33805",
        "name": "Quiznos",
        "phone": "+1 863-816-4775",
        "website": "https://order.quiznos.com/menu/nick-moes-3-lakeland",
        "opening_hours": "Mo-Sa 06:00-20:00; Su 11:00-18:00",
        "brand": "Quiznos",
        "brand:wikidata": "Q1936229",
        "addr:housenumber": "2750",
        "addr:street": "Highway 98 North",
        "branch": "Wayne's Amaco"
      },
      "geometry": { "type": "Point", "coordinates": [-81.9628, 28.07728] }
    },
    {
      "type": "Feature",
      "id": "_TuP72yGjdbe_vMUBvQr52NWRYU=",
      "properties": {
        "ref": "7179",
        "amenity": "fast_food",
        "cuisine": "sandwich",
        "takeaway": "yes",
        "addr:city": "Springfield",
        "addr:state": "IL",
        "addr:postcode": "62704",
        "name": "Quiznos",
        "phone": "+1 217-787-7304",
        "website": "https://order.quiznos.com/menu/west-lawrence-2?handoff=delivery",
        "opening_hours": "Mo-Sa 10:00-19:00; Su 11:00-19:00",
        "brand": "Quiznos",
        "brand:wikidata": "Q1936229",
        "addr:housenumber": "2701",
        "addr:street": "West Lawrence Avenue",
        "branch": "West Lawrence"
      },
      "geometry": { "type": "Point", "coordinates": [-89.70489, 39.79521] }
    },
    {
      "type": "Feature",
      "id": "Rzi_0vglFyj6anuQDX5lcwTQrY4=",
      "properties": {
        "ref": "5221",
        "amenity": "fast_food",
        "cuisine": "sandwich",
        "takeaway": "yes",
        "addr:city": "Reno",
        "addr:state": "NV",
        "addr:postcode": "89512",
        "name": "Quiznos",
        "phone": "+1 775-674-3222",
        "website": "https://order.quiznos.com/menu/wildcreek-2?handoff=delivery",
        "opening_hours": "Mo-Sa 10:00-21:00; Su 11:00-20:00",
        "brand": "Quiznos",
        "brand:wikidata": "Q1936229",
        "addr:housenumber": "2905",
        "addr:street": "Northtowne Lane",
        "addr:unit": "120",
        "branch": "Wildcreek"
      },
      "geometry": { "type": "Point", "coordinates": [-119.782277, 39.5569] }
    },
    {
      "type": "Feature",
      "id": "f7-ZsfLUiiV2tihg0aj917aw68I=",
      "properties": {
        "ref": "1231",
        "amenity": "fast_food",
        "cuisine": "sandwich",
        "takeaway": "yes",
        "addr:city": "Wixom",
        "addr:state": "MI",
        "addr:postcode": "48393",
        "name": "Quiznos",
        "phone": "+1 248-960-4808",
        "website": "https://order.quiznos.com/menu/wixom-mi-2?handoff=delivery",
        "opening_hours": "Mo-Fr 10:00-21:00; Sa 10:00-20:00; Su 11:00-18:00",
        "brand": "Quiznos",
        "brand:wikidata": "Q1936229",
        "addr:housenumber": "29814",
        "addr:street": "South Wixom Road",
        "branch": "Wixom, MI"
      },
      "geometry": { "type": "Point", "coordinates": [-83.536729, 42.511685] }
    },
    {
      "type": "Feature",
      "id": "HGePtdyYLWQWh79l8-I4GTgkVgY=",
      "properties": {
        "ref": "1482",
        "amenity": "fast_food",
        "cuisine": "sandwich",
        "takeaway": "yes",
        "addr:city": "Jackson",
        "addr:state": "MS",
        "addr:postcode": "39216",
        "name": "Quiznos",
        "phone": "+1 601-713-0357",
        "website": "https://order.quiznos.com/menu/woodland-hills-2?handoff=delivery",
        "opening_hours": "Mo-Fr 10:00-20:00; Sa 10:00-15:00",
        "brand": "Quiznos",
        "brand:wikidata": "Q1936229",
        "addr:housenumber": "2945",
        "addr:street": "Old Canton Road",
        "branch": "Woodland Hills"
      },
      "geometry": { "type": "Point", "coordinates": [-90.17458, 32.33401] }
    },
    {
      "type": "Feature",
      "id": "AEUtj0v9V93POq9bgZ9ZP3-OUAc=",
      "properties": {
        "ref": "3054",
        "amenity": "fast_food",
        "cuisine": "sandwich",
        "takeaway": "yes",
        "addr:city": "The Woodlands",
        "addr:state": "TX",
        "addr:postcode": "77380",
        "name": "Quiznos",
        "phone": "+1 281-419-5968",
        "website": "https://order.quiznos.com/menu/woodlands-town-centre-2?handoff=delivery",
        "opening_hours": "Mo-Sa 10:00-21:00; Su 11:00-20:00",
        "brand": "Quiznos",
        "brand:wikidata": "Q1936229",
        "addr:housenumber": "1440A",
        "addr:street": "Lake Woodlands Drive",
        "branch": "Woodlands Town Centre"
      },
      "geometry": { "type": "Point", "coordinates": [-95.45669, 30.16732] }
    },
    {
      "type": "Feature",
      "id": "GVi3ips9Jj2XoyW2wDp_dCwqMJQ=",
      "properties": {
        "ref": "14986",
        "amenity": "fast_food",
        "cuisine": "sandwich",
        "takeaway": "yes",
        "addr:city": "North Hills",
        "addr:state": "CA",
        "addr:postcode": "91343",
        "name": "Quiznos",
        "phone": "+1 818-895-0095",
        "website": "https://order.quiznos.com/menu/woodley-parthenia-2?handoff=delivery",
        "opening_hours": "Mo-Fr 10:00-20:30; Sa 10:00-20:00; Su 11:00-20:00",
        "brand": "Quiznos",
        "brand:wikidata": "Q1936229",
        "addr:housenumber": "8625",
        "addr:street": "Woodley Avenue",
        "branch": "Woodley and Parthenia"
      },
      "geometry": {
        "type": "Point",
        "coordinates": [-118.48522583114, 34.226968684591]
      }
    },
    {
      "type": "Feature",
      "id": "cGZeWEruo8XHYCAqiSIBho_CGp8=",
      "properties": {
        "ref": "4015",
        "amenity": "fast_food",
        "cuisine": "sandwich",
        "takeaway": "yes",
        "addr:city": "Yelm",
        "addr:state": "WA",
        "addr:postcode": "98597",
        "name": "Quiznos",
        "phone": "+1 360-400-7827",
        "website": "https://order.quiznos.com/menu/yelm-plaza-shopping-center-2?handoff=delivery",
        "opening_hours": "Mo-Sa 11:00-20:00; Su 11:00-19:00",
        "brand": "Quiznos",
        "brand:wikidata": "Q1936229",
        "addr:housenumber": "1202",
        "addr:street": "East Yelm Avenue",
        "addr:unit": "E",
        "branch": "Yelm Plaza Shopping Center"
      },
      "geometry": {
        "type": "Point",
        "coordinates": [-122.59270420269, 46.934446641025]
      }
    }
  ]
}
